{
   "type": "FeatureCollection",
   "features": [
  {
    "type": "Feature",
    "geometry": {
       "type": "Point",
       "coordinates":  [ 121.5294176,25.1119217 ]
    },
    "properties": {
    "地址":"臺北市士林區士東路100號",
    "行政區":"士林區",
    "行政區代碼":63000110
    }
  },
  {
    "type": "Feature",
    "geometry": {
       "type": "Point",
       "coordinates":  [ 121.5214896,25.0894208 ]
    },
    "properties": {
    "地址":"臺北市士林區士商路1號",
    "行政區":"士林區",
    "行政區代碼":63000110
    }
  },
  {
    "type": "Feature",
    "geometry": {
       "type": "Point",
       "coordinates":  [ 121.5286019,25.0951887 ]
    },
    "properties": {
    "地址":"臺北市士林區中山北路五段570號旁",
    "行政區":"士林區",
    "行政區代碼":63000110
    }
  },
  {
    "type": "Feature",
    "geometry": {
       "type": "Point",
       "coordinates":  [ 121.529031,25.0957715 ]
    },
    "properties": {
    "地址":"臺北市士林區中正路115號",
    "行政區":"士林區",
    "行政區代碼":63000110
    }
  },
  {
    "type": "Feature",
    "geometry": {
       "type": "Point",
       "coordinates":  [ 121.5532316,25.1028387 ]
    },
    "properties": {
    "地址":"臺北市士林區至善路二段與力行路口",
    "行政區":"士林區",
    "行政區代碼":63000110
    }
  },
  {
    "type": "Feature",
    "geometry": {
       "type": "Point",
       "coordinates":  [ 121.5028742,25.0902432 ]
    },
    "properties": {
    "地址":"臺北市士林區延平北路6段308號",
    "行政區":"士林區",
    "行政區代碼":63000110
    }
  },
  {
    "type": "Feature",
    "geometry": {
       "type": "Point",
       "coordinates":  [ 121.5098975,25.0788328 ]
    },
    "properties": {
    "地址":"臺北市士林區延平北路五段1巷",
    "行政區":"士林區",
    "行政區代碼":63000110
    }
  },
  {
    "type": "Feature",
    "geometry": {
       "type": "Point",
       "coordinates":  [ 121.5285025,25.1048385 ]
    },
    "properties": {
    "地址":"臺北市士林區忠誠路一段101號",
    "行政區":"士林區",
    "行政區代碼":63000110
    }
  },
  {
    "type": "Feature",
    "geometry": {
       "type": "Point",
       "coordinates":  [ 121.5314695,25.1118523 ]
    },
    "properties": {
    "地址":"臺北市士林區忠誠路二段55號",
    "行政區":"士林區",
    "行政區代碼":63000110
    }
  },
  {
    "type": "Feature",
    "geometry": {
       "type": "Point",
       "coordinates":  [ 121.5174371,25.0900524 ]
    },
    "properties": {
    "地址":"臺北市士林區承德路4段340號",
    "行政區":"士林區",
    "行政區代碼":63000110
    }
  },
  {
    "type": "Feature",
    "geometry": {
       "type": "Point",
       "coordinates":  [ 121.5236393,25.0827211 ]
    },
    "properties": {
    "地址":"臺北市士林區承德路四段83號",
    "行政區":"士林區",
    "行政區代碼":63000110
    }
  },
  {
    "type": "Feature",
    "geometry": {
       "type": "Point",
       "coordinates":  [ 121.5464247,25.1379514 ]
    },
    "properties": {
    "地址":"臺北市士林區格致路59號1樓",
    "行政區":"士林區",
    "行政區代碼":63000110
    }
  },
  {
    "type": "Feature",
    "geometry": {
       "type": "Point",
       "coordinates":  [ 121.5324602,25.0958808 ]
    },
    "properties": {
    "地址":"臺北市士林區福林路100巷11弄交叉口",
    "行政區":"士林區",
    "行政區代碼":63000110
    }
  },
  {
    "type": "Feature",
    "geometry": {
       "type": "Point",
       "coordinates":  [ 121.5225928,25.1027143 ]
    },
    "properties": {
    "地址":"臺北市士林區福國路70號捷運站1號出口",
    "行政區":"士林區",
    "行政區代碼":63000110
    }
  },
  {
    "type": "Feature",
    "geometry": {
       "type": "Point",
       "coordinates":  [ 121.5271925,25.0925495 ]
    },
    "properties": {
    "地址":"臺北市士林區中山北路五段465號旁電池交換站",
    "行政區":"士林區",
    "行政區代碼":63000110
    }
  },
  {
    "type": "Feature",
    "geometry": {
       "type": "Point",
       "coordinates":  [ 121.5344929,25.1099016 ]
    },
    "properties": {
    "地址":"臺北市士林區德行東路249號旁",
    "行政區":"士林區",
    "行政區代碼":63000110
    }
  },
  {
    "type": "Feature",
    "geometry": {
       "type": "Point",
       "coordinates":  [ 121.5210984,25.0857225 ]
    },
    "properties": {
    "地址":"臺北市士林區前港街45號",
    "行政區":"士林區",
    "行政區代碼":63000110
    }
  },
  {
    "type": "Feature",
    "geometry": {
       "type": "Point",
       "coordinates":  [ 121.5296398,25.1188544 ]
    },
    "properties": {
    "地址":"臺北市士林區天母西路3-53號前",
    "行政區":"士林區",
    "行政區代碼":63000110
    }
  },
  {
    "type": "Feature",
    "geometry": {
       "type": "Point",
       "coordinates":  [ 121.5077299,25.0890642 ]
    },
    "properties": {
    "地址":"臺北市士林區延平北路六段139號",
    "行政區":"士林區",
    "行政區代碼":63000110
    }
  },
  {
    "type": "Feature",
    "geometry": {
       "type": "Point",
       "coordinates":  [ 121.5113414,25.0863432 ]
    },
    "properties": {
    "地址":"臺北市士林區重慶北路四段232號1樓",
    "行政區":"士林區",
    "行政區代碼":63000110
    }
  },
  {
    "type": "Feature",
    "geometry": {
       "type": "Point",
       "coordinates":  [ 121.5226374,25.1055633 ]
    },
    "properties": {
    "地址":"臺北市士林區德行西路47號",
    "行政區":"士林區",
    "行政區代碼":63000110
    }
  },
  {
    "type": "Feature",
    "geometry": {
       "type": "Point",
       "coordinates":  [ 121.547422,25.096635 ]
    },
    "properties": {
    "地址":"臺北市士林區故宮路41巷1號",
    "行政區":"士林區",
    "行政區代碼":63000110
    }
  },
  {
    "type": "Feature",
    "geometry": {
       "type": "Point",
       "coordinates":  [ 121.5068856,25.0875974 ]
    },
    "properties": {
    "地址":"臺北市士林區社子街63巷2號",
    "行政區":"士林區",
    "行政區代碼":63000110
    }
  },
  {
    "type": "Feature",
    "geometry": {
       "type": "Point",
       "coordinates":  [ 121.513059,25.0821633 ]
    },
    "properties": {
    "地址":"臺北市士林區重慶北路四段78號及80號",
    "行政區":"士林區",
    "行政區代碼":63000110
    }
  },
  {
    "type": "Feature",
    "geometry": {
       "type": "Point",
       "coordinates":  [ 121.5288302,25.1028261 ]
    },
    "properties": {
    "地址":"臺北市士林區雨聲街52號、52-1號、52巷1號 ",
    "行政區":"士林區",
    "行政區代碼":63000110
    }
  },
  {
    "type": "Feature",
    "geometry": {
       "type": "Point",
       "coordinates":  [ 121.5260328,25.1170608 ]
    },
    "properties": {
    "地址":"臺北市士林區中山北路六段405巷79號",
    "行政區":"士林區",
    "行政區代碼":63000110
    }
  },
  {
    "type": "Feature",
    "geometry": {
       "type": "Point",
       "coordinates":  [ 121.5271925,25.0925495 ]
    },
    "properties": {
    "地址":"臺北市士林區中山北路五段465號",
    "行政區":"士林區",
    "行政區代碼":63000110
    }
  },
  {
    "type": "Feature",
    "geometry": {
       "type": "Point",
       "coordinates":  [ 121.5178803,25.0890576 ]
    },
    "properties": {
    "地址":"臺北市士林區大南路334號",
    "行政區":"士林區",
    "行政區代碼":63000110
    }
  },
  {
    "type": "Feature",
    "geometry": {
       "type": "Point",
       "coordinates":  [ 121.5049427,25.0907941 ]
    },
    "properties": {
    "地址":"臺北市士林區永平街39號",
    "行政區":"士林區",
    "行政區代碼":63000110
    }
  },
  {
    "type": "Feature",
    "geometry": {
       "type": "Point",
       "coordinates":  [ 121.5098593,25.0902038 ]
    },
    "properties": {
    "地址":"臺北市士林區社中街133號",
    "行政區":"士林區",
    "行政區代碼":63000110
    }
  },
  {
    "type": "Feature",
    "geometry": {
       "type": "Point",
       "coordinates":  [ 121.5296439,25.1082486 ]
    },
    "properties": {
    "地址":"臺北市士林區德行東路149號",
    "行政區":"士林區",
    "行政區代碼":63000110
    }
  },
  {
    "type": "Feature",
    "geometry": {
       "type": "Point",
       "coordinates":  [ 121.5178146,25.082488 ]
    },
    "properties": {
    "地址":"臺北市士林區和豐街39巷2號",
    "行政區":"士林區",
    "行政區代碼":63000110
    }
  },
  {
    "type": "Feature",
    "geometry": {
       "type": "Point",
       "coordinates":  [ 121.5425978,25.1378381 ]
    },
    "properties": {
    "地址":"臺北市士林區華岡路31之3號",
    "行政區":"士林區",
    "行政區代碼":63000110
    }
  },
  {
    "type": "Feature",
    "geometry": {
       "type": "Point",
       "coordinates":  [ 121.5049183,25.0906468 ]
    },
    "properties": {
    "地址":"臺北市士林區永平街35號",
    "行政區":"士林區",
    "行政區代碼":63000110
    }
  },
  {
    "type": "Feature",
    "geometry": {
       "type": "Point",
       "coordinates":  [ 121.5271925,25.0925495 ]
    },
    "properties": {
    "地址":"臺北市士林區中山北路五段465號",
    "行政區":"士林區",
    "行政區代碼":63000110
    }
  },
  {
    "type": "Feature",
    "geometry": {
       "type": "Point",
       "coordinates":  [ 121.5165305,25.0673826 ]
    },
    "properties": {
    "地址":"臺北市大同區大龍街91巷7號對面",
    "行政區":"大同區",
    "行政區代碼":63000060
    }
  },
  {
    "type": "Feature",
    "geometry": {
       "type": "Point",
       "coordinates":  [ 121.5119779,25.0744147 ]
    },
    "properties": {
    "地址":"臺北市大同區延平北路四段205號",
    "行政區":"大同區",
    "行政區代碼":63000060
    }
  },
  {
    "type": "Feature",
    "geometry": {
       "type": "Point",
       "coordinates":  [ 121.5184286,25.0540267 ]
    },
    "properties": {
    "地址":"臺北市大同區承德路二段31號",
    "行政區":"大同區",
    "行政區代碼":63000060
    }
  },
  {
    "type": "Feature",
    "geometry": {
       "type": "Point",
       "coordinates":  [ 121.5196569,25.0504025 ]
    },
    "properties": {
    "地址":"臺北市大同區長安西路37號之1",
    "行政區":"大同區",
    "行政區代碼":63000060
    }
  },
  {
    "type": "Feature",
    "geometry": {
       "type": "Point",
       "coordinates":  [ 121.51015,25.0557803 ]
    },
    "properties": {
    "地址":"臺北市大同區迪化街一段63號",
    "行政區":"大同區",
    "行政區代碼":63000060
    }
  },
  {
    "type": "Feature",
    "geometry": {
       "type": "Point",
       "coordinates":  [ 121.5130694,25.0601377 ]
    },
    "properties": {
    "地址":"臺北市大同區重慶北路二段180號",
    "行政區":"大同區",
    "行政區代碼":63000060
    }
  },
  {
    "type": "Feature",
    "geometry": {
       "type": "Point",
       "coordinates":  [ 121.5159014,25.0714662 ]
    },
    "properties": {
    "地址":"臺北市大同區大龍街262號(近大龍夜市商圈)",
    "行政區":"大同區",
    "行政區代碼":63000060
    }
  },
  {
    "type": "Feature",
    "geometry": {
       "type": "Point",
       "coordinates":  [ 121.516972,25.0594433 ]
    },
    "properties": {
    "地址":"臺北市大同區歸綏街79巷11號",
    "行政區":"大同區",
    "行政區代碼":63000060
    }
  },
  {
    "type": "Feature",
    "geometry": {
       "type": "Point",
       "coordinates":  [ 121.5072718,25.0501036 ]
    },
    "properties": {
    "地址":"臺北市大同區西寧北路28號",
    "行政區":"大同區",
    "行政區代碼":63000060
    }
  },
  {
    "type": "Feature",
    "geometry": {
       "type": "Point",
       "coordinates":  [ 121.5188456,25.0710219 ]
    },
    "properties": {
    "地址":"臺北市大同區承德路三段237號前",
    "行政區":"大同區",
    "行政區代碼":63000060
    }
  },
  {
    "type": "Feature",
    "geometry": {
       "type": "Point",
       "coordinates":  [ 121.5085373,25.0522628 ]
    },
    "properties": {
    "地址":"臺北市大同區西寧北路與鄭州路口電池交換站",
    "行政區":"大同區",
    "行政區代碼":63000060
    }
  },
  {
    "type": "Feature",
    "geometry": {
       "type": "Point",
       "coordinates":  [ 121.5204761,25.0753571 ]
    },
    "properties": {
    "地址":"臺北市大同區承德路三段291號",
    "行政區":"大同區",
    "行政區代碼":63000060
    }
  },
  {
    "type": "Feature",
    "geometry": {
       "type": "Point",
       "coordinates":  [ 121.5170464,25.0720583 ]
    },
    "properties": {
    "地址":"臺北市大同區庫倫街1號",
    "行政區":"大同區",
    "行政區代碼":63000060
    }
  },
  {
    "type": "Feature",
    "geometry": {
       "type": "Point",
       "coordinates":  [ 121.5122326,25.0722176 ]
    },
    "properties": {
    "地址":"臺北市大同區酒泉街187號",
    "行政區":"大同區",
    "行政區代碼":63000060
    }
  },
  {
    "type": "Feature",
    "geometry": {
       "type": "Point",
       "coordinates":  [ 121.513478,25.0590066 ]
    },
    "properties": {
    "地址":"臺北市大同區重慶北路二段164號",
    "行政區":"大同區",
    "行政區代碼":63000060
    }
  },
  {
    "type": "Feature",
    "geometry": {
       "type": "Point",
       "coordinates":  [ 121.514464,25.0626321 ]
    },
    "properties": {
    "地址":"臺北市大同區蘭州街42號",
    "行政區":"大同區",
    "行政區代碼":63000060
    }
  },
  {
    "type": "Feature",
    "geometry": {
       "type": "Point",
       "coordinates":  [ 121.5152624,25.0721494 ]
    },
    "properties": {
    "地址":"臺北市大同區酒泉街105號",
    "行政區":"大同區",
    "行政區代碼":63000060
    }
  },
  {
    "type": "Feature",
    "geometry": {
       "type": "Point",
       "coordinates":  [ 121.5190428,25.0590071 ]
    },
    "properties": {
    "地址":"臺北市大同區雙連街45號",
    "行政區":"大同區",
    "行政區代碼":63000060
    }
  },
  {
    "type": "Feature",
    "geometry": {
       "type": "Point",
       "coordinates":  [ 121.5179741,25.0608631 ]
    },
    "properties": {
    "地址":"臺北市大同區承德路二段164號(三站同一地址)",
    "行政區":"大同區",
    "行政區代碼":63000060
    }
  },
  {
    "type": "Feature",
    "geometry": {
       "type": "Point",
       "coordinates":  [ 121.5179741,25.0608631 ]
    },
    "properties": {
    "地址":"臺北市大同區承德路二段164號",
    "行政區":"大同區",
    "行政區代碼":63000060
    }
  },
  {
    "type": "Feature",
    "geometry": {
       "type": "Point",
       "coordinates":  [ 121.5179741,25.0608631 ]
    },
    "properties": {
    "地址":"臺北市大同區承德路二段164號",
    "行政區":"大同區",
    "行政區代碼":63000060
    }
  },
  {
    "type": "Feature",
    "geometry": {
       "type": "Point",
       "coordinates":  [ 121.5167511,25.0684268 ]
    },
    "properties": {
    "地址":"臺北市大同區民族西路120、122號1樓",
    "行政區":"大同區",
    "行政區代碼":63000060
    }
  },
  {
    "type": "Feature",
    "geometry": {
       "type": "Point",
       "coordinates":  [ 121.518093,25.0640684 ]
    },
    "properties": {
    "地址":"臺北市大同區承德路三段20號",
    "行政區":"大同區",
    "行政區代碼":63000060
    }
  },
  {
    "type": "Feature",
    "geometry": {
       "type": "Point",
       "coordinates":  [ 121.5480141,25.0341371 ]
    },
    "properties": {
    "地址":"臺北市大安區四維路78號對面",
    "行政區":"大安區",
    "行政區代碼":63000030
    }
  },
  {
    "type": "Feature",
    "geometry": {
       "type": "Point",
       "coordinates":  [ 121.5285368,25.0274561 ]
    },
    "properties": {
    "地址":"臺北市大安區和平東路一段129號",
    "行政區":"大安區",
    "行政區代碼":63000030
    }
  },
  {
    "type": "Feature",
    "geometry": {
       "type": "Point",
       "coordinates":  [ 121.5529776,25.0238524 ]
    },
    "properties": {
    "地址":"臺北市大安區和平東路三段168號",
    "行政區":"大安區",
    "行政區代碼":63000030
    }
  },
  {
    "type": "Feature",
    "geometry": {
       "type": "Point",
       "coordinates":  [ 121.5465516,25.023297 ]
    },
    "properties": {
    "地址":"臺北市大安區臥龍街20之1號旁",
    "行政區":"大安區",
    "行政區代碼":63000030
    }
  },
  {
    "type": "Feature",
    "geometry": {
       "type": "Point",
       "coordinates":  [ 121.5370089,25.0443076 ]
    },
    "properties": {
    "地址":"臺北市大安區建國南路一段57-1號",
    "行政區":"大安區",
    "行政區代碼":63000030
    }
  },
  {
    "type": "Feature",
    "geometry": {
       "type": "Point",
       "coordinates":  [ 121.5381668,25.0310723 ]
    },
    "properties": {
    "地址":"臺北市大安區建國南路二段73號",
    "行政區":"大安區",
    "行政區代碼":63000030
    }
  },
  {
    "type": "Feature",
    "geometry": {
       "type": "Point",
       "coordinates":  [ 121.5381249,25.0310437 ]
    },
    "properties": {
    "地址":"臺北市大安區建國南路二段75-1號",
    "行政區":"大安區",
    "行政區代碼":63000030
    }
  },
  {
    "type": "Feature",
    "geometry": {
       "type": "Point",
       "coordinates":  [ 121.5554202,25.0271422 ]
    },
    "properties": {
    "地址":"臺北市大安區基隆路二段166-1號旁",
    "行政區":"大安區",
    "行政區代碼":63000030
    }
  },
  {
    "type": "Feature",
    "geometry": {
       "type": "Point",
       "coordinates":  [ 121.5426647,25.0128656 ]
    },
    "properties": {
    "地址":"臺北市大安區基隆路四段43號",
    "行政區":"大安區",
    "行政區代碼":63000030
    }
  },
  {
    "type": "Feature",
    "geometry": {
       "type": "Point",
       "coordinates":  [ 121.5535944,25.0274369 ]
    },
    "properties": {
    "地址":"臺北市大安區通化街177號",
    "行政區":"大安區",
    "行政區代碼":63000030
    }
  },
  {
    "type": "Feature",
    "geometry": {
       "type": "Point",
       "coordinates":  [ 121.549271,25.0389771 ]
    },
    "properties": {
    "地址":"臺北市大安區敦化南路1段247巷12號",
    "行政區":"大安區",
    "行政區代碼":63000030
    }
  },
  {
    "type": "Feature",
    "geometry": {
       "type": "Point",
       "coordinates":  [ 121.533175,25.02305 ]
    },
    "properties": {
    "地址":"臺北市大安區溫州街26號旁",
    "行政區":"大安區",
    "行政區代碼":63000030
    }
  },
  {
    "type": "Feature",
    "geometry": {
       "type": "Point",
       "coordinates":  [ 121.5249347,25.0289923 ]
    },
    "properties": {
    "地址":"臺北市大安區潮州街94號",
    "行政區":"大安區",
    "行政區代碼":63000030
    }
  },
  {
    "type": "Feature",
    "geometry": {
       "type": "Point",
       "coordinates":  [ 121.5372462,25.0119717 ]
    },
    "properties": {
    "地址":"臺北市大安區羅斯福路4段107號",
    "行政區":"大安區",
    "行政區代碼":63000030
    }
  },
  {
    "type": "Feature",
    "geometry": {
       "type": "Point",
       "coordinates":  [ 121.5498199,25.0372373 ]
    },
    "properties": {
    "地址":"臺北市大安區仁愛路四段118號",
    "行政區":"大安區",
    "行政區代碼":63000030
    }
  },
  {
    "type": "Feature",
    "geometry": {
       "type": "Point",
       "coordinates":  [ 121.5427418,25.0342691 ]
    },
    "properties": {
    "地址":"臺北市大安區信義路3段157巷10弄2號旁",
    "行政區":"大安區",
    "行政區代碼":63000030
    }
  },
  {
    "type": "Feature",
    "geometry": {
       "type": "Point",
       "coordinates":  [ 121.5380734,25.023735 ]
    },
    "properties": {
    "地址":"臺北市大安區建國南路二段305號",
    "行政區":"大安區",
    "行政區代碼":63000030
    }
  },
  {
    "type": "Feature",
    "geometry": {
       "type": "Point",
       "coordinates":  [ 121.5332197,25.02644 ]
    },
    "properties": {
    "地址":"臺北市大安區和平東路3段410號",
    "行政區":"大安區",
    "行政區代碼":63000030
    }
  },
  {
    "type": "Feature",
    "geometry": {
       "type": "Point",
       "coordinates":  [ 121.5252383,25.0322983 ]
    },
    "properties": {
    "地址":"臺北市大安區愛國東路31號前",
    "行政區":"大安區",
    "行政區代碼":63000030
    }
  },
  {
    "type": "Feature",
    "geometry": {
       "type": "Point",
       "coordinates":  [ 121.5288402,25.0258876 ]
    },
    "properties": {
    "地址":"臺北市大安區師大路9號",
    "行政區":"大安區",
    "行政區代碼":63000030
    }
  },
  {
    "type": "Feature",
    "geometry": {
       "type": "Point",
       "coordinates":  [ 121.5483886,25.0441972 ]
    },
    "properties": {
    "地址":"臺北市大安區敦化南路1段142號",
    "行政區":"大安區",
    "行政區代碼":63000030
    }
  },
  {
    "type": "Feature",
    "geometry": {
       "type": "Point",
       "coordinates":  [ 121.5538899,25.0433163 ]
    },
    "properties": {
    "地址":"臺北市大安區延吉街64之1號",
    "行政區":"大安區",
    "行政區代碼":63000030
    }
  },
  {
    "type": "Feature",
    "geometry": {
       "type": "Point",
       "coordinates":  [ 121.5558676,25.031746 ]
    },
    "properties": {
    "地址":"臺北市大安區通化街19巷39號",
    "行政區":"大安區",
    "行政區代碼":63000030
    }
  },
  {
    "type": "Feature",
    "geometry": {
       "type": "Point",
       "coordinates":  [ 121.5431999,25.0282394 ]
    },
    "properties": {
    "地址":"臺北市大安區復興南路2段148號1樓全部",
    "行政區":"大安區",
    "行政區代碼":63000030
    }
  },
  {
    "type": "Feature",
    "geometry": {
       "type": "Point",
       "coordinates":  [ 121.5331873,25.0384674 ]
    },
    "properties": {
    "地址":"臺北市大安區仁愛路三段1號",
    "行政區":"大安區",
    "行政區代碼":63000030
    }
  },
  {
    "type": "Feature",
    "geometry": {
       "type": "Point",
       "coordinates":  [ 121.5570251,25.0191012 ]
    },
    "properties": {
    "地址":"臺北市大安區富陽街129號",
    "行政區":"大安區",
    "行政區代碼":63000030
    }
  },
  {
    "type": "Feature",
    "geometry": {
       "type": "Point",
       "coordinates":  [ 121.5561518,25.0206583 ]
    },
    "properties": {
    "地址":"臺北市大安區和平東路三段298號300號1樓",
    "行政區":"大安區",
    "行政區代碼":63000030
    }
  },
  {
    "type": "Feature",
    "geometry": {
       "type": "Point",
       "coordinates":  [ 121.5499051,25.0222881 ]
    },
    "properties": {
    "地址":"臺北市大安區基隆路二段264號",
    "行政區":"大安區",
    "行政區代碼":63000030
    }
  },
  {
    "type": "Feature",
    "geometry": {
       "type": "Point",
       "coordinates":  [ 121.551304,25.0306599 ]
    },
    "properties": {
    "地址":"臺北市大安區敦化南路二段63巷54弄6號",
    "行政區":"大安區",
    "行政區代碼":63000030
    }
  },
  {
    "type": "Feature",
    "geometry": {
       "type": "Point",
       "coordinates":  [ 121.533251,25.015445 ]
    },
    "properties": {
    "地址":"臺北市大安區羅斯福路四段3號",
    "行政區":"大安區",
    "行政區代碼":63000030
    }
  },
  {
    "type": "Feature",
    "geometry": {
       "type": "Point",
       "coordinates":  [ 121.5556079,25.0327687 ]
    },
    "properties": {
    "地址":"臺北市大安區信義路四段374號",
    "行政區":"大安區",
    "行政區代碼":63000030
    }
  },
  {
    "type": "Feature",
    "geometry": {
       "type": "Point",
       "coordinates":  [ 121.5331873,25.0384674 ]
    },
    "properties": {
    "地址":"臺北市大安區仁愛路三段1號",
    "行政區":"大安區",
    "行政區代碼":63000030
    }
  },
  {
    "type": "Feature",
    "geometry": {
       "type": "Point",
       "coordinates":  [ 121.5570251,25.0191012 ]
    },
    "properties": {
    "地址":"臺北市大安區富陽街129號",
    "行政區":"大安區",
    "行政區代碼":63000030
    }
  },
  {
    "type": "Feature",
    "geometry": {
       "type": "Point",
       "coordinates":  [ 121.546091,25.0837391 ]
    },
    "properties": {
    "地址":"臺北市中山區大直街70號",
    "行政區":"中山區",
    "行政區代碼":63000040
    }
  },
  {
    "type": "Feature",
    "geometry": {
       "type": "Point",
       "coordinates":  [ 121.5235312,25.0561939 ]
    },
    "properties": {
    "地址":"臺北市中山區中山北路二段59巷3弄7號",
    "行政區":"中山區",
    "行政區代碼":63000040
    }
  },
  {
    "type": "Feature",
    "geometry": {
       "type": "Point",
       "coordinates":  [ 121.5562243,25.0849942 ]
    },
    "properties": {
    "地址":"臺北市中山區北安路819之1號",
    "行政區":"中山區",
    "行政區代碼":63000040
    }
  },
  {
    "type": "Feature",
    "geometry": {
       "type": "Point",
       "coordinates":  [ 121.5304526,25.0682413 ]
    },
    "properties": {
    "地址":"臺北市中山區民族東路與吉林路口",
    "行政區":"中山區",
    "行政區代碼":63000040
    }
  },
  {
    "type": "Feature",
    "geometry": {
       "type": "Point",
       "coordinates":  [ 121.5199428,25.0626707 ]
    },
    "properties": {
    "地址":"臺北市中山區民權西路72號捷運3號出入口",
    "行政區":"中山區",
    "行政區代碼":63000040
    }
  },
  {
    "type": "Feature",
    "geometry": {
       "type": "Point",
       "coordinates":  [ 121.532984,25.066886 ]
    },
    "properties": {
    "地址":"臺北市中山區松江路530號",
    "行政區":"中山區",
    "行政區代碼":63000040
    }
  },
  {
    "type": "Feature",
    "geometry": {
       "type": "Point",
       "coordinates":  [ 121.5318859,25.0523761 ]
    },
    "properties": {
    "地址":"臺北市中山區南京東路二段85號",
    "行政區":"中山區",
    "行政區代碼":63000040
    }
  },
  {
    "type": "Feature",
    "geometry": {
       "type": "Point",
       "coordinates":  [ 121.537026,25.046788 ]
    },
    "properties": {
    "地址":"臺北市中山區建國北路一段13號對面(近建國北路一段八德路二段口)",
    "行政區":"中山區",
    "行政區代碼":63000040
    }
  },
  {
    "type": "Feature",
    "geometry": {
       "type": "Point",
       "coordinates":  [ 121.5375684,25.0536414 ]
    },
    "properties": {
    "地址":"臺北市中山區建國北路二段11巷內空地",
    "行政區":"中山區",
    "行政區代碼":63000040
    }
  },
  {
    "type": "Feature",
    "geometry": {
       "type": "Point",
       "coordinates":  [ 121.5385325,25.0616652 ]
    },
    "properties": {
    "地址":"臺北市中山區建國北路二段151巷8號",
    "行政區":"中山區",
    "行政區代碼":63000040
    }
  },
  {
    "type": "Feature",
    "geometry": {
       "type": "Point",
       "coordinates":  [ 121.5377847,25.0640384 ]
    },
    "properties": {
    "地址":"臺北市中山區建國北路三段39號",
    "行政區":"中山區",
    "行政區代碼":63000040
    }
  },
  {
    "type": "Feature",
    "geometry": {
       "type": "Point",
       "coordinates":  [ 121.5368585,25.0656223 ]
    },
    "properties": {
    "地址":"臺北市中山區建國北路三段89及91號前",
    "行政區":"中山區",
    "行政區代碼":63000040
    }
  },
  {
    "type": "Feature",
    "geometry": {
       "type": "Point",
       "coordinates":  [ 121.5556427,25.0848545 ]
    },
    "properties": {
    "地址":"臺北市中山區北安路798號",
    "行政區":"中山區",
    "行政區代碼":63000040
    }
  },
  {
    "type": "Feature",
    "geometry": {
       "type": "Point",
       "coordinates":  [ 121.5315515,25.0468474 ]
    },
    "properties": {
    "地址":"臺北市中山區新生北路一段23號1樓",
    "行政區":"中山區",
    "行政區代碼":63000040
    }
  },
  {
    "type": "Feature",
    "geometry": {
       "type": "Point",
       "coordinates":  [ 121.5296826,25.0630436 ]
    },
    "properties": {
    "地址":"臺北市中山區新生北路三段3巷56號對面",
    "行政區":"中山區",
    "行政區代碼":63000040
    }
  },
  {
    "type": "Feature",
    "geometry": {
       "type": "Point",
       "coordinates":  [ 121.5277545,25.0628239 ]
    },
    "properties": {
    "地址":"臺北市中山區新生北路—段36號前",
    "行政區":"中山區",
    "行政區代碼":63000040
    }
  },
  {
    "type": "Feature",
    "geometry": {
       "type": "Point",
       "coordinates":  [ 121.5430423,25.0536573 ]
    },
    "properties": {
    "地址":"臺北市中山區遼寧街185巷7弄",
    "行政區":"中山區",
    "行政區代碼":63000040
    }
  },
  {
    "type": "Feature",
    "geometry": {
       "type": "Point",
       "coordinates":  [ 121.521014,25.050231 ]
    },
    "properties": {
    "地址":"臺北市中山區長安西路3號",
    "行政區":"中山區",
    "行政區代碼":63000040
    }
  },
  {
    "type": "Feature",
    "geometry": {
       "type": "Point",
       "coordinates":  [ 121.5383595,25.0577167 ]
    },
    "properties": {
    "地址":"臺北市中山區興安街近合江街口",
    "行政區":"中山區",
    "行政區代碼":63000040
    }
  },
  {
    "type": "Feature",
    "geometry": {
       "type": "Point",
       "coordinates":  [ 121.5277227,25.047521 ]
    },
    "properties": {
    "地址":"臺北市中山區長安東路一段52巷14號旁(近市民大道二段/長安東路一段52巷口)",
    "行政區":"中山區",
    "行政區代碼":63000040
    }
  },
  {
    "type": "Feature",
    "geometry": {
       "type": "Point",
       "coordinates":  [ 121.5391412,25.0634668 ]
    },
    "properties": {
    "地址":"臺北市中山區民權東路三段1號榮星公園",
    "行政區":"中山區",
    "行政區代碼":63000040
    }
  },
  {
    "type": "Feature",
    "geometry": {
       "type": "Point",
       "coordinates":  [ 121.5363816,25.0450679 ]
    },
    "properties": {
    "地址":"臺北市中山區建國南路一段與仁愛路交叉口",
    "行政區":"中山區",
    "行政區代碼":63000040
    }
  },
  {
    "type": "Feature",
    "geometry": {
       "type": "Point",
       "coordinates":  [ 121.5420998,25.058413 ]
    },
    "properties": {
    "地址":"臺北市中山區民生東路三段67號",
    "行政區":"中山區",
    "行政區代碼":63000040
    }
  },
  {
    "type": "Feature",
    "geometry": {
       "type": "Point",
       "coordinates":  [ 121.549383,25.083591 ]
    },
    "properties": {
    "地址":"臺北市中山區北安路656號1樓?",
    "行政區":"中山區",
    "行政區代碼":63000040
    }
  },
  {
    "type": "Feature",
    "geometry": {
       "type": "Point",
       "coordinates":  [ 121.5299353,25.0502703 ]
    },
    "properties": {
    "地址":"臺北市中山區吉林路12之3號?",
    "行政區":"中山區",
    "行政區代碼":63000040
    }
  },
  {
    "type": "Feature",
    "geometry": {
       "type": "Point",
       "coordinates":  [ 121.5497822,25.084091 ]
    },
    "properties": {
    "地址":"臺北市中山區北安路670巷9號",
    "行政區":"中山區",
    "行政區代碼":63000040
    }
  },
  {
    "type": "Feature",
    "geometry": {
       "type": "Point",
       "coordinates":  [ 121.5208112,25.062388 ]
    },
    "properties": {
    "地址":"臺北市中山區天祥路70號",
    "行政區":"中山區",
    "行政區代碼":63000040
    }
  },
  {
    "type": "Feature",
    "geometry": {
       "type": "Point",
       "coordinates":  [ 121.5290831,25.0590177 ]
    },
    "properties": {
    "地址":"臺北市中山區中原街77號",
    "行政區":"中山區",
    "行政區代碼":63000040
    }
  },
  {
    "type": "Feature",
    "geometry": {
       "type": "Point",
       "coordinates":  [ 121.5325642,25.0623181 ]
    },
    "properties": {
    "地址":"臺北市中山區民權東路二段126號",
    "行政區":"中山區",
    "行政區代碼":63000040
    }
  },
  {
    "type": "Feature",
    "geometry": {
       "type": "Point",
       "coordinates":  [ 121.5305099,25.0659 ]
    },
    "properties": {
    "地址":"臺北市中山區吉林路401號",
    "行政區":"中山區",
    "行政區代碼":63000040
    }
  },
  {
    "type": "Feature",
    "geometry": {
       "type": "Point",
       "coordinates":  [ 121.5330418,25.0671306 ]
    },
    "properties": {
    "地址":"臺北市中山區松江路534號",
    "行政區":"中山區",
    "行政區代碼":63000040
    }
  },
  {
    "type": "Feature",
    "geometry": {
       "type": "Point",
       "coordinates":  [ 121.5373396,25.0546056 ]
    },
    "properties": {
    "地址":"臺北市中山區長春路208號",
    "行政區":"中山區",
    "行政區代碼":63000040
    }
  },
  {
    "type": "Feature",
    "geometry": {
       "type": "Point",
       "coordinates":  [ 121.5523516,25.0839334 ]
    },
    "properties": {
    "地址":"臺北市中山區敬業一路141號",
    "行政區":"中山區",
    "行政區代碼":63000040
    }
  },
  {
    "type": "Feature",
    "geometry": {
       "type": "Point",
       "coordinates":  [ 121.5330371,25.0672066 ]
    },
    "properties": {
    "地址":"臺北市中山區松江路550號",
    "行政區":"中山區",
    "行政區代碼":63000040
    }
  },
  {
    "type": "Feature",
    "geometry": {
       "type": "Point",
       "coordinates":  [ 121.5395576,25.0460165 ]
    },
    "properties": {
    "地址":"臺北市中山區八德路二段214號",
    "行政區":"中山區",
    "行政區代碼":63000040
    }
  },
  {
    "type": "Feature",
    "geometry": {
       "type": "Point",
       "coordinates":  [ 121.5426515,25.0562438 ]
    },
    "properties": {
    "地址":"臺北市中山區興安街65號",
    "行政區":"中山區",
    "行政區代碼":63000040
    }
  },
  {
    "type": "Feature",
    "geometry": {
       "type": "Point",
       "coordinates":  [ 121.5329867,25.0663694 ]
    },
    "properties": {
    "地址":"臺北市中山區德惠街202號",
    "行政區":"中山區",
    "行政區代碼":63000040
    }
  },
  {
    "type": "Feature",
    "geometry": {
       "type": "Point",
       "coordinates":  [ 121.52431,25.055768 ]
    },
    "properties": {
    "地址":"臺北市中山區中山北路二段59巷34號",
    "行政區":"中山區",
    "行政區代碼":63000040
    }
  },
  {
    "type": "Feature",
    "geometry": {
       "type": "Point",
       "coordinates":  [ 121.5280633,25.0564859 ]
    },
    "properties": {
    "地址":"臺北市中山區新生北路二段71號",
    "行政區":"中山區",
    "行政區代碼":63000040
    }
  },
  {
    "type": "Feature",
    "geometry": {
       "type": "Point",
       "coordinates":  [ 121.5395576,25.0460165 ]
    },
    "properties": {
    "地址":"臺北市中山區八德路二段214號",
    "行政區":"中山區",
    "行政區代碼":63000040
    }
  },
  {
    "type": "Feature",
    "geometry": {
       "type": "Point",
       "coordinates":  [ 121.5338795,25.0131704 ]
    },
    "properties": {
    "地址":"臺北市中正區汀州路三段160巷8號",
    "行政區":"中正區",
    "行政區代碼":63000050
    }
  },
  {
    "type": "Feature",
    "geometry": {
       "type": "Point",
       "coordinates":  [ 121.5085023,25.0378416 ]
    },
    "properties": {
    "地址":"臺北市中正區延平南路133巷底",
    "行政區":"中正區",
    "行政區代碼":63000050
    }
  },
  {
    "type": "Feature",
    "geometry": {
       "type": "Point",
       "coordinates":  [ 121.5075521,25.0337947 ]
    },
    "properties": {
    "地址":"臺北市中正區延平南路189號",
    "行政區":"中正區",
    "行政區代碼":63000050
    }
  },
  {
    "type": "Feature",
    "geometry": {
       "type": "Point",
       "coordinates":  [ 121.5224401,25.0445802 ]
    },
    "properties": {
    "地址":"臺北市中正區忠孝東路一段12號",
    "行政區":"中正區",
    "行政區代碼":63000050
    }
  },
  {
    "type": "Feature",
    "geometry": {
       "type": "Point",
       "coordinates":  [ 121.515303,25.0301646 ]
    },
    "properties": {
    "地址":"臺北市中正區重慶南路二段73號",
    "行政區":"中正區",
    "行政區代碼":63000050
    }
  },
  {
    "type": "Feature",
    "geometry": {
       "type": "Point",
       "coordinates":  [ 121.5198716,25.0421407 ]
    },
    "properties": {
    "地址":"臺北市中正區市民大道三段8號(近市民大道三段/金山北路口)",
    "行政區":"中正區",
    "行政區代碼":63000050
    }
  },
  {
    "type": "Feature",
    "geometry": {
       "type": "Point",
       "coordinates":  [ 121.5177344,25.0282964 ]
    },
    "properties": {
    "地址":"臺北市中正區福州街62號(近福州街/汀州路二段13巷口)",
    "行政區":"中正區",
    "行政區代碼":63000050
    }
  },
  {
    "type": "Feature",
    "geometry": {
       "type": "Point",
       "coordinates":  [ 121.5182125,25.035244 ]
    },
    "properties": {
    "地址":"臺北市中正區中山南路21-1號(近景福門)",
    "行政區":"中正區",
    "行政區代碼":63000050
    }
  },
  {
    "type": "Feature",
    "geometry": {
       "type": "Point",
       "coordinates":  [ 121.5085537,25.0306703 ]
    },
    "properties": {
    "地址":"臺北市中正區和平西路二段102號前(近和平西路二段104巷口)",
    "行政區":"中正區",
    "行政區代碼":63000050
    }
  },
  {
    "type": "Feature",
    "geometry": {
       "type": "Point",
       "coordinates":  [ 121.5183593,25.0264498 ]
    },
    "properties": {
    "地址":"臺北市中正區和平西路一段90號(近牯嶺街84巷內)",
    "行政區":"中正區",
    "行政區代碼":63000050
    }
  },
  {
    "type": "Feature",
    "geometry": {
       "type": "Point",
       "coordinates":  [ 121.5215566,25.0387861 ]
    },
    "properties": {
    "地址":"臺北市中正區仁愛路一段",
    "行政區":"中正區",
    "行政區代碼":63000050
    }
  },
  {
    "type": "Feature",
    "geometry": {
       "type": "Point",
       "coordinates":  [ 121.5286672,25.0368656 ]
    },
    "properties": {
    "地址":"臺北市中正區金山南路一段79巷9號",
    "行政區":"中正區",
    "行政區代碼":63000050
    }
  },
  {
    "type": "Feature",
    "geometry": {
       "type": "Point",
       "coordinates":  [ 121.5042508,25.0305369 ]
    },
    "properties": {
    "地址":"臺北市中正區中華路二段173號",
    "行政區":"中正區",
    "行政區代碼":63000050
    }
  },
  {
    "type": "Feature",
    "geometry": {
       "type": "Point",
       "coordinates":  [ 121.525916,25.0207206 ]
    },
    "properties": {
    "地址":"臺北市中正區汀州路三段1號",
    "行政區":"中正區",
    "行政區代碼":63000050
    }
  },
  {
    "type": "Feature",
    "geometry": {
       "type": "Point",
       "coordinates":  [ 121.5240033,25.0458395 ]
    },
    "properties": {
    "地址":"臺北市中正區林森北路11號",
    "行政區":"中正區",
    "行政區代碼":63000050
    }
  },
  {
    "type": "Feature",
    "geometry": {
       "type": "Point",
       "coordinates":  [ 121.5139975,25.0266649 ]
    },
    "properties": {
    "地址":"臺北市中正區泉州街22號",
    "行政區":"中正區",
    "行政區代碼":63000050
    }
  },
  {
    "type": "Feature",
    "geometry": {
       "type": "Point",
       "coordinates":  [ 121.5156715,25.0276217 ]
    },
    "properties": {
    "地址":"臺北市中正區重慶南路三段56號",
    "行政區":"中正區",
    "行政區代碼":63000050
    }
  },
  {
    "type": "Feature",
    "geometry": {
       "type": "Point",
       "coordinates":  [ 121.5170577,25.0237441 ]
    },
    "properties": {
    "地址":"臺北市中正區重慶南路三段135號",
    "行政區":"中正區",
    "行政區代碼":63000050
    }
  },
  {
    "type": "Feature",
    "geometry": {
       "type": "Point",
       "coordinates":  [ 121.5231292,25.022875 ]
    },
    "properties": {
    "地址":"臺北市中正區汀洲路二段192號",
    "行政區":"中正區",
    "行政區代碼":63000050
    }
  },
  {
    "type": "Feature",
    "geometry": {
       "type": "Point",
       "coordinates":  [ 121.525916,25.0207206 ]
    },
    "properties": {
    "地址":"臺北市中正區汀州路三段1號",
    "行政區":"中正區",
    "行政區代碼":63000050
    }
  },
  {
    "type": "Feature",
    "geometry": {
       "type": "Point",
       "coordinates":  [ 121.5240033,25.0458395 ]
    },
    "properties": {
    "地址":"臺北市中正區林森北路11號",
    "行政區":"中正區",
    "行政區代碼":63000050
    }
  },
  {
    "type": "Feature",
    "geometry": {
       "type": "Point",
       "coordinates":  [ 121.5641476,25.082615 ]
    },
    "properties": {
    "地址":"臺北市內湖區內湖路一段146號",
    "行政區":"內湖區",
    "行政區代碼":63000100
    }
  },
  {
    "type": "Feature",
    "geometry": {
       "type": "Point",
       "coordinates":  [ 121.5703582,25.083455 ]
    },
    "properties": {
    "地址":"臺北市內湖區內湖路一段387巷38號",
    "行政區":"內湖區",
    "行政區代碼":63000100
    }
  },
  {
    "type": "Feature",
    "geometry": {
       "type": "Point",
       "coordinates":  [ 121.5719052,25.0823637 ]
    },
    "properties": {
    "地址":"臺北市內湖區內湖路一段411巷19弄17號",
    "行政區":"內湖區",
    "行政區代碼":63000100
    }
  },
  {
    "type": "Feature",
    "geometry": {
       "type": "Point",
       "coordinates":  [ 121.5772418,25.0786829 ]
    },
    "properties": {
    "地址":"臺北市內湖區內湖路一段594號",
    "行政區":"內湖區",
    "行政區代碼":63000100
    }
  },
  {
    "type": "Feature",
    "geometry": {
       "type": "Point",
       "coordinates":  [ 121.5743529,25.0591464 ]
    },
    "properties": {
    "地址":"臺北市內湖區民善街88號",
    "行政區":"內湖區",
    "行政區代碼":63000100
    }
  },
  {
    "type": "Feature",
    "geometry": {
       "type": "Point",
       "coordinates":  [ 121.5965738,25.0668288 ]
    },
    "properties": {
    "地址":"臺北市內湖區民權東路六段208號",
    "行政區":"內湖區",
    "行政區代碼":63000100
    }
  },
  {
    "type": "Feature",
    "geometry": {
       "type": "Point",
       "coordinates":  [ 121.6086581,25.070484 ]
    },
    "properties": {
    "地址":"臺北市內湖區民權東路六段296巷66-3號",
    "行政區":"內湖區",
    "行政區代碼":63000100
    }
  },
  {
    "type": "Feature",
    "geometry": {
       "type": "Point",
       "coordinates":  [ 121.6031759,25.062744 ]
    },
    "properties": {
    "地址":"臺北市內湖區安康路228巷11號對面(機車停車場內)",
    "行政區":"內湖區",
    "行政區代碼":63000100
    }
  },
  {
    "type": "Feature",
    "geometry": {
       "type": "Point",
       "coordinates":  [ 121.6022934,25.0835954 ]
    },
    "properties": {
    "地址":"臺北市內湖區成功路五段11號捷運站1號出口",
    "行政區":"內湖區",
    "行政區代碼":63000100
    }
  },
  {
    "type": "Feature",
    "geometry": {
       "type": "Point",
       "coordinates":  [ 121.5938439,25.0846317 ]
    },
    "properties": {
    "地址":"臺北市內湖區成功路四段188號",
    "行政區":"內湖區",
    "行政區代碼":63000100
    }
  },
  {
    "type": "Feature",
    "geometry": {
       "type": "Point",
       "coordinates":  [ 121.5747702,25.0781572 ]
    },
    "properties": {
    "地址":"臺北市內湖區洲子街12號",
    "行政區":"內湖區",
    "行政區代碼":63000100
    }
  },
  {
    "type": "Feature",
    "geometry": {
       "type": "Point",
       "coordinates":  [ 121.6217171,25.0761356 ]
    },
    "properties": {
    "地址":"臺北市內湖區康樂街213號",
    "行政區":"內湖區",
    "行政區代碼":63000100
    }
  },
  {
    "type": "Feature",
    "geometry": {
       "type": "Point",
       "coordinates":  [ 121.5698962,25.0783531 ]
    },
    "properties": {
    "地址":"臺北市內湖區瑞光路468號",
    "行政區":"內湖區",
    "行政區代碼":63000100
    }
  },
  {
    "type": "Feature",
    "geometry": {
       "type": "Point",
       "coordinates":  [ 121.5780439,25.0609508 ]
    },
    "properties": {
    "地址":"臺北市內湖區舊宗路一段128號",
    "行政區":"內湖區",
    "行政區代碼":63000100
    }
  },
  {
    "type": "Feature",
    "geometry": {
       "type": "Point",
       "coordinates":  [ 121.579486,25.0593514 ]
    },
    "properties": {
    "地址":"臺北市內湖區舊宗路一段86號",
    "行政區":"內湖區",
    "行政區代碼":63000100
    }
  },
  {
    "type": "Feature",
    "geometry": {
       "type": "Point",
       "coordinates":  [ 121.575128,25.0690208 ]
    },
    "properties": {
    "地址":"臺北市內湖區舊宗路二段111號",
    "行政區":"內湖區",
    "行政區代碼":63000100
    }
  },
  {
    "type": "Feature",
    "geometry": {
       "type": "Point",
       "coordinates":  [ 121.6185384,25.0685794 ]
    },
    "properties": {
    "地址":"臺北市內湖區康樂街61巷2號對面",
    "行政區":"內湖區",
    "行政區代碼":63000100
    }
  },
  {
    "type": "Feature",
    "geometry": {
       "type": "Point",
       "coordinates":  [ 121.6004619,25.0767353 ]
    },
    "properties": {
    "地址":"臺北市內湖區金湖路239號旁",
    "行政區":"內湖區",
    "行政區代碼":63000100
    }
  },
  {
    "type": "Feature",
    "geometry": {
       "type": "Point",
       "coordinates":  [ 121.5656433,25.0876533 ]
    },
    "properties": {
    "地址":"臺北市內湖區環山路一段56號對面",
    "行政區":"內湖區",
    "行政區代碼":63000100
    }
  },
  {
    "type": "Feature",
    "geometry": {
       "type": "Point",
       "coordinates":  [ 121.5796274,25.0605188 ]
    },
    "properties": {
    "地址":"臺北市內湖區民善路與新湖一路交叉口",
    "行政區":"內湖區",
    "行政區代碼":63000100
    }
  },
  {
    "type": "Feature",
    "geometry": {
       "type": "Point",
       "coordinates":  [ 121.5866646,25.0593666 ]
    },
    "properties": {
    "地址":"臺北市內湖區南京東路六段370號",
    "行政區":"內湖區",
    "行政區代碼":63000100
    }
  },
  {
    "type": "Feature",
    "geometry": {
       "type": "Point",
       "coordinates":  [ 121.587541,25.068847 ]
    },
    "properties": {
    "地址":"臺北市內湖區民權東路六段128號",
    "行政區":"內湖區",
    "行政區代碼":63000100
    }
  },
  {
    "type": "Feature",
    "geometry": {
       "type": "Point",
       "coordinates":  [ 121.5743529,25.0591464 ]
    },
    "properties": {
    "地址":"臺北市內湖區民善街88號",
    "行政區":"內湖區",
    "行政區代碼":63000100
    }
  },
  {
    "type": "Feature",
    "geometry": {
       "type": "Point",
       "coordinates":  [ 121.5820481,25.0556634 ]
    },
    "properties": {
    "地址":"臺北市內湖區新明路304-1號\n\n",
    "行政區":"內湖區",
    "行政區代碼":63000100
    }
  },
  {
    "type": "Feature",
    "geometry": {
       "type": "Point",
       "coordinates":  [ 121.6136336,25.0676162 ]
    },
    "properties": {
    "地址":"臺北市內湖區五分街39號\n\n",
    "行政區":"內湖區",
    "行政區代碼":63000100
    }
  },
  {
    "type": "Feature",
    "geometry": {
       "type": "Point",
       "coordinates":  [ 121.6190573,25.0701382 ]
    },
    "properties": {
    "地址":"臺北市內湖區康樂街95號",
    "行政區":"內湖區",
    "行政區代碼":63000100
    }
  },
  {
    "type": "Feature",
    "geometry": {
       "type": "Point",
       "coordinates":  [ 121.5989695,25.0845531 ]
    },
    "properties": {
    "地址":"臺北市內湖區成功路四段331號\n\n",
    "行政區":"內湖區",
    "行政區代碼":63000100
    }
  },
  {
    "type": "Feature",
    "geometry": {
       "type": "Point",
       "coordinates":  [ 121.5923559,25.079044 ]
    },
    "properties": {
    "地址":"臺北市內湖區星雲街61號\n\n",
    "行政區":"內湖區",
    "行政區代碼":63000100
    }
  },
  {
    "type": "Feature",
    "geometry": {
       "type": "Point",
       "coordinates":  [ 121.5892679,25.0786296 ]
    },
    "properties": {
    "地址":"臺北市內湖區成功路三段90號\n\n",
    "行政區":"內湖區",
    "行政區代碼":63000100
    }
  },
  {
    "type": "Feature",
    "geometry": {
       "type": "Point",
       "coordinates":  [ 121.6060457,25.0728599 ]
    },
    "properties": {
    "地址":"臺北市內湖區民權東路六段320號",
    "行政區":"內湖區",
    "行政區代碼":63000100
    }
  },
  {
    "type": "Feature",
    "geometry": {
       "type": "Point",
       "coordinates":  [ 121.618304,25.0718239 ]
    },
    "properties": {
    "地址":"臺北市內湖區康樂街136巷18弄1號一樓",
    "行政區":"內湖區",
    "行政區代碼":63000100
    }
  },
  {
    "type": "Feature",
    "geometry": {
       "type": "Point",
       "coordinates":  [ 121.6182266,25.0735275 ]
    },
    "properties": {
    "地址":"臺北市內湖區安泰街31號一樓",
    "行政區":"內湖區",
    "行政區代碼":63000100
    }
  },
  {
    "type": "Feature",
    "geometry": {
       "type": "Point",
       "coordinates":  [ 121.5928651,25.0848167 ]
    },
    "properties": {
    "地址":"臺北市內湖區金龍路64、66號壹樓全部",
    "行政區":"內湖區",
    "行政區代碼":63000100
    }
  },
  {
    "type": "Feature",
    "geometry": {
       "type": "Point",
       "coordinates":  [ 121.5606096,25.0867149 ]
    },
    "properties": {
    "地址":"臺北市內湖區文湖街21巷26、28號1樓",
    "行政區":"內湖區",
    "行政區代碼":63000100
    }
  },
  {
    "type": "Feature",
    "geometry": {
       "type": "Point",
       "coordinates":  [ 121.5779827,25.065872 ]
    },
    "properties": {
    "地址":"臺北市內湖區行忠路67號",
    "行政區":"內湖區",
    "行政區代碼":63000100
    }
  },
  {
    "type": "Feature",
    "geometry": {
       "type": "Point",
       "coordinates":  [ 121.5841059,25.0684665 ]
    },
    "properties": {
    "地址":"臺北市內湖區民權東路六段50號",
    "行政區":"內湖區",
    "行政區代碼":63000100
    }
  },
  {
    "type": "Feature",
    "geometry": {
       "type": "Point",
       "coordinates":  [ 121.589342,25.086043 ]
    },
    "properties": {
    "地址":"臺北市內湖區金龍路148號",
    "行政區":"內湖區",
    "行政區代碼":63000100
    }
  },
  {
    "type": "Feature",
    "geometry": {
       "type": "Point",
       "coordinates":  [ 121.5611559,25.0846591 ]
    },
    "properties": {
    "地址":"臺北市內湖區內湖路一段91巷7號",
    "行政區":"內湖區",
    "行政區代碼":63000100
    }
  },
  {
    "type": "Feature",
    "geometry": {
       "type": "Point",
       "coordinates":  [ 121.587616,25.0688519 ]
    },
    "properties": {
    "地址":"臺北市內湖區民權東路六段130號",
    "行政區":"內湖區",
    "行政區代碼":63000100
    }
  },
  {
    "type": "Feature",
    "geometry": {
       "type": "Point",
       "coordinates":  [ 121.581996,25.079678 ]
    },
    "properties": {
    "地址":"臺北市內湖區內湖路二段61號",
    "行政區":"內湖區",
    "行政區代碼":63000100
    }
  },
  {
    "type": "Feature",
    "geometry": {
       "type": "Point",
       "coordinates":  [ 121.6064954,25.0718921 ]
    },
    "properties": {
    "地址":"臺北市內湖區民權東路六段296巷35號1樓+B1",
    "行政區":"內湖區",
    "行政區代碼":63000100
    }
  },
  {
    "type": "Feature",
    "geometry": {
       "type": "Point",
       "coordinates":  [ 121.5920622,25.0880065 ]
    },
    "properties": {
    "地址":"臺北市內湖區內湖路三段60巷10弄1號1樓及地下一樓",
    "行政區":"內湖區",
    "行政區代碼":63000100
    }
  },
  {
    "type": "Feature",
    "geometry": {
       "type": "Point",
       "coordinates":  [ 121.5710406,25.0812318 ]
    },
    "properties": {
    "地址":"臺北市內湖區內湖路一段362號",
    "行政區":"內湖區",
    "行政區代碼":63000100
    }
  },
  {
    "type": "Feature",
    "geometry": {
       "type": "Point",
       "coordinates":  [ 121.5599426,25.0850657 ]
    },
    "properties": {
    "地址":"臺北市內湖區內湖路一段59號",
    "行政區":"內湖區",
    "行政區代碼":63000100
    }
  },
  {
    "type": "Feature",
    "geometry": {
       "type": "Point",
       "coordinates":  [ 121.6119972,25.0674116 ]
    },
    "properties": {
    "地址":"臺北市內湖區康寧路三段225號",
    "行政區":"內湖區",
    "行政區代碼":63000100
    }
  },
  {
    "type": "Feature",
    "geometry": {
       "type": "Point",
       "coordinates":  [ 121.608303,25.0720079 ]
    },
    "properties": {
    "地址":"臺北市內湖區康寧路三段30號",
    "行政區":"內湖區",
    "行政區代碼":63000100
    }
  },
  {
    "type": "Feature",
    "geometry": {
       "type": "Point",
       "coordinates":  [ 121.5841059,25.0684665 ]
    },
    "properties": {
    "地址":"臺北市內湖區民權東路六段50號",
    "行政區":"內湖區",
    "行政區代碼":63000100
    }
  },
  {
    "type": "Feature",
    "geometry": {
       "type": "Point",
       "coordinates":  [ 121.562951,24.990029 ]
    },
    "properties": {
    "地址":"臺北市文山區木柵路二段109巷25弄2號1樓、2-1號",
    "行政區":"文山區",
    "行政區代碼":63000080
    }
  },
  {
    "type": "Feature",
    "geometry": {
       "type": "Point",
       "coordinates":  [ 121.5678822,25.0052007 ]
    },
    "properties": {
    "地址":"臺北市文山區和平東路四段95號",
    "行政區":"文山區",
    "行政區代碼":63000080
    }
  },
  {
    "type": "Feature",
    "geometry": {
       "type": "Point",
       "coordinates":  [ 121.5708591,24.9882463 ]
    },
    "properties": {
    "地址":"臺北市文山區指南路一段53號",
    "行政區":"文山區",
    "行政區代碼":63000080
    }
  },
  {
    "type": "Feature",
    "geometry": {
       "type": "Point",
       "coordinates":  [ 121.5771262,24.9875136 ]
    },
    "properties": {
    "地址":"臺北市文山區指南路二段145號",
    "行政區":"文山區",
    "行政區代碼":63000080
    }
  },
  {
    "type": "Feature",
    "geometry": {
       "type": "Point",
       "coordinates":  [ 121.5401225,24.9887205 ]
    },
    "properties": {
    "地址":"臺北市文山區景文街142巷2號B1樓",
    "行政區":"文山區",
    "行政區代碼":63000080
    }
  },
  {
    "type": "Feature",
    "geometry": {
       "type": "Point",
       "coordinates":  [ 121.5540212,25.0008275 ]
    },
    "properties": {
    "地址":"臺北市文山區興隆路二段244巷1號",
    "行政區":"文山區",
    "行政區代碼":63000080
    }
  },
  {
    "type": "Feature",
    "geometry": {
       "type": "Point",
       "coordinates":  [ 121.5491168,24.9865778 ]
    },
    "properties": {
    "地址":"臺北市文山區木柵路一段70巷3號對面電池交換站",
    "行政區":"文山區",
    "行政區代碼":63000080
    }
  },
  {
    "type": "Feature",
    "geometry": {
       "type": "Point",
       "coordinates":  [ 121.5472412,24.9999438 ]
    },
    "properties": {
    "地址":"臺北市文山區興隆路二段97號(近興隆路二段/興隆路二段123巷交叉口)",
    "行政區":"文山區",
    "行政區代碼":63000080
    }
  },
  {
    "type": "Feature",
    "geometry": {
       "type": "Point",
       "coordinates":  [ 121.5680598,24.9985782 ]
    },
    "properties": {
    "地址":"臺北市文山區萬芳路60號",
    "行政區":"文山區",
    "行政區代碼":63000080
    }
  },
  {
    "type": "Feature",
    "geometry": {
       "type": "Point",
       "coordinates":  [ 121.5738215,24.9978536 ]
    },
    "properties": {
    "地址":"臺北市文山區木柵路四段123號",
    "行政區":"文山區",
    "行政區代碼":63000080
    }
  },
  {
    "type": "Feature",
    "geometry": {
       "type": "Point",
       "coordinates":  [ 121.5592325,24.9970954 ]
    },
    "properties": {
    "地址":"臺北市文山區興隆路三段222號",
    "行政區":"文山區",
    "行政區代碼":63000080
    }
  },
  {
    "type": "Feature",
    "geometry": {
       "type": "Point",
       "coordinates":  [ 121.5443186,24.9984231 ]
    },
    "properties": {
    "地址":"臺北市文山區景隆街56號",
    "行政區":"文山區",
    "行政區代碼":63000080
    }
  },
  {
    "type": "Feature",
    "geometry": {
       "type": "Point",
       "coordinates":  [ 121.5422521,25.0019695 ]
    },
    "properties": {
    "地址":"臺北市文山區興隆路一段139號\n\n",
    "行政區":"文山區",
    "行政區代碼":63000080
    }
  },
  {
    "type": "Feature",
    "geometry": {
       "type": "Point",
       "coordinates":  [ 121.539845,24.9991825 ]
    },
    "properties": {
    "地址":"臺北市文山區羅斯福路六段52號\n\n",
    "行政區":"文山區",
    "行政區代碼":63000080
    }
  },
  {
    "type": "Feature",
    "geometry": {
       "type": "Point",
       "coordinates":  [ 121.544269,24.998439 ]
    },
    "properties": {
    "地址":"臺北市文山區景隆街54號\n\n",
    "行政區":"文山區",
    "行政區代碼":63000080
    }
  },
  {
    "type": "Feature",
    "geometry": {
       "type": "Point",
       "coordinates":  [ 121.5485379,25.0004789 ]
    },
    "properties": {
    "地址":"臺北市文山區興隆路二段155號\n\n",
    "行政區":"文山區",
    "行政區代碼":63000080
    }
  },
  {
    "type": "Feature",
    "geometry": {
       "type": "Point",
       "coordinates":  [ 121.551562,25.001948 ]
    },
    "properties": {
    "地址":"臺北市文山區興隆路二段249號\n\n",
    "行政區":"文山區",
    "行政區代碼":63000080
    }
  },
  {
    "type": "Feature",
    "geometry": {
       "type": "Point",
       "coordinates":  [ 121.5514197,25.0019074 ]
    },
    "properties": {
    "地址":"臺北市文山區興隆路二段243號\n\n",
    "行政區":"文山區",
    "行政區代碼":63000080
    }
  },
  {
    "type": "Feature",
    "geometry": {
       "type": "Point",
       "coordinates":  [ 121.5445371,24.9949308 ]
    },
    "properties": {
    "地址":"臺北市文山區景興路94號\n\n",
    "行政區":"文山區",
    "行政區代碼":63000080
    }
  },
  {
    "type": "Feature",
    "geometry": {
       "type": "Point",
       "coordinates":  [ 121.5441586,24.9929319 ]
    },
    "properties": {
    "地址":"臺北市文山區景興路172號\n\n",
    "行政區":"文山區",
    "行政區代碼":63000080
    }
  },
  {
    "type": "Feature",
    "geometry": {
       "type": "Point",
       "coordinates":  [ 121.5547222,24.9802778 ]
    },
    "properties": {
    "地址":"臺北市文山區木新路三段356號\n\n",
    "行政區":"文山區",
    "行政區代碼":63000080
    }
  },
  {
    "type": "Feature",
    "geometry": {
       "type": "Point",
       "coordinates":  [ 121.564639,24.982489 ]
    },
    "properties": {
    "地址":"臺北市文山區木新路三段29號\n\n",
    "行政區":"文山區",
    "行政區代碼":63000080
    }
  },
  {
    "type": "Feature",
    "geometry": {
       "type": "Point",
       "coordinates":  [ 121.568726,24.9838209 ]
    },
    "properties": {
    "地址":"臺北市文山區木新路二段165號\n\n",
    "行政區":"文山區",
    "行政區代碼":63000080
    }
  },
  {
    "type": "Feature",
    "geometry": {
       "type": "Point",
       "coordinates":  [ 121.569727,24.9846164 ]
    },
    "properties": {
    "地址":"臺北市文山區木新路二段112號\n\n",
    "行政區":"文山區",
    "行政區代碼":63000080
    }
  },
  {
    "type": "Feature",
    "geometry": {
       "type": "Point",
       "coordinates":  [ 121.5644088,24.988669 ]
    },
    "properties": {
    "地址":"臺北市文山區久康街1號\n\n",
    "行政區":"文山區",
    "行政區代碼":63000080
    }
  },
  {
    "type": "Feature",
    "geometry": {
       "type": "Point",
       "coordinates":  [ 121.562728,24.9896419 ]
    },
    "properties": {
    "地址":"臺北市文山區木柵路二段109巷23號\n\n",
    "行政區":"文山區",
    "行政區代碼":63000080
    }
  },
  {
    "type": "Feature",
    "geometry": {
       "type": "Point",
       "coordinates":  [ 121.5390519,25.0023859 ]
    },
    "properties": {
    "地址":"臺北市文山區羅斯福路五段203號",
    "行政區":"文山區",
    "行政區代碼":63000080
    }
  },
  {
    "type": "Feature",
    "geometry": {
       "type": "Point",
       "coordinates":  [ 121.5689205,24.9838753 ]
    },
    "properties": {
    "地址":"臺北市文山區木新路二段141、143號一樓",
    "行政區":"文山區",
    "行政區代碼":63000080
    }
  },
  {
    "type": "Feature",
    "geometry": {
       "type": "Point",
       "coordinates":  [ 121.5667509,24.983571 ]
    },
    "properties": {
    "地址":"臺北市文山區恆光街19號 ",
    "行政區":"文山區",
    "行政區代碼":63000080
    }
  },
  {
    "type": "Feature",
    "geometry": {
       "type": "Point",
       "coordinates":  [ 121.559411,24.9905935 ]
    },
    "properties": {
    "地址":"臺北市文山區興隆路四段23號",
    "行政區":"文山區",
    "行政區代碼":63000080
    }
  },
  {
    "type": "Feature",
    "geometry": {
       "type": "Point",
       "coordinates":  [ 121.564639,24.982489 ]
    },
    "properties": {
    "地址":"臺北市文山區木新路三段29號",
    "行政區":"文山區",
    "行政區代碼":63000080
    }
  },
  {
    "type": "Feature",
    "geometry": {
       "type": "Point",
       "coordinates":  [ 121.5394249,25.0000402 ]
    },
    "properties": {
    "地址":"臺北市文山區羅斯福路六段20號22號",
    "行政區":"文山區",
    "行政區代碼":63000080
    }
  },
  {
    "type": "Feature",
    "geometry": {
       "type": "Point",
       "coordinates":  [ 121.5550035,24.9880224 ]
    },
    "properties": {
    "地址":"臺北市文山區木柵路一段284號286號1樓",
    "行政區":"文山區",
    "行政區代碼":63000080
    }
  },
  {
    "type": "Feature",
    "geometry": {
       "type": "Point",
       "coordinates":  [ 121.5448306,24.9949345 ]
    },
    "properties": {
    "地址":"臺北市文山區景興路113號115號",
    "行政區":"文山區",
    "行政區代碼":63000080
    }
  },
  {
    "type": "Feature",
    "geometry": {
       "type": "Point",
       "coordinates":  [ 121.5366918,25.0046055 ]
    },
    "properties": {
    "地址":"臺北市文山區萬年里羅斯福路五段170巷33及35號",
    "行政區":"文山區",
    "行政區代碼":63000080
    }
  },
  {
    "type": "Feature",
    "geometry": {
       "type": "Point",
       "coordinates":  [ 121.5385901,25.0023084 ]
    },
    "properties": {
    "地址":"臺北市文山區羅斯福路五段216號",
    "行政區":"文山區",
    "行政區代碼":63000080
    }
  },
  {
    "type": "Feature",
    "geometry": {
       "type": "Point",
       "coordinates":  [ 121.5401526,24.9932987 ]
    },
    "properties": {
    "地址":"臺北市文山區景福街252號",
    "行政區":"文山區",
    "行政區代碼":63000080
    }
  },
  {
    "type": "Feature",
    "geometry": {
       "type": "Point",
       "coordinates":  [ 121.5603215,25.0090269 ]
    },
    "properties": {
    "地址":"臺北市文山區辛亥路四段77巷92弄1號",
    "行政區":"文山區",
    "行政區代碼":63000080
    }
  },
  {
    "type": "Feature",
    "geometry": {
       "type": "Point",
       "coordinates":  [ 121.5394462,25.0044948 ]
    },
    "properties": {
    "地址":"臺北市文山區興隆路一段13號",
    "行政區":"文山區",
    "行政區代碼":63000080
    }
  },
  {
    "type": "Feature",
    "geometry": {
       "type": "Point",
       "coordinates":  [ 121.485483,25.137573 ]
    },
    "properties": {
    "地址":"臺北市北投區中央北路三段53巷10號捷運站1號出口",
    "行政區":"北投區",
    "行政區代碼":63000120
    }
  },
  {
    "type": "Feature",
    "geometry": {
       "type": "Point",
       "coordinates":  [ 121.4732455,25.1309977 ]
    },
    "properties": {
    "地址":"臺北市北投區中央北路四段301號捷運站1號出口",
    "行政區":"北投區",
    "行政區代碼":63000120
    }
  },
  {
    "type": "Feature",
    "geometry": {
       "type": "Point",
       "coordinates":  [ 121.5232622,25.1187915 ]
    },
    "properties": {
    "地址":"臺北市北投區天母西路112號B1",
    "行政區":"北投區",
    "行政區代碼":63000120
    }
  },
  {
    "type": "Feature",
    "geometry": {
       "type": "Point",
       "coordinates":  [ 121.5139179,25.1087332 ]
    },
    "properties": {
    "地址":"臺北市北投區文林北路230號1樓",
    "行政區":"北投區",
    "行政區代碼":63000120
    }
  },
  {
    "type": "Feature",
    "geometry": {
       "type": "Point",
       "coordinates":  [ 121.5160542,25.113857 ]
    },
    "properties": {
    "地址":"臺北市北投區石牌路一段200號",
    "行政區":"北投區",
    "行政區代碼":63000120
    }
  },
  {
    "type": "Feature",
    "geometry": {
       "type": "Point",
       "coordinates":  [ 121.5097872,25.1166358 ]
    },
    "properties": {
    "地址":"臺北市北投區石牌路一段39巷100號",
    "行政區":"北投區",
    "行政區代碼":63000120
    }
  },
  {
    "type": "Feature",
    "geometry": {
       "type": "Point",
       "coordinates":  [ 121.5022496,25.1345292 ]
    },
    "properties": {
    "地址":"臺北市北投區光明路133號1、2樓前",
    "行政區":"北投區",
    "行政區代碼":63000120
    }
  },
  {
    "type": "Feature",
    "geometry": {
       "type": "Point",
       "coordinates":  [ 121.4987249,25.131754 ]
    },
    "properties": {
    "地址":"臺北市北投區光明路1號",
    "行政區":"北投區",
    "行政區代碼":63000120
    }
  },
  {
    "type": "Feature",
    "geometry": {
       "type": "Point",
       "coordinates":  [ 121.507702,25.1202713 ]
    },
    "properties": {
    "地址":"臺北市北投區西安街二段253號對面",
    "行政區":"北投區",
    "行政區代碼":63000120
    }
  },
  {
    "type": "Feature",
    "geometry": {
       "type": "Point",
       "coordinates":  [ 121.5039493,25.1167557 ]
    },
    "properties": {
    "地址":"臺北市北投區承德路七段303號旁",
    "行政區":"北投區",
    "行政區代碼":63000120
    }
  },
  {
    "type": "Feature",
    "geometry": {
       "type": "Point",
       "coordinates":  [ 121.5187688,25.1098066 ]
    },
    "properties": {
    "地址":"臺北市北投區明德路95號旁",
    "行政區":"北投區",
    "行政區代碼":63000120
    }
  },
  {
    "type": "Feature",
    "geometry": {
       "type": "Point",
       "coordinates":  [ 121.5088212,25.1124339 ]
    },
    "properties": {
    "地址":"臺北市北投區承德路七段139號",
    "行政區":"北投區",
    "行政區代碼":63000120
    }
  },
  {
    "type": "Feature",
    "geometry": {
       "type": "Point",
       "coordinates":  [ 121.5011789,25.1254977 ]
    },
    "properties": {
    "地址":"臺北市北投區三合街二段489號",
    "行政區":"北投區",
    "行政區代碼":63000120
    }
  },
  {
    "type": "Feature",
    "geometry": {
       "type": "Point",
       "coordinates":  [ 121.5034367,25.1377022 ]
    },
    "properties": {
    "地址":"臺北市北投區大業路700號",
    "行政區":"北投區",
    "行政區代碼":63000120
    }
  },
  {
    "type": "Feature",
    "geometry": {
       "type": "Point",
       "coordinates":  [ 121.5033493,25.1211931 ]
    },
    "properties": {
    "地址":"臺北市北投區西安街二段354號斜對面(立農段五小段586地號)",
    "行政區":"北投區",
    "行政區代碼":63000120
    }
  },
  {
    "type": "Feature",
    "geometry": {
       "type": "Point",
       "coordinates":  [ 121.5144639,25.1187727 ]
    },
    "properties": {
    "地址":"臺北市北投區立農街二段206號",
    "行政區":"北投區",
    "行政區代碼":63000120
    }
  },
  {
    "type": "Feature",
    "geometry": {
       "type": "Point",
       "coordinates":  [ 121.4992799,25.1380028 ]
    },
    "properties": {
    "地址":"臺北市北投區大同街202之2號",
    "行政區":"北投區",
    "行政區代碼":63000120
    }
  },
  {
    "type": "Feature",
    "geometry": {
       "type": "Point",
       "coordinates":  [ 121.4676126,25.1276895 ]
    },
    "properties": {
    "地址":"臺北市北投區中央北路四段545號",
    "行政區":"北投區",
    "行政區代碼":63000120
    }
  },
  {
    "type": "Feature",
    "geometry": {
       "type": "Point",
       "coordinates":  [ 121.50631,25.1186159 ]
    },
    "properties": {
    "地址":"臺北市北投區吉利街119號",
    "行政區":"北投區",
    "行政區代碼":63000120
    }
  },
  {
    "type": "Feature",
    "geometry": {
       "type": "Point",
       "coordinates":  [ 121.5119575,25.1107227 ]
    },
    "properties": {
    "地址":"臺北市北投區自強街5巷45號",
    "行政區":"北投區",
    "行政區代碼":63000120
    }
  },
  {
    "type": "Feature",
    "geometry": {
       "type": "Point",
       "coordinates":  [ 121.489974,25.1383459 ]
    },
    "properties": {
    "地址":"臺北市北投區中央北路二段303號",
    "行政區":"北投區",
    "行政區代碼":63000120
    }
  },
  {
    "type": "Feature",
    "geometry": {
       "type": "Point",
       "coordinates":  [ 121.5001654,25.126894 ]
    },
    "properties": {
    "地址":"臺北市北投區中央南路二段5、7號",
    "行政區":"北投區",
    "行政區代碼":63000120
    }
  },
  {
    "type": "Feature",
    "geometry": {
       "type": "Point",
       "coordinates":  [ 121.5164873,25.1185258 ]
    },
    "properties": {
    "地址":"臺北市北投區義理街96號及立農街2段292號",
    "行政區":"北投區",
    "行政區代碼":63000120
    }
  },
  {
    "type": "Feature",
    "geometry": {
       "type": "Point",
       "coordinates":  [ 121.5197862,25.1121574 ]
    },
    "properties": {
    "地址":"臺北市北投區東陽街470號1樓 ",
    "行政區":"北投區",
    "行政區代碼":63000120
    }
  },
  {
    "type": "Feature",
    "geometry": {
       "type": "Point",
       "coordinates":  [ 121.5037884,25.1148851 ]
    },
    "properties": {
    "地址":"臺北市北投區立賢路63號 ",
    "行政區":"北投區",
    "行政區代碼":63000120
    }
  },
  {
    "type": "Feature",
    "geometry": {
       "type": "Point",
       "coordinates":  [ 121.5000162,25.139286 ]
    },
    "properties": {
    "地址":"臺北市北投區永興路一段31號",
    "行政區":"北投區",
    "行政區代碼":63000120
    }
  },
  {
    "type": "Feature",
    "geometry": {
       "type": "Point",
       "coordinates":  [ 121.5010067,25.1276573 ]
    },
    "properties": {
    "地址":"臺北市北投區中央南路一段225巷4號",
    "行政區":"北投區",
    "行政區代碼":63000120
    }
  },
  {
    "type": "Feature",
    "geometry": {
       "type": "Point",
       "coordinates":  [ 121.5009541,25.1283045 ]
    },
    "properties": {
    "地址":"臺北市北投區中央南路一段210號",
    "行政區":"北投區",
    "行政區代碼":63000120
    }
  },
  {
    "type": "Feature",
    "geometry": {
       "type": "Point",
       "coordinates":  [ 121.501124,25.139521 ]
    },
    "properties": {
    "地址":"臺北市北投區中和街241號1樓",
    "行政區":"北投區",
    "行政區代碼":63000120
    }
  },
  {
    "type": "Feature",
    "geometry": {
       "type": "Point",
       "coordinates":  [ 121.470974,25.129637 ]
    },
    "properties": {
    "地址":"臺北市北投區中央北路四段398號",
    "行政區":"北投區",
    "行政區代碼":63000120
    }
  },
  {
    "type": "Feature",
    "geometry": {
       "type": "Point",
       "coordinates":  [ 121.5200214,25.1074634 ]
    },
    "properties": {
    "地址":"臺北市北投區文林北路94巷133號",
    "行政區":"北投區",
    "行政區代碼":63000120
    }
  },
  {
    "type": "Feature",
    "geometry": {
       "type": "Point",
       "coordinates":  [ 121.5077066,25.1185229 ]
    },
    "properties": {
    "地址":"臺北市北投區吉利街140號",
    "行政區":"北投區",
    "行政區代碼":63000120
    }
  },
  {
    "type": "Feature",
    "geometry": {
       "type": "Point",
       "coordinates":  [ 121.5139915,25.1103613 ]
    },
    "properties": {
    "地址":"臺北市北投區自強街62號",
    "行政區":"北投區",
    "行政區代碼":63000120
    }
  },
  {
    "type": "Feature",
    "geometry": {
       "type": "Point",
       "coordinates":  [ 121.5024189,25.1194765 ]
    },
    "properties": {
    "地址":"臺北市北投區承德路七段384號",
    "行政區":"北投區",
    "行政區代碼":63000120
    }
  },
  {
    "type": "Feature",
    "geometry": {
       "type": "Point",
       "coordinates":  [ 121.5111841,25.1072129 ]
    },
    "properties": {
    "地址":"臺北市北投區承德路六段359號",
    "行政區":"北投區",
    "行政區代碼":63000120
    }
  },
  {
    "type": "Feature",
    "geometry": {
       "type": "Point",
       "coordinates":  [ 121.5634139,25.0486362 ]
    },
    "properties": {
    "地址":"臺北市松山區八德路四段176號",
    "行政區":"松山區",
    "行政區代碼":63000010
    }
  },
  {
    "type": "Feature",
    "geometry": {
       "type": "Point",
       "coordinates":  [ 121.5750666,25.0498571 ]
    },
    "properties": {
    "地址":"臺北市松山區八德路四段650號",
    "行政區":"松山區",
    "行政區代碼":63000010
    }
  },
  {
    "type": "Feature",
    "geometry": {
       "type": "Point",
       "coordinates":  [ 121.5772248,25.0497691 ]
    },
    "properties": {
    "地址":"臺北市松山區八德路四段692號",
    "行政區":"松山區",
    "行政區代碼":63000010
    }
  },
  {
    "type": "Feature",
    "geometry": {
       "type": "Point",
       "coordinates":  [ 121.5639048,25.0615926 ]
    },
    "properties": {
    "地址":"臺北市松山區三民路160號",
    "行政區":"松山區",
    "行政區代碼":63000010
    }
  },
  {
    "type": "Feature",
    "geometry": {
       "type": "Point",
       "coordinates":  [ 121.5549371,25.0586179 ]
    },
    "properties": {
    "地址":"臺北市松山區民生東路四段133號車道出口旁",
    "行政區":"松山區",
    "行政區代碼":63000010
    }
  },
  {
    "type": "Feature",
    "geometry": {
       "type": "Point",
       "coordinates":  [ 121.5470329,25.0604589 ]
    },
    "properties": {
    "地址":"臺北市松山區民權東路三段140巷15號",
    "行政區":"松山區",
    "行政區代碼":63000010
    }
  },
  {
    "type": "Feature",
    "geometry": {
       "type": "Point",
       "coordinates":  [ 121.553632,25.046405 ]
    },
    "properties": {
    "地址":"臺北市松山區延吉街13號",
    "行政區":"松山區",
    "行政區代碼":63000010
    }
  },
  {
    "type": "Feature",
    "geometry": {
       "type": "Point",
       "coordinates":  [ 121.5454745,25.0487974 ]
    },
    "properties": {
    "地址":"臺北市松山區長安東路二段225號",
    "行政區":"松山區",
    "行政區代碼":63000010
    }
  },
  {
    "type": "Feature",
    "geometry": {
       "type": "Point",
       "coordinates":  [ 121.5552639,25.0533219 ]
    },
    "properties": {
    "地址":"臺北市松山區南京東路四段133巷9弄2號",
    "行政區":"松山區",
    "行政區代碼":63000010
    }
  },
  {
    "type": "Feature",
    "geometry": {
       "type": "Point",
       "coordinates":  [ 121.5531676,25.0726141 ]
    },
    "properties": {
    "地址":"臺北市松山區濱江街375號",
    "行政區":"松山區",
    "行政區代碼":63000010
    }
  },
  {
    "type": "Feature",
    "geometry": {
       "type": "Point",
       "coordinates":  [ 121.5588751,25.0619884 ]
    },
    "properties": {
    "地址":"臺北市松山區民權東路四段180號旁(近民權公園地下停車場出入口)",
    "行政區":"松山區",
    "行政區代碼":63000010
    }
  },
  {
    "type": "Feature",
    "geometry": {
       "type": "Point",
       "coordinates":  [ 121.5654468,25.0544544 ]
    },
    "properties": {
    "地址":"臺北市松山區健康路305號前方(近健康路/延壽街72巷口)",
    "行政區":"松山區",
    "行政區代碼":63000010
    }
  },
  {
    "type": "Feature",
    "geometry": {
       "type": "Point",
       "coordinates":  [ 121.5563456,25.0628581 ]
    },
    "properties": {
    "地址":"臺北市松山區敦化北路405巷123弄3號前",
    "行政區":"松山區",
    "行政區代碼":63000010
    }
  },
  {
    "type": "Feature",
    "geometry": {
       "type": "Point",
       "coordinates":  [ 121.5547727,25.0608483 ]
    },
    "properties": {
    "地址":"臺北市松山區光復北路268號前",
    "行政區":"松山區",
    "行政區代碼":63000010
    }
  },
  {
    "type": "Feature",
    "geometry": {
       "type": "Point",
       "coordinates":  [ 121.5578438,25.0586187 ]
    },
    "properties": {
    "地址":"臺北市松山區民生東路五段57號",
    "行政區":"松山區",
    "行政區代碼":63000010
    }
  },
  {
    "type": "Feature",
    "geometry": {
       "type": "Point",
       "coordinates":  [ 121.5639048,25.0615926 ]
    },
    "properties": {
    "地址":"臺北市松山區三民路160號",
    "行政區":"松山區",
    "行政區代碼":63000010
    }
  },
  {
    "type": "Feature",
    "geometry": {
       "type": "Point",
       "coordinates":  [ 121.5660526,25.06346 ]
    },
    "properties": {
    "地址":"臺北市松山區民權東路五段19號\n\n",
    "行政區":"松山區",
    "行政區代碼":63000010
    }
  },
  {
    "type": "Feature",
    "geometry": {
       "type": "Point",
       "coordinates":  [ 121.5657232,25.0658104 ]
    },
    "properties": {
    "地址":"臺北市松山區撫遠街403巷(濱江段一小段399地號)\n\n",
    "行政區":"松山區",
    "行政區代碼":63000010
    }
  },
  {
    "type": "Feature",
    "geometry": {
       "type": "Point",
       "coordinates":  [ 121.5540893,25.0482963 ]
    },
    "properties": {
    "地址":"臺北市松山區八德路三段119號",
    "行政區":"松山區",
    "行政區代碼":63000010
    }
  },
  {
    "type": "Feature",
    "geometry": {
       "type": "Point",
       "coordinates":  [ 121.5666944,25.0489825 ]
    },
    "properties": {
    "地址":"臺北市松山區八德路四段282號 ",
    "行政區":"松山區",
    "行政區代碼":63000010
    }
  },
  {
    "type": "Feature",
    "geometry": {
       "type": "Point",
       "coordinates":  [ 121.5690668,25.0574419 ]
    },
    "properties": {
    "地址":"臺北市松山區塔悠路206號",
    "行政區":"松山區",
    "行政區代碼":63000010
    }
  },
  {
    "type": "Feature",
    "geometry": {
       "type": "Point",
       "coordinates":  [ 121.5531218,25.0564179 ]
    },
    "properties": {
    "地址":"臺北市松山區民生東路四段80巷13號1樓",
    "行政區":"松山區",
    "行政區代碼":63000010
    }
  },
  {
    "type": "Feature",
    "geometry": {
       "type": "Point",
       "coordinates":  [ 121.5680754,25.0490995 ]
    },
    "properties": {
    "地址":"臺北市松山區八德路四段332號",
    "行政區":"松山區",
    "行政區代碼":63000010
    }
  },
  {
    "type": "Feature",
    "geometry": {
       "type": "Point",
       "coordinates":  [ 121.5563392,25.0478611 ]
    },
    "properties": {
    "地址":"臺北市松山區八德路三段198號",
    "行政區":"松山區",
    "行政區代碼":63000010
    }
  },
  {
    "type": "Feature",
    "geometry": {
       "type": "Point",
       "coordinates":  [ 121.5653223,25.0633757 ]
    },
    "properties": {
    "地址":"臺北市松山區民權東路五段9號",
    "行政區":"松山區",
    "行政區代碼":63000010
    }
  },
  {
    "type": "Feature",
    "geometry": {
       "type": "Point",
       "coordinates":  [ 121.5670357,25.0570293 ]
    },
    "properties": {
    "地址":"臺北市松山區健康路325巷36號",
    "行政區":"松山區",
    "行政區代碼":63000010
    }
  },
  {
    "type": "Feature",
    "geometry": {
       "type": "Point",
       "coordinates":  [ 121.5638672,25.0592157 ]
    },
    "properties": {
    "地址":"臺北市松山區三民路126號",
    "行政區":"松山區",
    "行政區代碼":63000010
    }
  },
  {
    "type": "Feature",
    "geometry": {
       "type": "Point",
       "coordinates":  [ 121.5444075,25.0495106 ]
    },
    "properties": {
    "地址":"臺北市松山區復興北路31號",
    "行政區":"松山區",
    "行政區代碼":63000010
    }
  },
  {
    "type": "Feature",
    "geometry": {
       "type": "Point",
       "coordinates":  [ 121.5703138,25.0424831 ]
    },
    "properties": {
    "地址":"臺北市信義區永吉路120巷83號旁",
    "行政區":"信義區",
    "行政區代碼":63000020
    }
  },
  {
    "type": "Feature",
    "geometry": {
       "type": "Point",
       "coordinates":  [ 121.5652968,25.0406521 ]
    },
    "properties": {
    "地址":"臺北市信義區忠孝東路 5 段 666 號",
    "行政區":"信義區",
    "行政區代碼":63000020
    }
  },
  {
    "type": "Feature",
    "geometry": {
       "type": "Point",
       "coordinates":  [ 121.5726099,25.0398569 ]
    },
    "properties": {
    "地址":"臺北市信義區忠孝東路五段236巷15號",
    "行政區":"信義區",
    "行政區代碼":63000020
    }
  },
  {
    "type": "Feature",
    "geometry": {
       "type": "Point",
       "coordinates":  [ 121.5707612,25.0411499 ]
    },
    "properties": {
    "地址":"臺北市信義區忠孝東路五段257號後門",
    "行政區":"信義區",
    "行政區代碼":63000020
    }
  },
  {
    "type": "Feature",
    "geometry": {
       "type": "Point",
       "coordinates":  [ 121.5672416,25.0417654 ]
    },
    "properties": {
    "地址":"臺北市信義區忠孝東路五段71巷8號",
    "行政區":"信義區",
    "行政區代碼":63000020
    }
  },
  {
    "type": "Feature",
    "geometry": {
       "type": "Point",
       "coordinates":  [ 121.5682273,25.0280796 ]
    },
    "properties": {
    "地址":"臺北市信義區松仁路174號(近三犁公園)",
    "行政區":"信義區",
    "行政區代碼":63000020
    }
  },
  {
    "type": "Feature",
    "geometry": {
       "type": "Point",
       "coordinates":  [ 121.5753237,25.0483235 ]
    },
    "properties": {
    "地址":"臺北市信義區松隆路282號前",
    "行政區":"信義區",
    "行政區代碼":63000020
    }
  },
  {
    "type": "Feature",
    "geometry": {
       "type": "Point",
       "coordinates":  [ 121.5630452,25.0369519 ]
    },
    "properties": {
    "地址":"臺北市信義區松壽路1號",
    "行政區":"信義區",
    "行政區代碼":63000020
    }
  },
  {
    "type": "Feature",
    "geometry": {
       "type": "Point",
       "coordinates":  [ 121.5743775,25.0330603 ]
    },
    "properties": {
    "地址":"臺北市信義區信義路五段300號後",
    "行政區":"信義區",
    "行政區代碼":63000020
    }
  },
  {
    "type": "Feature",
    "geometry": {
       "type": "Point",
       "coordinates":  [ 121.5666598,25.0442279 ]
    },
    "properties": {
    "地址":"臺北市信義區基隆路一段131號",
    "行政區":"信義區",
    "行政區代碼":63000020
    }
  },
  {
    "type": "Feature",
    "geometry": {
       "type": "Point",
       "coordinates":  [ 121.566345,25.028965 ]
    },
    "properties": {
    "地址":"臺北市信義區莊敬路391巷11弄2號",
    "行政區":"信義區",
    "行政區代碼":63000020
    }
  },
  {
    "type": "Feature",
    "geometry": {
       "type": "Point",
       "coordinates":  [ 121.5703138,25.0424831 ]
    },
    "properties": {
    "地址":"臺北市信義區永吉路120巷83號(近永吉路120巷22弄松隆路口)",
    "行政區":"信義區",
    "行政區代碼":63000020
    }
  },
  {
    "type": "Feature",
    "geometry": {
       "type": "Point",
       "coordinates":  [ 121.5697437,25.0289533 ]
    },
    "properties": {
    "地址":"臺北市信義區信義路五段150巷與松仁路153巷口電池交換站",
    "行政區":"信義區",
    "行政區代碼":63000020
    }
  },
  {
    "type": "Feature",
    "geometry": {
       "type": "Point",
       "coordinates":  [ 121.5665977,25.0339469 ]
    },
    "properties": {
    "地址":"臺北市信義區松廉路/松智路交叉口(近信義廣場地下停車場1號出口)",
    "行政區":"信義區",
    "行政區代碼":63000020
    }
  },
  {
    "type": "Feature",
    "geometry": {
       "type": "Point",
       "coordinates":  [ 121.5579505,25.0387009 ]
    },
    "properties": {
    "地址":"臺北市信義區仁愛路四段505號",
    "行政區":"信義區",
    "行政區代碼":63000020
    }
  },
  {
    "type": "Feature",
    "geometry": {
       "type": "Point",
       "coordinates":  [ 121.5547983,25.0228003 ]
    },
    "properties": {
    "地址":"臺北市信義區信安街202號",
    "行政區":"信義區",
    "行政區代碼":63000020
    }
  },
  {
    "type": "Feature",
    "geometry": {
       "type": "Point",
       "coordinates":  [ 121.557923,25.0268048 ]
    },
    "properties": {
    "地址":"臺北市信義區信安街56號對面(近景勤二號公園)",
    "行政區":"信義區",
    "行政區代碼":63000020
    }
  },
  {
    "type": "Feature",
    "geometry": {
       "type": "Point",
       "coordinates":  [ 121.5539442,25.0254187 ]
    },
    "properties": {
    "地址":"臺北市信義區基隆路二段165號",
    "行政區":"信義區",
    "行政區代碼":63000020
    }
  },
  {
    "type": "Feature",
    "geometry": {
       "type": "Point",
       "coordinates":  [ 121.556838,25.02614 ]
    },
    "properties": {
    "地址":"臺北市信義區嘉興街181巷6號",
    "行政區":"信義區",
    "行政區代碼":63000020
    }
  },
  {
    "type": "Feature",
    "geometry": {
       "type": "Point",
       "coordinates":  [ 121.557165,25.0259993 ]
    },
    "properties": {
    "地址":"臺北市信義區信安街80號",
    "行政區":"信義區",
    "行政區代碼":63000020
    }
  },
  {
    "type": "Feature",
    "geometry": {
       "type": "Point",
       "coordinates":  [ 121.5616154,25.0301302 ]
    },
    "properties": {
    "地址":"臺北市信義區莊敬路214號",
    "行政區":"信義區",
    "行政區代碼":63000020
    }
  },
  {
    "type": "Feature",
    "geometry": {
       "type": "Point",
       "coordinates":  [ 121.5644099,25.028515 ]
    },
    "properties": {
    "地址":"臺北市信義區莊敬路325巷38號",
    "行政區":"信義區",
    "行政區代碼":63000020
    }
  },
  {
    "type": "Feature",
    "geometry": {
       "type": "Point",
       "coordinates":  [ 121.5655981,25.0263958 ]
    },
    "properties": {
    "地址":"臺北市信義區吳興街281巷52號",
    "行政區":"信義區",
    "行政區代碼":63000020
    }
  },
  {
    "type": "Feature",
    "geometry": {
       "type": "Point",
       "coordinates":  [ 121.5807028,25.0370568 ]
    },
    "properties": {
    "地址":"臺北市信義區福德街66號\n\n",
    "行政區":"信義區",
    "行政區代碼":63000020
    }
  },
  {
    "type": "Feature",
    "geometry": {
       "type": "Point",
       "coordinates":  [ 121.567326,25.0454858 ]
    },
    "properties": {
    "地址":"臺北市信義區基隆路一段99號\n\n",
    "行政區":"信義區",
    "行政區代碼":63000020
    }
  },
  {
    "type": "Feature",
    "geometry": {
       "type": "Point",
       "coordinates":  [ 121.5745797,25.045733 ]
    },
    "properties": {
    "地址":"臺北市信義區永吉路237號\n\n",
    "行政區":"信義區",
    "行政區代碼":63000020
    }
  },
  {
    "type": "Feature",
    "geometry": {
       "type": "Point",
       "coordinates":  [ 121.5764127,25.0481612 ]
    },
    "properties": {
    "地址":"臺北市信義區松隆路292號\n\n",
    "行政區":"信義區",
    "行政區代碼":63000020
    }
  },
  {
    "type": "Feature",
    "geometry": {
       "type": "Point",
       "coordinates":  [ 121.5806935,25.0429186 ]
    },
    "properties": {
    "地址":"臺北市信義區忠孝東路五段725號1樓",
    "行政區":"信義區",
    "行政區代碼":63000020
    }
  },
  {
    "type": "Feature",
    "geometry": {
       "type": "Point",
       "coordinates":  [ 121.5609359,25.0301163 ]
    },
    "properties": {
    "地址":"臺北市信義區吳興街110號1樓",
    "行政區":"信義區",
    "行政區代碼":63000020
    }
  },
  {
    "type": "Feature",
    "geometry": {
       "type": "Point",
       "coordinates":  [ 121.5657005,25.0275666 ]
    },
    "properties": {
    "地址":"臺北市信義區莊敬路393號",
    "行政區":"信義區",
    "行政區代碼":63000020
    }
  },
  {
    "type": "Feature",
    "geometry": {
       "type": "Point",
       "coordinates":  [ 121.5565542,25.0219246 ]
    },
    "properties": {
    "地址":"臺北市信義區富陽街65、67號1樓",
    "行政區":"信義區",
    "行政區代碼":63000020
    }
  },
  {
    "type": "Feature",
    "geometry": {
       "type": "Point",
       "coordinates":  [ 121.5692449,25.044435 ]
    },
    "properties": {
    "地址":"臺北市信義區松隆路80號",
    "行政區":"信義區",
    "行政區代碼":63000020
    }
  },
  {
    "type": "Feature",
    "geometry": {
       "type": "Point",
       "coordinates":  [ 121.5684611,25.0459201 ]
    },
    "properties": {
    "地址":"臺北市信義區永吉路27號",
    "行政區":"信義區",
    "行政區代碼":63000020
    }
  },
  {
    "type": "Feature",
    "geometry": {
       "type": "Point",
       "coordinates":  [ 121.5867849,25.0460742 ]
    },
    "properties": {
    "地址":"臺北市南港區同德路100號",
    "行政區":"南港區",
    "行政區代碼":63000090
    }
  },
  {
    "type": "Feature",
    "geometry": {
       "type": "Point",
       "coordinates":  [ 121.5926842,25.0532174 ]
    },
    "properties": {
    "地址":"臺北市南港區昆陽街23號B1樓",
    "行政區":"南港區",
    "行政區代碼":63000090
    }
  },
  {
    "type": "Feature",
    "geometry": {
       "type": "Point",
       "coordinates":  [ 121.6150046,25.0458575 ]
    },
    "properties": {
    "地址":"臺北市南港區研究院路2段70巷1號",
    "行政區":"南港區",
    "行政區代碼":63000090
    }
  },
  {
    "type": "Feature",
    "geometry": {
       "type": "Point",
       "coordinates":  [ 121.618215,25.0612834 ]
    },
    "properties": {
    "地址":"臺北市南港區經貿一路265號",
    "行政區":"南港區",
    "行政區代碼":63000090
    }
  },
  {
    "type": "Feature",
    "geometry": {
       "type": "Point",
       "coordinates":  [ 121.611801,25.0566736 ]
    },
    "properties": {
    "地址":"臺北市南港區興東街59號地下一樓",
    "行政區":"南港區",
    "行政區代碼":63000090
    }
  },
  {
    "type": "Feature",
    "geometry": {
       "type": "Point",
       "coordinates":  [ 121.5954036,25.0528036 ]
    },
    "properties": {
    "地址":"臺北市南港區向陽路80號旁100公尺電池交換站",
    "行政區":"南港區",
    "行政區代碼":63000090
    }
  },
  {
    "type": "Feature",
    "geometry": {
       "type": "Point",
       "coordinates":  [ 121.6161125,25.0486811 ]
    },
    "properties": {
    "地址":"臺北市南港區研究院路二段1號",
    "行政區":"南港區",
    "行政區代碼":63000090
    }
  },
  {
    "type": "Feature",
    "geometry": {
       "type": "Point",
       "coordinates":  [ 121.5829816,25.0453509 ]
    },
    "properties": {
    "地址":"臺北市南港區忠孝東路6段481號",
    "行政區":"南港區",
    "行政區代碼":63000090
    }
  },
  {
    "type": "Feature",
    "geometry": {
       "type": "Point",
       "coordinates":  [ 121.584656,25.0419199 ]
    },
    "properties": {
    "地址":"臺北市南港區中坡南路60號",
    "行政區":"南港區",
    "行政區代碼":63000090
    }
  },
  {
    "type": "Feature",
    "geometry": {
       "type": "Point",
       "coordinates":  [ 121.6164164,25.0481931 ]
    },
    "properties": {
    "地址":"臺北市南港區大坑街南港自來水加壓站旁電池交換站(南港區中南段)",
    "行政區":"南港區",
    "行政區代碼":63000090
    }
  },
  {
    "type": "Feature",
    "geometry": {
       "type": "Point",
       "coordinates":  [ 121.6118825,25.0584861 ]
    },
    "properties": {
    "地址":"臺北市南港區園區街3號",
    "行政區":"南港區",
    "行政區代碼":63000090
    }
  },
  {
    "type": "Feature",
    "geometry": {
       "type": "Point",
       "coordinates":  [ 121.5813907,25.0520879 ]
    },
    "properties": {
    "地址":"臺北市南港區南港路三段314巷16號1樓",
    "行政區":"南港區",
    "行政區代碼":63000090
    }
  },
  {
    "type": "Feature",
    "geometry": {
       "type": "Point",
       "coordinates":  [ 121.6072858,25.0577989 ]
    },
    "properties": {
    "地址":"臺北市南港區興中路29號",
    "行政區":"南港區",
    "行政區代碼":63000090
    }
  },
  {
    "type": "Feature",
    "geometry": {
       "type": "Point",
       "coordinates":  [ 121.5857374,25.0487168 ]
    },
    "properties": {
    "地址":"臺北市南港區忠孝東路六段135號",
    "行政區":"南港區",
    "行政區代碼":63000090
    }
  },
  {
    "type": "Feature",
    "geometry": {
       "type": "Point",
       "coordinates":  [ 121.5946321,25.049958 ]
    },
    "properties": {
    "地址":"臺北市南港區昆陽街157巷11號",
    "行政區":"南港區",
    "行政區代碼":63000090
    }
  },
  {
    "type": "Feature",
    "geometry": {
       "type": "Point",
       "coordinates":  [ 121.6172089,25.0371939 ]
    },
    "properties": {
    "地址":"臺北市南港區研究院路1段185號",
    "行政區":"南港區",
    "行政區代碼":63000090
    }
  },
  {
    "type": "Feature",
    "geometry": {
       "type": "Point",
       "coordinates":  [ 121.5888002,25.0397638 ]
    },
    "properties": {
    "地址":"臺北市南港區福德街354號\n\n",
    "行政區":"南港區",
    "行政區代碼":63000090
    }
  },
  {
    "type": "Feature",
    "geometry": {
       "type": "Point",
       "coordinates":  [ 121.5808845,25.0470103 ]
    },
    "properties": {
    "地址":"臺北市南港區中坡北路60巷1號\n\n",
    "行政區":"南港區",
    "行政區代碼":63000090
    }
  },
  {
    "type": "Feature",
    "geometry": {
       "type": "Point",
       "coordinates":  [ 121.6151426,25.0451892 ]
    },
    "properties": {
    "地址":"臺北市南港區研究院路二段84巷3號\n\n",
    "行政區":"南港區",
    "行政區代碼":63000090
    }
  },
  {
    "type": "Feature",
    "geometry": {
       "type": "Point",
       "coordinates":  [ 121.6152901,25.0528492 ]
    },
    "properties": {
    "地址":"臺北市南港區中南街101號\n\n",
    "行政區":"南港區",
    "行政區代碼":63000090
    }
  },
  {
    "type": "Feature",
    "geometry": {
       "type": "Point",
       "coordinates":  [ 121.6066898,25.0573574 ]
    },
    "properties": {
    "地址":"臺北市南港區興中路78號\n\n",
    "行政區":"南港區",
    "行政區代碼":63000090
    }
  },
  {
    "type": "Feature",
    "geometry": {
       "type": "Point",
       "coordinates":  [ 121.5926641,25.0547262 ]
    },
    "properties": {
    "地址":"臺北市南港區南港路三段16巷4號",
    "行政區":"南港區",
    "行政區代碼":63000090
    }
  },
  {
    "type": "Feature",
    "geometry": {
       "type": "Point",
       "coordinates":  [ 121.5803575,25.0516243 ]
    },
    "properties": {
    "地址":"臺北市南港區南港路三段358、360號一樓",
    "行政區":"南港區",
    "行政區代碼":63000090
    }
  },
  {
    "type": "Feature",
    "geometry": {
       "type": "Point",
       "coordinates":  [ 121.6153756,25.0529169 ]
    },
    "properties": {
    "地址":"臺北市南港區忠孝東路七段600號",
    "行政區":"南港區",
    "行政區代碼":63000090
    }
  },
  {
    "type": "Feature",
    "geometry": {
       "type": "Point",
       "coordinates":  [ 121.5829211,25.0505454 ]
    },
    "properties": {
    "地址":"臺北市南港區東新街8之5號 ",
    "行政區":"南港區",
    "行政區代碼":63000090
    }
  },
  {
    "type": "Feature",
    "geometry": {
       "type": "Point",
       "coordinates":  [ 121.6161506,25.0534493 ]
    },
    "properties": {
    "地址":"臺北市南港區忠孝東路七段639號",
    "行政區":"南港區",
    "行政區代碼":63000090
    }
  },
  {
    "type": "Feature",
    "geometry": {
       "type": "Point",
       "coordinates":  [ 121.604545,25.0541276 ]
    },
    "properties": {
    "地址":"臺北市南港區南港路二段50號",
    "行政區":"南港區",
    "行政區代碼":63000090
    }
  },
  {
    "type": "Feature",
    "geometry": {
       "type": "Point",
       "coordinates":  [ 121.5820932,25.051183 ]
    },
    "properties": {
    "地址":"臺北市南港區八德路四段832號",
    "行政區":"南港區",
    "行政區代碼":63000090
    }
  },
  {
    "type": "Feature",
    "geometry": {
       "type": "Point",
       "coordinates":  [ 121.604545,25.0541276 ]
    },
    "properties": {
    "地址":"臺北市南港區南港路二段50號",
    "行政區":"南港區",
    "行政區代碼":63000090
    }
  },
  {
    "type": "Feature",
    "geometry": {
       "type": "Point",
       "coordinates":  [ 121.4991888,25.0276236 ]
    },
    "properties": {
    "地址":"臺北市萬華區西藏路201號",
    "行政區":"萬華區",
    "行政區代碼":63000070
    }
  },
  {
    "type": "Feature",
    "geometry": {
       "type": "Point",
       "coordinates":  [ 121.5056129,25.044205 ]
    },
    "properties": {
    "地址":"臺北市萬華區峨眉街83號",
    "行政區":"萬華區",
    "行政區代碼":63000070
    }
  },
  {
    "type": "Feature",
    "geometry": {
       "type": "Point",
       "coordinates":  [ 121.5058635,25.0378901 ]
    },
    "properties": {
    "地址":"臺北市萬華區桂林路1號",
    "行政區":"萬華區",
    "行政區代碼":63000070
    }
  },
  {
    "type": "Feature",
    "geometry": {
       "type": "Point",
       "coordinates":  [ 121.5006323,25.0272531 ]
    },
    "properties": {
    "地址":"臺北市萬華區萬大路207號",
    "行政區":"萬華區",
    "行政區代碼":63000070
    }
  },
  {
    "type": "Feature",
    "geometry": {
       "type": "Point",
       "coordinates":  [ 121.4986648,25.0219392 ]
    },
    "properties": {
    "地址":"臺北市萬華區萬大路388號",
    "行政區":"萬華區",
    "行政區代碼":63000070
    }
  },
  {
    "type": "Feature",
    "geometry": {
       "type": "Point",
       "coordinates":  [ 121.5053839,25.0478375 ]
    },
    "properties": {
    "地址":"臺北市萬華區環河南路一段1號B1機車引道下行100公尺",
    "行政區":"萬華區",
    "行政區代碼":63000070
    }
  },
  {
    "type": "Feature",
    "geometry": {
       "type": "Point",
       "coordinates":  [ 121.4897587,25.0286603 ]
    },
    "properties": {
    "地址":"臺北市萬華區環河南路二段245號",
    "行政區":"萬華區",
    "行政區代碼":63000070
    }
  },
  {
    "type": "Feature",
    "geometry": {
       "type": "Point",
       "coordinates":  [ 121.4909897,25.0321372 ]
    },
    "properties": {
    "地址":"臺北市萬華區環河南路二段282號",
    "行政區":"萬華區",
    "行政區代碼":63000070
    }
  },
  {
    "type": "Feature",
    "geometry": {
       "type": "Point",
       "coordinates":  [ 121.50012,25.0340207 ]
    },
    "properties": {
    "地址":"臺北市萬華區康定路380號旁",
    "行政區":"萬華區",
    "行政區代碼":63000070
    }
  },
  {
    "type": "Feature",
    "geometry": {
       "type": "Point",
       "coordinates":  [ 121.5039528,25.035221 ]
    },
    "properties": {
    "地址":"臺北市萬華區南寧路62、64、66號(近三水街口)",
    "行政區":"萬華區",
    "行政區代碼":63000070
    }
  },
  {
    "type": "Feature",
    "geometry": {
       "type": "Point",
       "coordinates":  [ 121.4965906,25.028032 ]
    },
    "properties": {
    "地址":"臺北市萬華區西藏路213號",
    "行政區":"萬華區",
    "行政區代碼":63000070
    }
  },
  {
    "type": "Feature",
    "geometry": {
       "type": "Point",
       "coordinates":  [ 121.5013512,25.0375691 ]
    },
    "properties": {
    "地址":"臺北市萬華區康定路250巷",
    "行政區":"萬華區",
    "行政區代碼":63000070
    }
  },
  {
    "type": "Feature",
    "geometry": {
       "type": "Point",
       "coordinates":  [ 121.508262,25.02556 ]
    },
    "properties": {
    "地址":"臺北市萬華區水源路與國興路口",
    "行政區":"萬華區",
    "行政區代碼":63000070
    }
  },
  {
    "type": "Feature",
    "geometry": {
       "type": "Point",
       "coordinates":  [ 121.4971369,25.0194206 ]
    },
    "properties": {
    "地址":"臺北市萬華區萬大路500號",
    "行政區":"萬華區",
    "行政區代碼":63000070
    }
  },
  {
    "type": "Feature",
    "geometry": {
       "type": "Point",
       "coordinates":  [ 121.4958578,25.0212269 ]
    },
    "properties": {
    "地址":"臺北市萬華區萬大路424巷83號",
    "行政區":"萬華區",
    "行政區代碼":63000070
    }
  },
  {
    "type": "Feature",
    "geometry": {
       "type": "Point",
       "coordinates":  [ 121.4971369,25.0194206 ]
    },
    "properties": {
    "地址":"臺北市萬華區萬大路500號",
    "行政區":"萬華區",
    "行政區代碼":63000070
    }
  },
  {
    "type": "Feature",
    "geometry": {
       "type": "Point",
       "coordinates":  [ 121.5008113,25.0275104 ]
    },
    "properties": {
    "地址":"臺北市萬華區雙和街75號",
    "行政區":"萬華區",
    "行政區代碼":63000070
    }
  },
  {
    "type": "Feature",
    "geometry": {
       "type": "Point",
       "coordinates":  [ 121.4963642,25.0292142 ]
    },
    "properties": {
    "地址":"臺北市萬華區西藏路450之3號",
    "行政區":"萬華區",
    "行政區代碼":63000070
    }
  },
  {
    "type": "Feature",
    "geometry": {
       "type": "Point",
       "coordinates":  [ 121.4909897,25.0321372 ]
    },
    "properties": {
    "地址":"臺北市萬華區環河南路二段282號",
    "行政區":"萬華區",
    "行政區代碼":63000070
    }
  },
  {
    "type": "Feature",
    "geometry": {
       "type": "Point",
       "coordinates":  [ 121.4925861,25.0256661 ]
    },
    "properties": {
    "地址":"臺北市萬華區西園路二段265號",
    "行政區":"萬華區",
    "行政區代碼":63000070
    }
  },
  {
    "type": "Feature",
    "geometry": {
       "type": "Point",
       "coordinates":  [ 121.4992046,25.0212042 ]
    },
    "properties": {
    "地址":"臺北市萬華區萬大路423巷12號",
    "行政區":"萬華區",
    "行政區代碼":63000070
    }
  },
  {
    "type": "Feature",
    "geometry": {
       "type": "Point",
       "coordinates":  [ 121.494921,25.0210911 ]
    },
    "properties": {
    "地址":"臺北市萬華區萬大路424巷112之4、之5號1樓",
    "行政區":"萬華區",
    "行政區代碼":63000070
    }
  },
  {
    "type": "Feature",
    "geometry": {
       "type": "Point",
       "coordinates":  [ 121.4897587,25.0286603 ]
    },
    "properties": {
    "地址":"臺北市萬華區環河南路二段245號",
    "行政區":"萬華區",
    "行政區代碼":63000070
    }
  }
]
}