{
   "type": "FeatureCollection",
   "features": [
  {
    "type": "Feature",
    "geometry": {
       "type": "Point",
       "coordinates":  [ 121.516989,25.047893 ]
    },
    "properties": {
    "行政區":"中正區",
    "名稱":"臺北車站(署)",
    "地址":"臺北市中正區北平西路3號",
    "所屬機關":"臺鐵公司北區營運處臺北運務段臺北站"
    }
  },
  {
    "type": "Feature",
    "geometry": {
       "type": "Point",
       "coordinates":  [ 121.516989,25.047893 ]
    },
    "properties": {
    "行政區":"中正區",
    "名稱":"臺北車站(署)",
    "地址":"臺北市中正區北平西路3號",
    "所屬機關":"臺鐵公司北區營運處臺北運務段臺北站"
    }
  },
  {
    "type": "Feature",
    "geometry": {
       "type": "Point",
       "coordinates":  [ 121.516989,25.047893 ]
    },
    "properties": {
    "行政區":"中正區",
    "名稱":"臺北車站(署)",
    "地址":"臺北市中正區北平西路3號",
    "所屬機關":"臺鐵公司北區營運處臺北運務段臺北站"
    }
  },
  {
    "type": "Feature",
    "geometry": {
       "type": "Point",
       "coordinates":  [ 121.516989,25.047893 ]
    },
    "properties": {
    "行政區":"中正區",
    "名稱":"臺北車站(署)",
    "地址":"臺北市中正區北平西路3號",
    "所屬機關":"臺鐵公司北區營運處臺北運務段臺北站"
    }
  },
  {
    "type": "Feature",
    "geometry": {
       "type": "Point",
       "coordinates":  [ 121.607064,25.053189 ]
    },
    "properties": {
    "行政區":"南港區",
    "名稱":"台灣高鐵南港站",
    "地址":"臺北市南港區南港路一段313號",
    "所屬機關":"台灣高速鐵路股份有限公司南港站"
    }
  },
  {
    "type": "Feature",
    "geometry": {
       "type": "Point",
       "coordinates":  [ 121.501321,25.033445 ]
    },
    "properties": {
    "行政區":"萬華區",
    "名稱":"萬華車站(署)",
    "地址":"臺北市萬華區康定路321號",
    "所屬機關":"臺鐵公司北區營運處臺北運務段萬華站"
    }
  },
  {
    "type": "Feature",
    "geometry": {
       "type": "Point",
       "coordinates":  [ 121.551513,25.063666 ]
    },
    "properties": {
    "行政區":"松山區",
    "名稱":"松山機場",
    "地址":"臺北市松山區敦化北路340-9號",
    "所屬機關":"交通部民航局臺北國際航空站"
    }
  },
  {
    "type": "Feature",
    "geometry": {
       "type": "Point",
       "coordinates":  [ 121.551513,25.063666 ]
    },
    "properties": {
    "行政區":"松山區",
    "名稱":"松山機場",
    "地址":"臺北市松山區敦化北路340-9號",
    "所屬機關":"交通部民航局臺北國際航空站"
    }
  },
  {
    "type": "Feature",
    "geometry": {
       "type": "Point",
       "coordinates":  [ 121.551513,25.063666 ]
    },
    "properties": {
    "行政區":"松山區",
    "名稱":"松山機場",
    "地址":"臺北市松山區敦化北路340-9號",
    "所屬機關":"交通部民航局臺北國際航空站"
    }
  },
  {
    "type": "Feature",
    "geometry": {
       "type": "Point",
       "coordinates":  [ 121.505376,25.047595 ]
    },
    "properties": {
    "行政區":"萬華區",
    "名稱":"洛陽停車場",
    "地址":"臺北市萬華區環河南路一段1號",
    "所屬機關":"洛陽停車場"
    }
  },
  {
    "type": "Feature",
    "geometry": {
       "type": "Point",
       "coordinates":  [ 121.542995,25.041483 ]
    },
    "properties": {
    "行政區":"大安區",
    "名稱":"捷運忠孝復興站(文湖線)",
    "地址":"臺北市大安區忠孝東路三段302號",
    "所屬機關":"捷運忠孝復興站文湖線"
    }
  },
  {
    "type": "Feature",
    "geometry": {
       "type": "Point",
       "coordinates":  [ 121.518363,25.032251 ]
    },
    "properties": {
    "行政區":"中正區",
    "名稱":"捷運中正紀念堂站(松山新店線)",
    "地址":"臺北市中正區羅斯福路一段8之1號",
    "所屬機關":"捷運中正紀念堂站"
    }
  },
  {
    "type": "Feature",
    "geometry": {
       "type": "Point",
       "coordinates":  [ 121.518363,25.032251 ]
    },
    "properties": {
    "行政區":"中正區",
    "名稱":"捷運中正紀念堂站(松山新店線)",
    "地址":"臺北市中正區羅斯福路一段8之1號",
    "所屬機關":"捷運中正紀念堂站"
    }
  },
  {
    "type": "Feature",
    "geometry": {
       "type": "Point",
       "coordinates":  [ 121.523279,25.025473 ]
    },
    "properties": {
    "行政區":"中正區",
    "名稱":"捷運古亭站(松山新店線)",
    "地址":"臺北市中正區羅斯福路二段164之1號",
    "所屬機關":"臺北大眾捷運股份有限公司捷運古亭站"
    }
  },
  {
    "type": "Feature",
    "geometry": {
       "type": "Point",
       "coordinates":  [ 121.517896,25.046374 ]
    },
    "properties": {
    "行政區":"中正區",
    "名稱":"捷運臺北車站(淡水信義線)",
    "地址":"臺北市中正區忠孝西路一段49號",
    "所屬機關":"臺北大眾捷運股份有限公司捷運臺北車站"
    }
  },
  {
    "type": "Feature",
    "geometry": {
       "type": "Point",
       "coordinates":  [ 121.517896,25.046374 ]
    },
    "properties": {
    "行政區":"中正區",
    "名稱":"捷運臺北車站(淡水信義線)",
    "地址":"臺北市中正區忠孝西路一段49號",
    "所屬機關":"臺北大眾捷運股份有限公司捷運臺北車站"
    }
  },
  {
    "type": "Feature",
    "geometry": {
       "type": "Point",
       "coordinates":  [ 121.573147,24.998231 ]
    },
    "properties": {
    "行政區":"文山區",
    "名稱":"捷運木柵站(文湖線)",
    "地址":"臺北市文山區木柵路四段135號",
    "所屬機關":"臺北大眾捷運股份有限公司捷運木柵站"
    }
  },
  {
    "type": "Feature",
    "geometry": {
       "type": "Point",
       "coordinates":  [ 121.558095,24.999335 ]
    },
    "properties": {
    "行政區":"文山區",
    "名稱":"捷運萬芳醫院站(文湖線)",
    "地址":"臺北市文山區興隆路三段113號",
    "所屬機關":"捷運萬芳醫院站"
    }
  },
  {
    "type": "Feature",
    "geometry": {
       "type": "Point",
       "coordinates":  [ 121.579498,24.998171 ]
    },
    "properties": {
    "行政區":"文山區",
    "名稱":"捷運動物園站(文湖線)",
    "地址":"臺北市文山區新光路二段32號",
    "所屬機關":"捷運動物園站"
    }
  },
  {
    "type": "Feature",
    "geometry": {
       "type": "Point",
       "coordinates":  [ 121.540571,24.993206 ]
    },
    "properties": {
    "行政區":"文山區",
    "名稱":"捷運景美站(松山新店線)",
    "地址":"臺北市文山區羅斯福路六段216號",
    "所屬機關":"捷運景美站(夜)"
    }
  },
  {
    "type": "Feature",
    "geometry": {
       "type": "Point",
       "coordinates":  [ 121.538552,25.002544 ]
    },
    "properties": {
    "行政區":"文山區",
    "名稱":"捷運萬隆站(松山新店線)",
    "地址":"臺北市文山區羅斯福路五段214號",
    "所屬機關":"捷運萬隆站"
    }
  },
  {
    "type": "Feature",
    "geometry": {
       "type": "Point",
       "coordinates":  [ 121.534269,25.014786 ]
    },
    "properties": {
    "行政區":"中正區",
    "名稱":"捷運公館站(松山新店線)",
    "地址":"臺北市中正區羅斯福路四段64-1號B1F(夜)",
    "所屬機關":"捷運公館站"
    }
  },
  {
    "type": "Feature",
    "geometry": {
       "type": "Point",
       "coordinates":  [ 121.529708,25.018927 ]
    },
    "properties": {
    "行政區":"中正區",
    "名稱":"捷運台電大樓站(松山新店線)",
    "地址":"臺北市中正區羅斯福路三段216-5號B1F",
    "所屬機關":"捷運台電大樓站"
    }
  },
  {
    "type": "Feature",
    "geometry": {
       "type": "Point",
       "coordinates":  [ 121.520518,25.052433 ]
    },
    "properties": {
    "行政區":"大同區",
    "名稱":"捷運中山站(淡水信義線)",
    "地址":"臺北市大同區南京西路16號",
    "所屬機關":"捷運中山站"
    }
  },
  {
    "type": "Feature",
    "geometry": {
       "type": "Point",
       "coordinates":  [ 121.520653,25.057686 ]
    },
    "properties": {
    "行政區":"大同區",
    "名稱":"捷運雙連站(淡水信義線)",
    "地址":"臺北市大同區民生西路47號",
    "所屬機關":"捷運雙連站"
    }
  },
  {
    "type": "Feature",
    "geometry": {
       "type": "Point",
       "coordinates":  [ 121.519531,25.062724 ]
    },
    "properties": {
    "行政區":"大同區",
    "名稱":"捷運民權西路站(淡水信義線)",
    "地址":"臺北市大同區民權西路72號",
    "所屬機關":"捷運民權西路站"
    }
  },
  {
    "type": "Feature",
    "geometry": {
       "type": "Point",
       "coordinates":  [ 121.520118,25.071353 ]
    },
    "properties": {
    "行政區":"大同區",
    "名稱":"捷運圓山站(淡水信義線)",
    "地址":"臺北市大同區酒泉街9之1號",
    "所屬機關":"捷運圓山站"
    }
  },
  {
    "type": "Feature",
    "geometry": {
       "type": "Point",
       "coordinates":  [ 121.525078,25.084873 ]
    },
    "properties": {
    "行政區":"士林區",
    "名稱":"捷運劍潭站(淡水信義線)",
    "地址":"臺北市士林區中山北路五段65號",
    "所屬機關":"捷運劍潭站(夜)"
    }
  },
  {
    "type": "Feature",
    "geometry": {
       "type": "Point",
       "coordinates":  [ 121.52623,25.093535 ]
    },
    "properties": {
    "行政區":"士林區",
    "名稱":"捷運士林站(淡水信義線)",
    "地址":"臺北市士林區福德路1號",
    "所屬機關":"捷運士林站"
    }
  },
  {
    "type": "Feature",
    "geometry": {
       "type": "Point",
       "coordinates":  [ 121.522514,25.10306 ]
    },
    "properties": {
    "行政區":"士林區",
    "名稱":"捷運芝山站(淡水信義線)",
    "地址":"臺北市士林區福國路70號",
    "所屬機關":"捷運芝山站"
    }
  },
  {
    "type": "Feature",
    "geometry": {
       "type": "Point",
       "coordinates":  [ 121.518848,25.109721 ]
    },
    "properties": {
    "行政區":"北投區",
    "名稱":"捷運明德站(淡水信義線)",
    "地址":"臺北市北投區明德路95號",
    "所屬機關":"捷運明德站"
    }
  },
  {
    "type": "Feature",
    "geometry": {
       "type": "Point",
       "coordinates":  [ 121.515136,25.115078 ]
    },
    "properties": {
    "行政區":"北投區",
    "名稱":"捷運石牌站(淡水信義線)",
    "地址":"臺北市北投區石牌路一段200號",
    "所屬機關":"捷運石牌站"
    }
  },
  {
    "type": "Feature",
    "geometry": {
       "type": "Point",
       "coordinates":  [ 121.506252,25.120872 ]
    },
    "properties": {
    "行政區":"北投區",
    "名稱":"捷運唭哩岸站(淡水信義線)",
    "地址":"臺北市北投區東華街二段301號",
    "所屬機關":"捷運唭哩岸站"
    }
  },
  {
    "type": "Feature",
    "geometry": {
       "type": "Point",
       "coordinates":  [ 121.501132,25.125491 ]
    },
    "properties": {
    "行政區":"北投區",
    "名稱":"捷運奇岩站(淡水信義線)",
    "地址":"臺北市北投區三合街二段487號",
    "所屬機關":"捷運奇岩站"
    }
  },
  {
    "type": "Feature",
    "geometry": {
       "type": "Point",
       "coordinates":  [ 121.498695,25.131977 ]
    },
    "properties": {
    "行政區":"北投區",
    "名稱":"捷運北投站(淡水信義線)",
    "地址":"臺北市北投區光明路1號",
    "所屬機關":"捷運北投站"
    }
  },
  {
    "type": "Feature",
    "geometry": {
       "type": "Point",
       "coordinates":  [ 121.498695,25.131977 ]
    },
    "properties": {
    "行政區":"北投區",
    "名稱":"捷運北投站(淡水信義線)",
    "地址":"臺北市北投區光明路1號",
    "所屬機關":"捷運北投站"
    }
  },
  {
    "type": "Feature",
    "geometry": {
       "type": "Point",
       "coordinates":  [ 121.502534,25.136947 ]
    },
    "properties": {
    "行政區":"北投區",
    "名稱":"捷運新北投站(淡水信義線)",
    "地址":"臺北市北投區大業路700號",
    "所屬機關":"捷運新北投站"
    }
  },
  {
    "type": "Feature",
    "geometry": {
       "type": "Point",
       "coordinates":  [ 121.485424,25.137532 ]
    },
    "properties": {
    "行政區":"北投區",
    "名稱":"捷運復興崗站(淡水信義線)",
    "地址":"臺北市北投區中央北路三段53巷10號",
    "所屬機關":"捷運復興崗站"
    }
  },
  {
    "type": "Feature",
    "geometry": {
       "type": "Point",
       "coordinates":  [ 121.473226,25.131058 ]
    },
    "properties": {
    "行政區":"北投區",
    "名稱":"捷運忠義站(淡水信義線)",
    "地址":"臺北市北投區中央北路四段301號",
    "所屬機關":"捷運忠義站"
    }
  },
  {
    "type": "Feature",
    "geometry": {
       "type": "Point",
       "coordinates":  [ 121.499579,25.035449 ]
    },
    "properties": {
    "行政區":"萬華區",
    "名稱":"捷運龍山寺站(板南線)",
    "地址":"臺北市萬華區西園路一段153號",
    "所屬機關":"捷運龍山寺站"
    }
  },
  {
    "type": "Feature",
    "geometry": {
       "type": "Point",
       "coordinates":  [ 121.508652,25.041746 ]
    },
    "properties": {
    "行政區":"中正區",
    "名稱":"捷運西門站(板南線)",
    "地址":"臺北市中正區寶慶路32-1號B1F",
    "所屬機關":"捷運西門站"
    }
  },
  {
    "type": "Feature",
    "geometry": {
       "type": "Point",
       "coordinates":  [ 121.523133,25.044746 ]
    },
    "properties": {
    "行政區":"中正區",
    "名稱":"捷運善導寺站(板南線)",
    "地址":"臺北市中正區忠孝西路一段58號",
    "所屬機關":"捷運善導寺站"
    }
  },
  {
    "type": "Feature",
    "geometry": {
       "type": "Point",
       "coordinates":  [ 121.533107,25.042023 ]
    },
    "properties": {
    "行政區":"大安區",
    "名稱":"捷運忠孝新生站(板南線)",
    "地址":"臺北市大安區新生南路一段67號",
    "所屬機關":"捷運忠孝新生站"
    }
  },
  {
    "type": "Feature",
    "geometry": {
       "type": "Point",
       "coordinates":  [ 121.551744,25.041269 ]
    },
    "properties": {
    "行政區":"大安區",
    "名稱":"捷運忠孝敦化站(板南線)",
    "地址":"臺北市大安區忠孝東路四段182號",
    "所屬機關":"捷運忠孝敦化站"
    }
  },
  {
    "type": "Feature",
    "geometry": {
       "type": "Point",
       "coordinates":  [ 121.558011,25.041048 ]
    },
    "properties": {
    "行政區":"信義區",
    "名稱":"捷運國父紀念館站(板南線)",
    "地址":"臺北市信義區忠孝東路四段400號",
    "所屬機關":"捷運國父紀念館站"
    }
  },
  {
    "type": "Feature",
    "geometry": {
       "type": "Point",
       "coordinates":  [ 121.565328,25.04092 ]
    },
    "properties": {
    "行政區":"信義區",
    "名稱":"捷運市政府站(板南線)",
    "地址":"臺北市信義區忠孝東路五段2號",
    "所屬機關":"捷運市政府站(板南線)"
    }
  },
  {
    "type": "Feature",
    "geometry": {
       "type": "Point",
       "coordinates":  [ 121.510184,25.049554 ]
    },
    "properties": {
    "行政區":"大同區",
    "名稱":"捷運北門站(松山新店線)",
    "地址":"臺北市大同區塔城街10號",
    "所屬機關":"捷運北門站(松山新店線)"
    }
  },
  {
    "type": "Feature",
    "geometry": {
       "type": "Point",
       "coordinates":  [ 121.510184,25.049554 ]
    },
    "properties": {
    "行政區":"大同區",
    "名稱":"捷運北門站(松山新店線)",
    "地址":"臺北市大同區塔城街10號",
    "所屬機關":"捷運北門站(松山新店線)"
    }
  },
  {
    "type": "Feature",
    "geometry": {
       "type": "Point",
       "coordinates":  [ 121.520364,25.052621 ]
    },
    "properties": {
    "行政區":"大同區",
    "名稱":"捷運中山站(松山新店線)",
    "地址":"臺北市大同區南京西路55號",
    "所屬機關":"捷運中山站(松山新店線)"
    }
  },
  {
    "type": "Feature",
    "geometry": {
       "type": "Point",
       "coordinates":  [ 121.533077,25.051885 ]
    },
    "properties": {
    "行政區":"中山區",
    "名稱":"捷運松江南京站(松山新店線)",
    "地址":"臺北市中山區松江路126號B1",
    "所屬機關":"捷運松江南京站(松山新店線)"
    }
  },
  {
    "type": "Feature",
    "geometry": {
       "type": "Point",
       "coordinates":  [ 121.544045,25.052285 ]
    },
    "properties": {
    "行政區":"松山區",
    "名稱":"捷運南京復興站(松山新店線)",
    "地址":"臺北市松山區南京東路三段253號",
    "所屬機關":"捷運南京復興站(松山新店線)"
    }
  },
  {
    "type": "Feature",
    "geometry": {
       "type": "Point",
       "coordinates":  [ 121.544045,25.052285 ]
    },
    "properties": {
    "行政區":"松山區",
    "名稱":"捷運南京復興站(松山新店線)",
    "地址":"臺北市松山區南京東路三段253號",
    "所屬機關":"捷運南京復興站(松山新店線)"
    }
  },
  {
    "type": "Feature",
    "geometry": {
       "type": "Point",
       "coordinates":  [ 121.552549,25.051292 ]
    },
    "properties": {
    "行政區":"松山區",
    "名稱":"捷運台北小巨蛋站(松山新店線)",
    "地址":"臺北市松山區南京東路四段10-1號",
    "所屬機關":"捷運台北小巨蛋站(松山新店線)"
    }
  },
  {
    "type": "Feature",
    "geometry": {
       "type": "Point",
       "coordinates":  [ 121.552549,25.051292 ]
    },
    "properties": {
    "行政區":"松山區",
    "名稱":"捷運台北小巨蛋站(松山新店線)",
    "地址":"臺北市松山區南京東路四段10-1號",
    "所屬機關":"捷運台北小巨蛋站(松山新店線)"
    }
  },
  {
    "type": "Feature",
    "geometry": {
       "type": "Point",
       "coordinates":  [ 121.564708,25.051652 ]
    },
    "properties": {
    "行政區":"松山區",
    "名稱":"捷運南京三民站(松山新店線)",
    "地址":"臺北市松山區南京東路五段237號",
    "所屬機關":"捷運南京三民站(松山新店線)"
    }
  },
  {
    "type": "Feature",
    "geometry": {
       "type": "Point",
       "coordinates":  [ 121.577706,25.050118 ]
    },
    "properties": {
    "行政區":"松山區",
    "名稱":"捷運松山站(松山新店線)",
    "地址":"臺北市松山區八德路四段742號",
    "所屬機關":"捷運松山站(松山新店線)(夜)"
    }
  },
  {
    "type": "Feature",
    "geometry": {
       "type": "Point",
       "coordinates":  [ 121.577706,25.050118 ]
    },
    "properties": {
    "行政區":"松山區",
    "名稱":"捷運松山站(松山新店線)",
    "地址":"臺北市松山區八德路四段742號",
    "所屬機關":"捷運松山站(松山新店線)(夜)"
    }
  },
  {
    "type": "Feature",
    "geometry": {
       "type": "Point",
       "coordinates":  [ 121.513772,25.048737 ]
    },
    "properties": {
    "行政區":"中正區",
    "名稱":"桃園國際機場捷運臺北站",
    "地址":"臺北市中正區鄭州路8號",
    "所屬機關":"桃園國際機場捷運臺北站"
    }
  },
  {
    "type": "Feature",
    "geometry": {
       "type": "Point",
       "coordinates":  [ 121.513772,25.048737 ]
    },
    "properties": {
    "行政區":"中正區",
    "名稱":"桃園國際機場捷運臺北站",
    "地址":"臺北市中正區鄭州路8號",
    "所屬機關":"桃園國際機場捷運臺北站"
    }
  },
  {
    "type": "Feature",
    "geometry": {
       "type": "Point",
       "coordinates":  [ 121.513772,25.048737 ]
    },
    "properties": {
    "行政區":"中正區",
    "名稱":"桃園國際機場捷運臺北站",
    "地址":"臺北市中正區鄭州路8號",
    "所屬機關":"桃園國際機場捷運臺北站"
    }
  },
  {
    "type": "Feature",
    "geometry": {
       "type": "Point",
       "coordinates":  [ 121.544841,25.041833 ]
    },
    "properties": {
    "行政區":"大安區",
    "名稱":"捷運忠孝復興站(板南線)",
    "地址":"臺北市大安區忠孝東路四段47號",
    "所屬機關":"捷運忠孝復興站(板南線)"
    }
  },
  {
    "type": "Feature",
    "geometry": {
       "type": "Point",
       "coordinates":  [ 121.517896,25.046374 ]
    },
    "properties": {
    "行政區":"中正區",
    "名稱":"捷運臺北車站(板南線)",
    "地址":"臺北市中正區忠孝西路一段49號",
    "所屬機關":"捷運臺北車站(板南線)"
    }
  },
  {
    "type": "Feature",
    "geometry": {
       "type": "Point",
       "coordinates":  [ 121.546528,25.061549 ]
    },
    "properties": {
    "行政區":"松山區",
    "名稱":"中山國中地下停車場",
    "地址":"臺北市松山區民權東路三段140巷15號",
    "所屬機關":"臺北市停車管理工程處"
    }
  },
  {
    "type": "Feature",
    "geometry": {
       "type": "Point",
       "coordinates":  [ 121.511904,25.067205 ]
    },
    "properties": {
    "行政區":"大同區",
    "名稱":"延平國小地下停車場",
    "地址":"臺北市大同區昌吉街97號",
    "所屬機關":"歐特儀股份有限公司延平地下停車場"
    }
  },
  {
    "type": "Feature",
    "geometry": {
       "type": "Point",
       "coordinates":  [ 121.511274,25.035203 ]
    },
    "properties": {
    "行政區":"中正區",
    "名稱":"捷運小南門站(松山新店線)",
    "地址":"臺北市中正區愛國西路22號-1樓",
    "所屬機關":"捷運小南門站(松山新店線)"
    }
  },
  {
    "type": "Feature",
    "geometry": {
       "type": "Point",
       "coordinates":  [ 121.582961,25.045248 ]
    },
    "properties": {
    "行政區":"南港區",
    "名稱":"捷運後山埤站(板南線)",
    "地址":"臺北市南港區忠孝東路六段2號",
    "所屬機關":"臺北大眾捷運股份有限公司捷運後山埤站"
    }
  },
  {
    "type": "Feature",
    "geometry": {
       "type": "Point",
       "coordinates":  [ 121.544517,25.052057 ]
    },
    "properties": {
    "行政區":"松山區",
    "名稱":"捷運南京復興站(文湖線)",
    "地址":"臺北市松山區南京東路三段253號",
    "所屬機關":"臺北大眾捷運股份有限公司捷運文湖線南京復興站"
    }
  },
  {
    "type": "Feature",
    "geometry": {
       "type": "Point",
       "coordinates":  [ 121.544215,25.060841 ]
    },
    "properties": {
    "行政區":"中山區",
    "名稱":"捷運中山國中站(文湖線)",
    "地址":"臺北市中山區復興北路376號",
    "所屬機關":"臺北大眾捷運股份有限公司捷運中山國中站"
    }
  },
  {
    "type": "Feature",
    "geometry": {
       "type": "Point",
       "coordinates":  [ 121.491177,25.027622 ]
    },
    "properties": {
    "行政區":"萬華區",
    "名稱":"雙園國中地下停車場",
    "地址":"臺北市萬華區西園路二段320巷55弄3號地下",
    "所屬機關":"臺北市停車管理工程處雙園國中地下停車場"
    }
  },
  {
    "type": "Feature",
    "geometry": {
       "type": "Point",
       "coordinates":  [ 121.508017,25.024091 ]
    },
    "properties": {
    "行政區":"萬華區",
    "名稱":"青年公園高爾夫球場地下停車場(署)",
    "地址":"臺北市萬華區國興路5號地下",
    "所屬機關":"臺北市停車管理工程處青年公園高爾夫球場地下停車場"
    }
  },
  {
    "type": "Feature",
    "geometry": {
       "type": "Point",
       "coordinates":  [ 121.523996,25.086151 ]
    },
    "properties": {
    "行政區":"士林區",
    "名稱":"百齡高中地下停車場",
    "地址":"臺北市士林區承德路四段175號地下一、二樓",
    "所屬機關":"臺北市停車管理工程處百齡高中地下停車場"
    }
  },
  {
    "type": "Feature",
    "geometry": {
       "type": "Point",
       "coordinates":  [ 121.570283,24.975939 ]
    },
    "properties": {
    "行政區":"文山區",
    "名稱":"北二高木柵休息站",
    "地址":"木柵休息站",
    "所屬機關":"交通部台灣區國道高速公路局北區工程處木柵工務段"
    }
  },
  {
    "type": "Feature",
    "geometry": {
       "type": "Point",
       "coordinates":  [ 121.531765,25.029471 ]
    },
    "properties": {
    "行政區":"大安區",
    "名稱":"金華公園地下停車場",
    "地址":"臺北市大安區金華街254巷1號地下",
    "所屬機關":"臺北市停車管理工程處金華公園地下停車場"
    }
  },
  {
    "type": "Feature",
    "geometry": {
       "type": "Point",
       "coordinates":  [ 121.50264,25.022819 ]
    },
    "properties": {
    "行政區":"萬華區",
    "名稱":"青年公園棒球場地下停車場(署)",
    "地址":"臺北市萬華區青年路69號地下1樓",
    "所屬機關":"臺北市政府停車管理處青年公園棒球場地下停車場"
    }
  },
  {
    "type": "Feature",
    "geometry": {
       "type": "Point",
       "coordinates":  [ 121.606042,25.051814 ]
    },
    "properties": {
    "行政區":"南港區",
    "名稱":"捷運南港站(板南線)",
    "地址":"臺北市南港區忠孝東路七段380號",
    "所屬機關":"臺北大眾捷運股份有限公司捷運南港站"
    }
  },
  {
    "type": "Feature",
    "geometry": {
       "type": "Point",
       "coordinates":  [ 121.555462,25.084787 ]
    },
    "properties": {
    "行政區":"中山區",
    "名稱":"捷運劍南路站(文湖線)",
    "地址":"臺北市中山區北安路798號",
    "所屬機關":"臺北大眾捷運股份有限公司捷運劍南路站"
    }
  },
  {
    "type": "Feature",
    "geometry": {
       "type": "Point",
       "coordinates":  [ 121.547078,25.079446 ]
    },
    "properties": {
    "行政區":"中山區",
    "名稱":"捷運大直站(文湖線)",
    "地址":"臺北市中山區北安路534之1號",
    "所屬機關":"臺北大眾捷運股份有限公司捷運大直站"
    }
  },
  {
    "type": "Feature",
    "geometry": {
       "type": "Point",
       "coordinates":  [ 121.616646,25.055258 ]
    },
    "properties": {
    "行政區":"南港區",
    "名稱":"捷運南港展覽館站(板南線)",
    "地址":"臺北市南港區研究院路一段1號",
    "所屬機關":"臺北大眾捷運股份有限公司捷運板南線南港展覽館站"
    }
  },
  {
    "type": "Feature",
    "geometry": {
       "type": "Point",
       "coordinates":  [ 121.615929,25.059942 ]
    },
    "properties": {
    "行政區":"南港區",
    "名稱":"捷運南港軟體園區站(文湖線)",
    "地址":"臺北市南港區經貿二路183號",
    "所屬機關":"臺北大眾捷運股份有限公司捷運南港軟體園區站"
    }
  },
  {
    "type": "Feature",
    "geometry": {
       "type": "Point",
       "coordinates":  [ 121.611718,25.067126 ]
    },
    "properties": {
    "行政區":"內湖區",
    "名稱":"捷運東湖站(文湖線)",
    "地址":"臺北市內湖區康寧路三段235號",
    "所屬機關":"臺北大眾捷運股份有限公司東湖站"
    }
  },
  {
    "type": "Feature",
    "geometry": {
       "type": "Point",
       "coordinates":  [ 121.607389,25.072483 ]
    },
    "properties": {
    "行政區":"內湖區",
    "名稱":"捷運葫洲站(文湖線)",
    "地址":"臺北市內湖區康寧路三段16號",
    "所屬機關":"臺北大眾捷運股份有限公司葫洲站"
    }
  },
  {
    "type": "Feature",
    "geometry": {
       "type": "Point",
       "coordinates":  [ 121.602658,25.083351 ]
    },
    "properties": {
    "行政區":"內湖區",
    "名稱":"捷運大湖公園站(文湖線)",
    "地址":"臺北市內湖區成功路五段11號",
    "所屬機關":"臺北大眾捷運股份有限公司大湖公園站"
    }
  },
  {
    "type": "Feature",
    "geometry": {
       "type": "Point",
       "coordinates":  [ 121.594258,25.0839 ]
    },
    "properties": {
    "行政區":"內湖區",
    "名稱":"捷運內湖站(文湖線)",
    "地址":"臺北市內湖區成功路四段186號",
    "所屬機關":"臺北大眾捷運股份有限公司內湖站"
    }
  },
  {
    "type": "Feature",
    "geometry": {
       "type": "Point",
       "coordinates":  [ 121.585527,25.078436 ]
    },
    "properties": {
    "行政區":"內湖區",
    "名稱":"捷運文德站(文湖線)",
    "地址":"臺北市內湖區文德路214號",
    "所屬機關":"臺北大眾捷運股份有限公司文德站"
    }
  },
  {
    "type": "Feature",
    "geometry": {
       "type": "Point",
       "coordinates":  [ 121.575481,25.080073 ]
    },
    "properties": {
    "行政區":"內湖區",
    "名稱":"捷運港墘站(文湖線)",
    "地址":"臺北市內湖區內湖路一段663號",
    "所屬機關":"臺北大眾捷運股份有限公司港墘站"
    }
  },
  {
    "type": "Feature",
    "geometry": {
       "type": "Point",
       "coordinates":  [ 121.567597,25.081906 ]
    },
    "properties": {
    "行政區":"內湖區",
    "名稱":"捷運西湖站(文湖線)",
    "地址":"臺北市內湖區內湖路一段256號",
    "所屬機關":"臺北大眾捷運股份有限公司西湖站"
    }
  },
  {
    "type": "Feature",
    "geometry": {
       "type": "Point",
       "coordinates":  [ 121.504128,25.136564 ]
    },
    "properties": {
    "行政區":"北投區",
    "名稱":"七星公園地下停車場",
    "地址":"臺北市北投區光明路225號",
    "所屬機關":"臺北市停車管理工程處七星公園地下停車場"
    }
  },
  {
    "type": "Feature",
    "geometry": {
       "type": "Point",
       "coordinates":  [ 121.540694,24.989247 ]
    },
    "properties": {
    "行政區":"文山區",
    "名稱":"景美國小地下停車場",
    "地址":"臺北市文山區景文街142巷2號",
    "所屬機關":"臺北市停車管理工程處景美國小地下停車場"
    }
  },
  {
    "type": "Feature",
    "geometry": {
       "type": "Point",
       "coordinates":  [ 121.580698,25.042242 ]
    },
    "properties": {
    "行政區":"信義區",
    "名稱":"春光公園地下停車場",
    "地址":"臺北市信義區忠孝東路五段666號",
    "所屬機關":"臺北市停車管理工程處春光公園地下停車場"
    }
  },
  {
    "type": "Feature",
    "geometry": {
       "type": "Point",
       "coordinates":  [ 121.532951,25.052906 ]
    },
    "properties": {
    "行政區":"中山區",
    "名稱":"捷運松江南京站(新蘆線)",
    "地址":"臺北市中山區松江路126號B1",
    "所屬機關":"臺北大眾捷運股份有限公司捷運松江南京站"
    }
  },
  {
    "type": "Feature",
    "geometry": {
       "type": "Point",
       "coordinates":  [ 121.533084,25.060552 ]
    },
    "properties": {
    "行政區":"中山區",
    "名稱":"捷運行天宮站(新蘆線)",
    "地址":"臺北市中山區松江路316號B1",
    "所屬機關":"臺北大眾捷運股份有限公司捷運行天宮站"
    }
  },
  {
    "type": "Feature",
    "geometry": {
       "type": "Point",
       "coordinates":  [ 121.527658,25.062655 ]
    },
    "properties": {
    "行政區":"中山區",
    "名稱":"捷運中山國小站(新蘆線)",
    "地址":"臺北市中山區民權東路一段71號B1",
    "所屬機關":"臺北大眾捷運股份有限公司捷運中山國小站"
    }
  },
  {
    "type": "Feature",
    "geometry": {
       "type": "Point",
       "coordinates":  [ 121.519346,25.062879 ]
    },
    "properties": {
    "行政區":"大同區",
    "名稱":"捷運民權西路站(新蘆線)",
    "地址":"臺北市大同區民權西路72號1F",
    "所屬機關":"臺北大眾捷運股份有限公司捷運民權西路站(新蘆線)"
    }
  },
  {
    "type": "Feature",
    "geometry": {
       "type": "Point",
       "coordinates":  [ 121.513043,25.063171 ]
    },
    "properties": {
    "行政區":"大同區",
    "名稱":"捷運大橋頭站(新蘆線)",
    "地址":"臺北市大同區民權西路223號",
    "所屬機關":"臺北大眾捷運股份有限公司捷運大橋頭站(新蘆線)"
    }
  },
  {
    "type": "Feature",
    "geometry": {
       "type": "Point",
       "coordinates":  [ 121.5288,25.0336 ]
    },
    "properties": {
    "行政區":"大安區",
    "名稱":"捷運東門站(淡水信義線)",
    "地址":"臺北市大安區信義路二段166號",
    "所屬機關":"臺北大眾捷運股份有限公司捷運東門站"
    }
  },
  {
    "type": "Feature",
    "geometry": {
       "type": "Point",
       "coordinates":  [ 121.5789,25.0495 ]
    },
    "properties": {
    "行政區":"信義區",
    "名稱":"松山車站地下停車場",
    "地址":"臺北市信義區松山路11號",
    "所屬機關":"松山車站地下停車場(夜.署)"
    }
  },
  {
    "type": "Feature",
    "geometry": {
       "type": "Point",
       "coordinates":  [ 121.5337,25.033418 ]
    },
    "properties": {
    "行政區":"大安區",
    "名稱":"捷運大安森林公園站(淡水信義線)",
    "地址":"臺北市大安區信義路三段100號B1",
    "所屬機關":"臺北大眾捷運股份有限公司捷運大安森林公園站"
    }
  },
  {
    "type": "Feature",
    "geometry": {
       "type": "Point",
       "coordinates":  [ 121.5337,25.033418 ]
    },
    "properties": {
    "行政區":"大安區",
    "名稱":"捷運大安森林公園站(淡水信義線)",
    "地址":"臺北市大安區信義路三段100號B1",
    "所屬機關":"臺北大眾捷運股份有限公司捷運大安森林公園站"
    }
  },
  {
    "type": "Feature",
    "geometry": {
       "type": "Point",
       "coordinates":  [ 121.551853,25.033185 ]
    },
    "properties": {
    "行政區":"大安區",
    "名稱":"捷運安和站(淡水信義線)",
    "地址":"臺北市大安區信義路四段212之1號B1",
    "所屬機關":"臺北大眾捷運股份有限公司捷運信義安和站"
    }
  },
  {
    "type": "Feature",
    "geometry": {
       "type": "Point",
       "coordinates":  [ 121.567279,25.032903 ]
    },
    "properties": {
    "行政區":"信義區",
    "名稱":"捷運象山站(淡水信義線)",
    "地址":"臺北市信義區信義路五段152號B1",
    "所屬機關":"臺北大眾捷運股份有限公司捷運象山站"
    }
  },
  {
    "type": "Feature",
    "geometry": {
       "type": "Point",
       "coordinates":  [ 121.502759,25.02719 ]
    },
    "properties": {
    "行政區":"萬華區",
    "名稱":"新和國小地下停車場",
    "地址":"臺北市萬華區中華路2段416巷21號",
    "所屬機關":"正好停股份有限公司"
    }
  },
  {
    "type": "Feature",
    "geometry": {
       "type": "Point",
       "coordinates":  [ 121.511227,25.031454 ]
    },
    "properties": {
    "行政區":"中正區",
    "名稱":"國立歷史博物館",
    "地址":"臺北市中正區南海路49號",
    "所屬機關":"國立歷史博物館"
    }
  },
  {
    "type": "Feature",
    "geometry": {
       "type": "Point",
       "coordinates":  [ 121.51601,25.095988 ]
    },
    "properties": {
    "行政區":"士林區",
    "名稱":"國立臺灣科學教育館",
    "地址":"臺北市士林區士商路189號",
    "所屬機關":"國立臺灣科學教育館"
    }
  },
  {
    "type": "Feature",
    "geometry": {
       "type": "Point",
       "coordinates":  [ 121.51601,25.095988 ]
    },
    "properties": {
    "行政區":"士林區",
    "名稱":"國立臺灣科學教育館",
    "地址":"臺北市士林區士商路189號",
    "所屬機關":"國立臺灣科學教育館"
    }
  },
  {
    "type": "Feature",
    "geometry": {
       "type": "Point",
       "coordinates":  [ 121.51601,25.095988 ]
    },
    "properties": {
    "行政區":"士林區",
    "名稱":"國立臺灣科學教育館",
    "地址":"臺北市士林區士商路189號",
    "所屬機關":"國立臺灣科學教育館"
    }
  },
  {
    "type": "Feature",
    "geometry": {
       "type": "Point",
       "coordinates":  [ 121.51601,25.095988 ]
    },
    "properties": {
    "行政區":"士林區",
    "名稱":"國立臺灣科學教育館",
    "地址":"臺北市士林區士商路189號",
    "所屬機關":"國立臺灣科學教育館"
    }
  },
  {
    "type": "Feature",
    "geometry": {
       "type": "Point",
       "coordinates":  [ 121.51601,25.095988 ]
    },
    "properties": {
    "行政區":"士林區",
    "名稱":"國立臺灣科學教育館",
    "地址":"臺北市士林區士商路189號",
    "所屬機關":"國立臺灣科學教育館"
    }
  },
  {
    "type": "Feature",
    "geometry": {
       "type": "Point",
       "coordinates":  [ 121.51601,25.095988 ]
    },
    "properties": {
    "行政區":"士林區",
    "名稱":"國立臺灣科學教育館",
    "地址":"臺北市士林區士商路189號",
    "所屬機關":"國立臺灣科學教育館"
    }
  },
  {
    "type": "Feature",
    "geometry": {
       "type": "Point",
       "coordinates":  [ 121.51601,25.095988 ]
    },
    "properties": {
    "行政區":"士林區",
    "名稱":"國立臺灣科學教育館",
    "地址":"臺北市士林區士商路189號",
    "所屬機關":"國立臺灣科學教育館"
    }
  },
  {
    "type": "Feature",
    "geometry": {
       "type": "Point",
       "coordinates":  [ 121.524686,25.072631 ]
    },
    "properties": {
    "行政區":"中山區",
    "名稱":"臺北市立美術館",
    "地址":"臺北市中山區中山北路三段181號",
    "所屬機關":"臺北市立美術館"
    }
  },
  {
    "type": "Feature",
    "geometry": {
       "type": "Point",
       "coordinates":  [ 121.524686,25.072631 ]
    },
    "properties": {
    "行政區":"中山區",
    "名稱":"臺北市立美術館",
    "地址":"臺北市中山區中山北路三段181號",
    "所屬機關":"臺北市立美術館"
    }
  },
  {
    "type": "Feature",
    "geometry": {
       "type": "Point",
       "coordinates":  [ 121.524686,25.072631 ]
    },
    "properties": {
    "行政區":"中山區",
    "名稱":"臺北市立美術館",
    "地址":"臺北市中山區中山北路三段181號",
    "所屬機關":"臺北市立美術館"
    }
  },
  {
    "type": "Feature",
    "geometry": {
       "type": "Point",
       "coordinates":  [ 121.551403,25.051253 ]
    },
    "properties": {
    "行政區":"松山區",
    "名稱":"臺北田徑場",
    "地址":"臺北市松山區敦化北路3號",
    "所屬機關":"臺北田徑場"
    }
  },
  {
    "type": "Feature",
    "geometry": {
       "type": "Point",
       "coordinates":  [ 121.551403,25.051253 ]
    },
    "properties": {
    "行政區":"松山區",
    "名稱":"臺北田徑場",
    "地址":"臺北市松山區敦化北路3號",
    "所屬機關":"臺北田徑場"
    }
  },
  {
    "type": "Feature",
    "geometry": {
       "type": "Point",
       "coordinates":  [ 121.551403,25.051253 ]
    },
    "properties": {
    "行政區":"松山區",
    "名稱":"臺北田徑場",
    "地址":"臺北市松山區敦化北路3號",
    "所屬機關":"臺北田徑場"
    }
  },
  {
    "type": "Feature",
    "geometry": {
       "type": "Point",
       "coordinates":  [ 121.551403,25.051253 ]
    },
    "properties": {
    "行政區":"松山區",
    "名稱":"臺北田徑場",
    "地址":"臺北市松山區敦化北路3號",
    "所屬機關":"臺北田徑場"
    }
  },
  {
    "type": "Feature",
    "geometry": {
       "type": "Point",
       "coordinates":  [ 121.551403,25.051253 ]
    },
    "properties": {
    "行政區":"松山區",
    "名稱":"臺北田徑場",
    "地址":"臺北市松山區敦化北路3號",
    "所屬機關":"臺北田徑場"
    }
  },
  {
    "type": "Feature",
    "geometry": {
       "type": "Point",
       "coordinates":  [ 121.533073,25.078801 ]
    },
    "properties": {
    "行政區":"中山區",
    "名稱":"國民革命忠烈祠",
    "地址":"臺北市中山區北安路139號",
    "所屬機關":"全民防衛動員署後備指揮部"
    }
  },
  {
    "type": "Feature",
    "geometry": {
       "type": "Point",
       "coordinates":  [ 121.546587,25.155082 ]
    },
    "properties": {
    "行政區":"北投區",
    "名稱":"陽明山國家公園(署)",
    "地址":"臺北市北投區小油坑地質景觀區遊客服務中心",
    "所屬機關":"內政部國家公園署陽明山國家公園管理處"
    }
  },
  {
    "type": "Feature",
    "geometry": {
       "type": "Point",
       "coordinates":  [ 121.546587,25.155082 ]
    },
    "properties": {
    "行政區":"北投區",
    "名稱":"陽明山國家公園(署)",
    "地址":"臺北市北投區小油坑地質景觀區遊客服務中心",
    "所屬機關":"內政部國家公園署陽明山國家公園管理處"
    }
  },
  {
    "type": "Feature",
    "geometry": {
       "type": "Point",
       "coordinates":  [ 121.546587,25.155082 ]
    },
    "properties": {
    "行政區":"北投區",
    "名稱":"陽明山國家公園(署)",
    "地址":"臺北市北投區小油坑地質景觀區遊客服務中心",
    "所屬機關":"內政部國家公園署陽明山國家公園管理處"
    }
  },
  {
    "type": "Feature",
    "geometry": {
       "type": "Point",
       "coordinates":  [ 121.546587,25.155082 ]
    },
    "properties": {
    "行政區":"北投區",
    "名稱":"陽明山國家公園(署)",
    "地址":"臺北市北投區小油坑地質景觀區遊客服務中心",
    "所屬機關":"內政部國家公園署陽明山國家公園管理處"
    }
  },
  {
    "type": "Feature",
    "geometry": {
       "type": "Point",
       "coordinates":  [ 121.546587,25.155082 ]
    },
    "properties": {
    "行政區":"北投區",
    "名稱":"陽明山國家公園(署)",
    "地址":"臺北市北投區小油坑地質景觀區遊客服務中心",
    "所屬機關":"內政部國家公園署陽明山國家公園管理處"
    }
  },
  {
    "type": "Feature",
    "geometry": {
       "type": "Point",
       "coordinates":  [ 121.546587,25.155082 ]
    },
    "properties": {
    "行政區":"北投區",
    "名稱":"陽明山國家公園(署)",
    "地址":"臺北市北投區小油坑地質景觀區遊客服務中心",
    "所屬機關":"內政部國家公園署陽明山國家公園管理處"
    }
  },
  {
    "type": "Feature",
    "geometry": {
       "type": "Point",
       "coordinates":  [ 121.581069,24.998855 ]
    },
    "properties": {
    "行政區":"文山區",
    "名稱":"臺北市立動物園",
    "地址":"臺北市文山區新光路二段30號",
    "所屬機關":"臺北市立動物園"
    }
  },
  {
    "type": "Feature",
    "geometry": {
       "type": "Point",
       "coordinates":  [ 121.581069,24.998855 ]
    },
    "properties": {
    "行政區":"文山區",
    "名稱":"臺北市立動物園",
    "地址":"臺北市文山區新光路二段30號",
    "所屬機關":"臺北市立動物園"
    }
  },
  {
    "type": "Feature",
    "geometry": {
       "type": "Point",
       "coordinates":  [ 121.581069,24.998855 ]
    },
    "properties": {
    "行政區":"文山區",
    "名稱":"臺北市立動物園",
    "地址":"臺北市文山區新光路二段30號",
    "所屬機關":"臺北市立動物園"
    }
  },
  {
    "type": "Feature",
    "geometry": {
       "type": "Point",
       "coordinates":  [ 121.581069,24.998855 ]
    },
    "properties": {
    "行政區":"文山區",
    "名稱":"臺北市立動物園",
    "地址":"臺北市文山區新光路二段30號",
    "所屬機關":"臺北市立動物園"
    }
  },
  {
    "type": "Feature",
    "geometry": {
       "type": "Point",
       "coordinates":  [ 121.581069,24.998855 ]
    },
    "properties": {
    "行政區":"文山區",
    "名稱":"臺北市立動物園",
    "地址":"臺北市文山區新光路二段30號",
    "所屬機關":"臺北市立動物園"
    }
  },
  {
    "type": "Feature",
    "geometry": {
       "type": "Point",
       "coordinates":  [ 121.581069,24.998855 ]
    },
    "properties": {
    "行政區":"文山區",
    "名稱":"臺北市立動物園",
    "地址":"臺北市文山區新光路二段30號",
    "所屬機關":"臺北市立動物園"
    }
  },
  {
    "type": "Feature",
    "geometry": {
       "type": "Point",
       "coordinates":  [ 121.581069,24.998855 ]
    },
    "properties": {
    "行政區":"文山區",
    "名稱":"臺北市立動物園",
    "地址":"臺北市文山區新光路二段30號",
    "所屬機關":"臺北市立動物園"
    }
  },
  {
    "type": "Feature",
    "geometry": {
       "type": "Point",
       "coordinates":  [ 121.581069,24.998855 ]
    },
    "properties": {
    "行政區":"文山區",
    "名稱":"臺北市立動物園",
    "地址":"臺北市文山區新光路二段30號",
    "所屬機關":"臺北市立動物園"
    }
  },
  {
    "type": "Feature",
    "geometry": {
       "type": "Point",
       "coordinates":  [ 121.581069,24.998855 ]
    },
    "properties": {
    "行政區":"文山區",
    "名稱":"臺北市立動物園",
    "地址":"臺北市文山區新光路二段30號",
    "所屬機關":"臺北市立動物園"
    }
  },
  {
    "type": "Feature",
    "geometry": {
       "type": "Point",
       "coordinates":  [ 121.512543,25.057079 ]
    },
    "properties": {
    "行政區":"大同區",
    "名稱":"新芳春茶行",
    "地址":"臺北市大同區民生西路309號",
    "所屬機關":"財團法人臺灣文創發展基金會"
    }
  },
  {
    "type": "Feature",
    "geometry": {
       "type": "Point",
       "coordinates":  [ 121.598575,25.052654 ]
    },
    "properties": {
    "行政區":"南港區",
    "名稱":"臺北流行音樂中心",
    "地址":"臺北市南港區市民大道八段99號",
    "所屬機關":"臺北流行音樂中心"
    }
  },
  {
    "type": "Feature",
    "geometry": {
       "type": "Point",
       "coordinates":  [ 121.524211,25.085079 ]
    },
    "properties": {
    "行政區":"士林區",
    "名稱":"臺北表演藝術中心",
    "地址":"臺北市士林區劍潭路1號",
    "所屬機關":"臺北表演藝術中心"
    }
  },
  {
    "type": "Feature",
    "geometry": {
       "type": "Point",
       "coordinates":  [ 121.530253,25.013286 ]
    },
    "properties": {
    "行政區":"中正區",
    "名稱":"自來水園區(署)",
    "地址":"臺北市中正區思源街1號",
    "所屬機關":"自來水園區"
    }
  },
  {
    "type": "Feature",
    "geometry": {
       "type": "Point",
       "coordinates":  [ 121.522275,25.038971 ]
    },
    "properties": {
    "行政區":"中正區",
    "名稱":"臺北市政府青年局",
    "地址":"臺北市中正區仁愛路一段17號",
    "所屬機關":"臺北市政府青年局"
    }
  },
  {
    "type": "Feature",
    "geometry": {
       "type": "Point",
       "coordinates":  [ 121.522275,25.038971 ]
    },
    "properties": {
    "行政區":"中正區",
    "名稱":"臺北市政府青年局",
    "地址":"臺北市中正區仁愛路一段17號",
    "所屬機關":"臺北市政府青年局"
    }
  },
  {
    "type": "Feature",
    "geometry": {
       "type": "Point",
       "coordinates":  [ 121.54936,25.099688 ]
    },
    "properties": {
    "行政區":"士林區",
    "名稱":"國立故宮博物院",
    "地址":"臺北市士林區至善路二段221號",
    "所屬機關":"國立故宮博物院"
    }
  },
  {
    "type": "Feature",
    "geometry": {
       "type": "Point",
       "coordinates":  [ 121.54936,25.099688 ]
    },
    "properties": {
    "行政區":"士林區",
    "名稱":"國立故宮博物院",
    "地址":"臺北市士林區至善路二段221號",
    "所屬機關":"國立故宮博物院"
    }
  },
  {
    "type": "Feature",
    "geometry": {
       "type": "Point",
       "coordinates":  [ 121.534287,25.114385 ]
    },
    "properties": {
    "行政區":"士林區",
    "名稱":"天母運動場",
    "地址":"臺北市士林區忠誠路二段77號(天母運動園區服務中心)",
    "所屬機關":"臺北市輪椅網球推廣協會"
    }
  },
  {
    "type": "Feature",
    "geometry": {
       "type": "Point",
       "coordinates":  [ 121.596695,25.067637 ]
    },
    "properties": {
    "行政區":"內湖區",
    "名稱":"臺北市網球中心",
    "地址":"臺北市內湖區民權東路六段208號",
    "所屬機關":"臺北市政府體育局"
    }
  },
  {
    "type": "Feature",
    "geometry": {
       "type": "Point",
       "coordinates":  [ 121.55959,25.042322 ]
    },
    "properties": {
    "行政區":"信義區",
    "名稱":"臺北大巨蛋",
    "地址":"臺北市信義區忠孝東路四段515號",
    "所屬機關":"遠雄巨蛋事業股份有限公司"
    }
  },
  {
    "type": "Feature",
    "geometry": {
       "type": "Point",
       "coordinates":  [ 121.55959,25.042322 ]
    },
    "properties": {
    "行政區":"信義區",
    "名稱":"臺北大巨蛋",
    "地址":"臺北市信義區忠孝東路四段515號",
    "所屬機關":"遠雄巨蛋事業股份有限公司"
    }
  },
  {
    "type": "Feature",
    "geometry": {
       "type": "Point",
       "coordinates":  [ 121.55959,25.042322 ]
    },
    "properties": {
    "行政區":"信義區",
    "名稱":"臺北大巨蛋",
    "地址":"臺北市信義區忠孝東路四段515號",
    "所屬機關":"遠雄巨蛋事業股份有限公司"
    }
  },
  {
    "type": "Feature",
    "geometry": {
       "type": "Point",
       "coordinates":  [ 121.55959,25.042322 ]
    },
    "properties": {
    "行政區":"信義區",
    "名稱":"臺北大巨蛋",
    "地址":"臺北市信義區忠孝東路四段515號",
    "所屬機關":"遠雄巨蛋事業股份有限公司"
    }
  },
  {
    "type": "Feature",
    "geometry": {
       "type": "Point",
       "coordinates":  [ 121.549934,25.05145 ]
    },
    "properties": {
    "行政區":"松山區",
    "名稱":"臺北小巨蛋",
    "地址":"臺北市松山區南京東路四段2號(南京東路四段與敦化北路交叉口)",
    "所屬機關":"臺北大眾捷運股份有限公司"
    }
  },
  {
    "type": "Feature",
    "geometry": {
       "type": "Point",
       "coordinates":  [ 121.549934,25.05145 ]
    },
    "properties": {
    "行政區":"松山區",
    "名稱":"臺北小巨蛋",
    "地址":"臺北市松山區南京東路四段2號(南京東路四段與敦化北路交叉口)",
    "所屬機關":"臺北大眾捷運股份有限公司"
    }
  },
  {
    "type": "Feature",
    "geometry": {
       "type": "Point",
       "coordinates":  [ 121.549934,25.05145 ]
    },
    "properties": {
    "行政區":"松山區",
    "名稱":"臺北小巨蛋",
    "地址":"臺北市松山區南京東路四段2號(南京東路四段與敦化北路交叉口)",
    "所屬機關":"臺北大眾捷運股份有限公司"
    }
  },
  {
    "type": "Feature",
    "geometry": {
       "type": "Point",
       "coordinates":  [ 121.500605,25.109979 ]
    },
    "properties": {
    "行政區":"北投區",
    "名稱":"洲美運動公園",
    "地址":"臺北市北投區洲美街271號",
    "所屬機關":"洲美運動公園"
    }
  },
  {
    "type": "Feature",
    "geometry": {
       "type": "Point",
       "coordinates":  [ 121.500605,25.109979 ]
    },
    "properties": {
    "行政區":"北投區",
    "名稱":"洲美運動公園",
    "地址":"臺北市北投區洲美街271號",
    "所屬機關":"洲美運動公園"
    }
  },
  {
    "type": "Feature",
    "geometry": {
       "type": "Point",
       "coordinates":  [ 121.576292,24.996036 ]
    },
    "properties": {
    "行政區":"文山區",
    "名稱":"木柵貓空纜車",
    "地址":"臺北市文山區新光路二段8號",
    "所屬機關":"臺北大眾捷運股份有限公司"
    }
  },
  {
    "type": "Feature",
    "geometry": {
       "type": "Point",
       "coordinates":  [ 121.576292,24.996036 ]
    },
    "properties": {
    "行政區":"文山區",
    "名稱":"木柵貓空纜車",
    "地址":"臺北市文山區新光路二段8號",
    "所屬機關":"臺北大眾捷運股份有限公司"
    }
  },
  {
    "type": "Feature",
    "geometry": {
       "type": "Point",
       "coordinates":  [ 121.576292,24.996036 ]
    },
    "properties": {
    "行政區":"文山區",
    "名稱":"木柵貓空纜車",
    "地址":"臺北市文山區新光路二段8號",
    "所屬機關":"臺北大眾捷運股份有限公司"
    }
  },
  {
    "type": "Feature",
    "geometry": {
       "type": "Point",
       "coordinates":  [ 121.51379,25.031614 ]
    },
    "properties": {
    "行政區":"中正區",
    "名稱":"二二八國家紀念館",
    "地址":"臺北市中正區南海路54號",
    "所屬機關":"財團法人二二八事件紀念基金會"
    }
  },
  {
    "type": "Feature",
    "geometry": {
       "type": "Point",
       "coordinates":  [ 121.5253,25.0203 ]
    },
    "properties": {
    "行政區":"中正區",
    "名稱":"臺北市客家文化主題公園(署)",
    "地址":"臺北市中正區汀州路三段2號",
    "所屬機關":"臺北市客家事務委員會"
    }
  },
  {
    "type": "Feature",
    "geometry": {
       "type": "Point",
       "coordinates":  [ 121.540139,25.156931 ]
    },
    "properties": {
    "行政區":"北投區",
    "名稱":"陽明山公園(署)",
    "地址":"臺北市北投區陽明山",
    "所屬機關":"公園路燈工程管理處花卉試驗中心"
    }
  },
  {
    "type": "Feature",
    "geometry": {
       "type": "Point",
       "coordinates":  [ 121.507039,25.022201 ]
    },
    "properties": {
    "行政區":"萬華區",
    "名稱":"青年公園(署)",
    "地址":"臺北市萬華區水源路199號",
    "所屬機關":"公園路燈工程管理處青年公園管理所"
    }
  },
  {
    "type": "Feature",
    "geometry": {
       "type": "Point",
       "coordinates":  [ 121.507039,25.022201 ]
    },
    "properties": {
    "行政區":"萬華區",
    "名稱":"青年公園(署)",
    "地址":"臺北市萬華區水源路199號",
    "所屬機關":"公園路燈工程管理處青年公園管理所"
    }
  },
  {
    "type": "Feature",
    "geometry": {
       "type": "Point",
       "coordinates":  [ 121.507039,25.022201 ]
    },
    "properties": {
    "行政區":"萬華區",
    "名稱":"青年公園(署)",
    "地址":"臺北市萬華區水源路199號",
    "所屬機關":"公園路燈工程管理處青年公園管理所"
    }
  },
  {
    "type": "Feature",
    "geometry": {
       "type": "Point",
       "coordinates":  [ 121.507039,25.022201 ]
    },
    "properties": {
    "行政區":"萬華區",
    "名稱":"青年公園(署)",
    "地址":"臺北市萬華區水源路199號",
    "所屬機關":"公園路燈工程管理處青年公園管理所"
    }
  },
  {
    "type": "Feature",
    "geometry": {
       "type": "Point",
       "coordinates":  [ 121.507039,25.022201 ]
    },
    "properties": {
    "行政區":"萬華區",
    "名稱":"青年公園(署)",
    "地址":"臺北市萬華區水源路199號",
    "所屬機關":"公園路燈工程管理處青年公園管理所"
    }
  },
  {
    "type": "Feature",
    "geometry": {
       "type": "Point",
       "coordinates":  [ 121.568252,25.001252 ]
    },
    "properties": {
    "行政區":"文山區",
    "名稱":"萬芳公園",
    "地址":"臺北市文山區萬和街2號旁",
    "所屬機關":"公園路燈工程管理處南港公園管理所"
    }
  },
  {
    "type": "Feature",
    "geometry": {
       "type": "Point",
       "coordinates":  [ 121.530071,25.125855 ]
    },
    "properties": {
    "行政區":"士林區",
    "名稱":"天母公園",
    "地址":"臺北市士林區中山北路7段141巷旁",
    "所屬機關":"公園路燈工程管理處陽明公園管理所"
    }
  },
  {
    "type": "Feature",
    "geometry": {
       "type": "Point",
       "coordinates":  [ 121.520269,25.047554 ]
    },
    "properties": {
    "行政區":"中正區",
    "名稱":"逸仙公園",
    "地址":"臺北市中正區中山北路、北平西路交叉口國父史蹟紀念館內",
    "所屬機關":"公園路燈工程管理處青年公園管理所"
    }
  },
  {
    "type": "Feature",
    "geometry": {
       "type": "Point",
       "coordinates":  [ 121.560505,24.986902 ]
    },
    "properties": {
    "行政區":"文山區",
    "名稱":"木柵公園(署)",
    "地址":"臺北市文山區下崙路9之3號對面",
    "所屬機關":"公園路燈工程管理處南港公園管理所"
    }
  },
  {
    "type": "Feature",
    "geometry": {
       "type": "Point",
       "coordinates":  [ 121.535241,25.027752 ]
    },
    "properties": {
    "行政區":"大安區",
    "名稱":"大安森林公園(署)",
    "地址":"臺北市大安區新生南路二段1號",
    "所屬機關":"公園路燈工程管理處青年公園管理所"
    }
  },
  {
    "type": "Feature",
    "geometry": {
       "type": "Point",
       "coordinates":  [ 121.535241,25.027752 ]
    },
    "properties": {
    "行政區":"大安區",
    "名稱":"大安森林公園(署)",
    "地址":"臺北市大安區新生南路二段1號",
    "所屬機關":"公園路燈工程管理處青年公園管理所"
    }
  },
  {
    "type": "Feature",
    "geometry": {
       "type": "Point",
       "coordinates":  [ 121.535241,25.027752 ]
    },
    "properties": {
    "行政區":"大安區",
    "名稱":"大安森林公園(署)",
    "地址":"臺北市大安區新生南路二段1號",
    "所屬機關":"公園路燈工程管理處青年公園管理所"
    }
  },
  {
    "type": "Feature",
    "geometry": {
       "type": "Point",
       "coordinates":  [ 121.580579,25.033356 ]
    },
    "properties": {
    "行政區":"信義區",
    "名稱":"永春坡濕地公園",
    "地址":"臺北市信義區松山路657號",
    "所屬機關":"工務局公園路燈工程管理處"
    }
  },
  {
    "type": "Feature",
    "geometry": {
       "type": "Point",
       "coordinates":  [ 121.580579,25.033356 ]
    },
    "properties": {
    "行政區":"信義區",
    "名稱":"永春坡濕地公園",
    "地址":"臺北市信義區松山路657號",
    "所屬機關":"工務局公園路燈工程管理處"
    }
  },
  {
    "type": "Feature",
    "geometry": {
       "type": "Point",
       "coordinates":  [ 121.589697,25.051289 ]
    },
    "properties": {
    "行政區":"南港區",
    "名稱":"南港新新公園(署)",
    "地址":"臺北市南港區南港路三段47巷旁",
    "所屬機關":"工務局公園路燈工程管理處"
    }
  },
  {
    "type": "Feature",
    "geometry": {
       "type": "Point",
       "coordinates":  [ 121.532836,25.101148 ]
    },
    "properties": {
    "行政區":"士林區",
    "名稱":"芝山公園1號",
    "地址":"臺北市士林區至誠路一段182號與雨農路交叉口",
    "所屬機關":"公園路燈工程管理處陽明山公園管理所"
    }
  },
  {
    "type": "Feature",
    "geometry": {
       "type": "Point",
       "coordinates":  [ 121.525878,25.103148 ]
    },
    "properties": {
    "行政區":"士林區",
    "名稱":"忠誠公園",
    "地址":"臺北市士林區中山北路六段與忠誠路會口公園水池後方",
    "所屬機關":"公園路燈工程管理處陽明山公園管理所"
    }
  },
  {
    "type": "Feature",
    "geometry": {
       "type": "Point",
       "coordinates":  [ 121.558981,25.034336 ]
    },
    "properties": {
    "行政區":"信義區",
    "名稱":"中興公園",
    "地址":"臺北市信義區光復南路473巷13弄43號對面",
    "所屬機關":"公園路燈工程管理處南港公園管理所"
    }
  },
  {
    "type": "Feature",
    "geometry": {
       "type": "Point",
       "coordinates":  [ 121.530152,25.094898 ]
    },
    "properties": {
    "行政區":"士林區",
    "名稱":"士林官邸",
    "地址":"臺北市士林區福林路60號",
    "所屬機關":"公園路燈工程管理處園藝管理所"
    }
  },
  {
    "type": "Feature",
    "geometry": {
       "type": "Point",
       "coordinates":  [ 121.530152,25.094898 ]
    },
    "properties": {
    "行政區":"士林區",
    "名稱":"士林官邸",
    "地址":"臺北市士林區福林路60號",
    "所屬機關":"公園路燈工程管理處園藝管理所"
    }
  },
  {
    "type": "Feature",
    "geometry": {
       "type": "Point",
       "coordinates":  [ 121.519656,25.096979 ]
    },
    "properties": {
    "行政區":"士林區",
    "名稱":"美崙公園",
    "地址":"臺北市士林區美崙街152巷",
    "所屬機關":"公園路燈工程管理處陽明山公園管理所"
    }
  },
  {
    "type": "Feature",
    "geometry": {
       "type": "Point",
       "coordinates":  [ 121.52088,25.083272 ]
    },
    "properties": {
    "行政區":"士林區",
    "名稱":"華齡公園",
    "地址":"臺北市士林區承德路，後港街間",
    "所屬機關":"園藝工程隊(北區分隊)"
    }
  },
  {
    "type": "Feature",
    "geometry": {
       "type": "Point",
       "coordinates":  [ 121.544438,25.134945 ]
    },
    "properties": {
    "行政區":"士林區",
    "名稱":"花卉試驗中心",
    "地址":"臺北市士林區仰德大道四段175巷32號",
    "所屬機關":"公園路燈工程管理處花卉試驗中心"
    }
  },
  {
    "type": "Feature",
    "geometry": {
       "type": "Point",
       "coordinates":  [ 121.498392,25.039497 ]
    },
    "properties": {
    "行政區":"萬華區",
    "名稱":"青山公園廣場",
    "地址":"臺北市萬華區華西街15號",
    "所屬機關":"公園路燈工程管理處青年公園管理所"
    }
  },
  {
    "type": "Feature",
    "geometry": {
       "type": "Point",
       "coordinates":  [ 121.525912,25.046065 ]
    },
    "properties": {
    "行政區":"中正區",
    "名稱":"中央藝文1號公園",
    "地址":"臺北市中正區北平東路30號對面",
    "所屬機關":"公園路燈工程管理處青年公園管理所"
    }
  },
  {
    "type": "Feature",
    "geometry": {
       "type": "Point",
       "coordinates":  [ 121.545128,25.001276 ]
    },
    "properties": {
    "行政區":"文山區",
    "名稱":"景美運動公園(署)",
    "地址":"臺北市文山區景豐街底",
    "所屬機關":"公園路燈工程管理處南港公園管理所"
    }
  },
  {
    "type": "Feature",
    "geometry": {
       "type": "Point",
       "coordinates":  [ 121.4981,25.0328 ]
    },
    "properties": {
    "行政區":"萬華區",
    "名稱":"和平青草園",
    "地址":"臺北市萬華區艋舺大道西園路二段交叉口",
    "所屬機關":"公園路燈工程管理處青年公園管理所"
    }
  },
  {
    "type": "Feature",
    "geometry": {
       "type": "Point",
       "coordinates":  [ 121.505584,25.10028 ]
    },
    "properties": {
    "行政區":"北投區",
    "名稱":"洲美公園",
    "地址":"臺北市北投區福美路199號",
    "所屬機關":"臺北市公園路燈管理處陽明山管理所"
    }
  },
  {
    "type": "Feature",
    "geometry": {
       "type": "Point",
       "coordinates":  [ 121.489814,25.029942 ]
    },
    "properties": {
    "行政區":"萬華區",
    "名稱":"公有環南綜合市場(署)",
    "地址":"臺北市萬華區環河南路二段245號",
    "所屬機關":"臺北市市場處公有環南綜合市場"
    }
  },
  {
    "type": "Feature",
    "geometry": {
       "type": "Point",
       "coordinates":  [ 121.489814,25.029942 ]
    },
    "properties": {
    "行政區":"萬華區",
    "名稱":"公有環南綜合市場(署)",
    "地址":"臺北市萬華區環河南路二段245號",
    "所屬機關":"臺北市市場處公有環南綜合市場"
    }
  },
  {
    "type": "Feature",
    "geometry": {
       "type": "Point",
       "coordinates":  [ 121.489814,25.029942 ]
    },
    "properties": {
    "行政區":"萬華區",
    "名稱":"公有環南綜合市場(署)",
    "地址":"臺北市萬華區環河南路二段245號",
    "所屬機關":"臺北市市場處公有環南綜合市場"
    }
  },
  {
    "type": "Feature",
    "geometry": {
       "type": "Point",
       "coordinates":  [ 121.489814,25.029942 ]
    },
    "properties": {
    "行政區":"萬華區",
    "名稱":"公有環南綜合市場(署)",
    "地址":"臺北市萬華區環河南路二段245號",
    "所屬機關":"臺北市市場處公有環南綜合市場"
    }
  },
  {
    "type": "Feature",
    "geometry": {
       "type": "Point",
       "coordinates":  [ 121.489814,25.029942 ]
    },
    "properties": {
    "行政區":"萬華區",
    "名稱":"公有環南綜合市場(署)",
    "地址":"臺北市萬華區環河南路二段245號",
    "所屬機關":"臺北市市場處公有環南綜合市場"
    }
  },
  {
    "type": "Feature",
    "geometry": {
       "type": "Point",
       "coordinates":  [ 121.489814,25.029942 ]
    },
    "properties": {
    "行政區":"萬華區",
    "名稱":"公有環南綜合市場(署)",
    "地址":"臺北市萬華區環河南路二段245號",
    "所屬機關":"臺北市市場處公有環南綜合市場"
    }
  },
  {
    "type": "Feature",
    "geometry": {
       "type": "Point",
       "coordinates":  [ 121.489814,25.029942 ]
    },
    "properties": {
    "行政區":"萬華區",
    "名稱":"公有環南綜合市場(署)",
    "地址":"臺北市萬華區環河南路二段245號",
    "所屬機關":"臺北市市場處公有環南綜合市場"
    }
  },
  {
    "type": "Feature",
    "geometry": {
       "type": "Point",
       "coordinates":  [ 121.489814,25.029942 ]
    },
    "properties": {
    "行政區":"萬華區",
    "名稱":"公有環南綜合市場(署)",
    "地址":"臺北市萬華區環河南路二段245號",
    "所屬機關":"臺北市市場處公有環南綜合市場"
    }
  },
  {
    "type": "Feature",
    "geometry": {
       "type": "Point",
       "coordinates":  [ 121.489814,25.029942 ]
    },
    "properties": {
    "行政區":"萬華區",
    "名稱":"公有環南綜合市場(署)",
    "地址":"臺北市萬華區環河南路二段245號",
    "所屬機關":"臺北市市場處公有環南綜合市場"
    }
  },
  {
    "type": "Feature",
    "geometry": {
       "type": "Point",
       "coordinates":  [ 121.489814,25.029942 ]
    },
    "properties": {
    "行政區":"萬華區",
    "名稱":"公有環南綜合市場(署)",
    "地址":"臺北市萬華區環河南路二段245號",
    "所屬機關":"臺北市市場處公有環南綜合市場"
    }
  },
  {
    "type": "Feature",
    "geometry": {
       "type": "Point",
       "coordinates":  [ 121.489814,25.029942 ]
    },
    "properties": {
    "行政區":"萬華區",
    "名稱":"公有環南綜合市場(署)",
    "地址":"臺北市萬華區環河南路二段245號",
    "所屬機關":"臺北市市場處公有環南綜合市場"
    }
  },
  {
    "type": "Feature",
    "geometry": {
       "type": "Point",
       "coordinates":  [ 121.489814,25.029942 ]
    },
    "properties": {
    "行政區":"萬華區",
    "名稱":"公有環南綜合市場(署)",
    "地址":"臺北市萬華區環河南路二段245號",
    "所屬機關":"臺北市市場處公有環南綜合市場"
    }
  },
  {
    "type": "Feature",
    "geometry": {
       "type": "Point",
       "coordinates":  [ 121.489814,25.029942 ]
    },
    "properties": {
    "行政區":"萬華區",
    "名稱":"公有環南綜合市場(署)",
    "地址":"臺北市萬華區環河南路二段245號",
    "所屬機關":"臺北市市場處公有環南綜合市場"
    }
  },
  {
    "type": "Feature",
    "geometry": {
       "type": "Point",
       "coordinates":  [ 121.489814,25.029942 ]
    },
    "properties": {
    "行政區":"萬華區",
    "名稱":"公有環南綜合市場(署)",
    "地址":"臺北市萬華區環河南路二段245號",
    "所屬機關":"臺北市市場處公有環南綜合市場"
    }
  },
  {
    "type": "Feature",
    "geometry": {
       "type": "Point",
       "coordinates":  [ 121.489814,25.029942 ]
    },
    "properties": {
    "行政區":"萬華區",
    "名稱":"公有環南綜合市場(署)",
    "地址":"臺北市萬華區環河南路二段245號",
    "所屬機關":"臺北市市場處公有環南綜合市場"
    }
  },
  {
    "type": "Feature",
    "geometry": {
       "type": "Point",
       "coordinates":  [ 121.489814,25.029942 ]
    },
    "properties": {
    "行政區":"萬華區",
    "名稱":"公有環南綜合市場(署)",
    "地址":"臺北市萬華區環河南路二段245號",
    "所屬機關":"臺北市市場處公有環南綜合市場"
    }
  },
  {
    "type": "Feature",
    "geometry": {
       "type": "Point",
       "coordinates":  [ 121.489814,25.029942 ]
    },
    "properties": {
    "行政區":"萬華區",
    "名稱":"公有環南綜合市場(署)",
    "地址":"臺北市萬華區環河南路二段245號",
    "所屬機關":"臺北市市場處公有環南綜合市場"
    }
  },
  {
    "type": "Feature",
    "geometry": {
       "type": "Point",
       "coordinates":  [ 121.489814,25.029942 ]
    },
    "properties": {
    "行政區":"萬華區",
    "名稱":"公有環南綜合市場(署)",
    "地址":"臺北市萬華區環河南路二段245號",
    "所屬機關":"臺北市市場處公有環南綜合市場"
    }
  },
  {
    "type": "Feature",
    "geometry": {
       "type": "Point",
       "coordinates":  [ 121.51416,25.074936 ]
    },
    "properties": {
    "行政區":"大同區",
    "名稱":"公有大龍市場(署)",
    "地址":"臺北市大同區重慶北路三段347號",
    "所屬機關":"臺北市市場處公有大龍市場"
    }
  },
  {
    "type": "Feature",
    "geometry": {
       "type": "Point",
       "coordinates":  [ 121.522284,25.030271 ]
    },
    "properties": {
    "行政區":"中正區",
    "名稱":"公有南門市場(署)",
    "地址":"臺北市中正區羅斯福路一段8號",
    "所屬機關":"臺北市市場處公有南門市場"
    }
  },
  {
    "type": "Feature",
    "geometry": {
       "type": "Point",
       "coordinates":  [ 121.515241,25.046139 ]
    },
    "properties": {
    "行政區":"中正區",
    "名稱":"新光三越台北站前店",
    "地址":"臺北市中正區忠孝西路一段66號",
    "所屬機關":"新光三越百貨股份有限公司台北站前店"
    }
  },
  {
    "type": "Feature",
    "geometry": {
       "type": "Point",
       "coordinates":  [ 121.531431,25.045728 ]
    },
    "properties": {
    "行政區":"中正區",
    "名稱":"三創生活園區",
    "地址":"臺北市中正區市民大道三段2號",
    "所屬機關":"三創生活園區"
    }
  },
  {
    "type": "Feature",
    "geometry": {
       "type": "Point",
       "coordinates":  [ 121.531431,25.045728 ]
    },
    "properties": {
    "行政區":"中正區",
    "名稱":"三創生活園區",
    "地址":"臺北市中正區市民大道三段2號",
    "所屬機關":"三創生活園區"
    }
  },
  {
    "type": "Feature",
    "geometry": {
       "type": "Point",
       "coordinates":  [ 121.531431,25.045728 ]
    },
    "properties": {
    "行政區":"中正區",
    "名稱":"三創生活園區",
    "地址":"臺北市中正區市民大道三段2號",
    "所屬機關":"三創生活園區"
    }
  },
  {
    "type": "Feature",
    "geometry": {
       "type": "Point",
       "coordinates":  [ 121.520656,25.052219 ]
    },
    "properties": {
    "行政區":"中山區",
    "名稱":"誠品生活南西店",
    "地址":"臺北市中山區南京西路14號",
    "所屬機關":"誠品生活股份有限公司"
    }
  },
  {
    "type": "Feature",
    "geometry": {
       "type": "Point",
       "coordinates":  [ 121.520656,25.052219 ]
    },
    "properties": {
    "行政區":"中山區",
    "名稱":"誠品生活南西店",
    "地址":"臺北市中山區南京西路14號",
    "所屬機關":"誠品生活股份有限公司"
    }
  },
  {
    "type": "Feature",
    "geometry": {
       "type": "Point",
       "coordinates":  [ 121.520656,25.052219 ]
    },
    "properties": {
    "行政區":"中山區",
    "名稱":"誠品生活南西店",
    "地址":"臺北市中山區南京西路14號",
    "所屬機關":"誠品生活股份有限公司"
    }
  },
  {
    "type": "Feature",
    "geometry": {
       "type": "Point",
       "coordinates":  [ 121.575994,25.064152 ]
    },
    "properties": {
    "行政區":"內湖區",
    "名稱":"好市多購物中心(內湖店)",
    "地址":"臺北市內湖區舊宗路一段268號",
    "所屬機關":"好市多購物中心內湖店"
    }
  },
  {
    "type": "Feature",
    "geometry": {
       "type": "Point",
       "coordinates":  [ 121.575245,25.062596 ]
    },
    "properties": {
    "行政區":"內湖區",
    "名稱":"大潤發購物中心二館",
    "地址":"臺北市內湖區舊宗路一段188號",
    "所屬機關":"大潤發流通事業股份有限公司內湖分公司客服部"
    }
  },
  {
    "type": "Feature",
    "geometry": {
       "type": "Point",
       "coordinates":  [ 121.531342,25.111735 ]
    },
    "properties": {
    "行政區":"士林區",
    "名稱":"大葉高島屋百貨",
    "地址":"臺北市士林區忠誠路二段55號",
    "所屬機關":"大葉高島屋百貨股份有限公司"
    }
  },
  {
    "type": "Feature",
    "geometry": {
       "type": "Point",
       "coordinates":  [ 121.531342,25.111735 ]
    },
    "properties": {
    "行政區":"士林區",
    "名稱":"大葉高島屋百貨",
    "地址":"臺北市士林區忠誠路二段55號",
    "所屬機關":"大葉高島屋百貨股份有限公司"
    }
  },
  {
    "type": "Feature",
    "geometry": {
       "type": "Point",
       "coordinates":  [ 121.544177,25.04614 ]
    },
    "properties": {
    "行政區":"松山區",
    "名稱":"微風廣場",
    "地址":"臺北市松山區復興南路一段39號",
    "所屬機關":"微風廣場"
    }
  },
  {
    "type": "Feature",
    "geometry": {
       "type": "Point",
       "coordinates":  [ 121.544177,25.04614 ]
    },
    "properties": {
    "行政區":"松山區",
    "名稱":"微風廣場",
    "地址":"臺北市松山區復興南路一段39號",
    "所屬機關":"微風廣場"
    }
  },
  {
    "type": "Feature",
    "geometry": {
       "type": "Point",
       "coordinates":  [ 121.5484,25.040184 ]
    },
    "properties": {
    "行政區":"大安區",
    "名稱":"太平洋崇光百貨敦化分館",
    "地址":"臺北市大安區敦化南路一段246號",
    "所屬機關":"太平洋崇光百貨敦化分館工務課"
    }
  },
  {
    "type": "Feature",
    "geometry": {
       "type": "Point",
       "coordinates":  [ 121.5484,25.040184 ]
    },
    "properties": {
    "行政區":"大安區",
    "名稱":"太平洋崇光百貨敦化分館",
    "地址":"臺北市大安區敦化南路一段246號",
    "所屬機關":"太平洋崇光百貨敦化分館工務課"
    }
  },
  {
    "type": "Feature",
    "geometry": {
       "type": "Point",
       "coordinates":  [ 121.566663,25.038882 ]
    },
    "properties": {
    "行政區":"信義區",
    "名稱":"新光三越台北信義新天地A8館",
    "地址":"臺北市信義區松高路12號",
    "所屬機關":"新光三越百貨股份有限公司台北信義新天地A8館"
    }
  },
  {
    "type": "Feature",
    "geometry": {
       "type": "Point",
       "coordinates":  [ 121.566663,25.038882 ]
    },
    "properties": {
    "行政區":"信義區",
    "名稱":"新光三越台北信義新天地A8館",
    "地址":"臺北市信義區松高路12號",
    "所屬機關":"新光三越百貨股份有限公司台北信義新天地A8館"
    }
  },
  {
    "type": "Feature",
    "geometry": {
       "type": "Point",
       "coordinates":  [ 121.566663,25.038882 ]
    },
    "properties": {
    "行政區":"信義區",
    "名稱":"新光三越台北信義新天地A8館",
    "地址":"臺北市信義區松高路12號",
    "所屬機關":"新光三越百貨股份有限公司台北信義新天地A8館"
    }
  },
  {
    "type": "Feature",
    "geometry": {
       "type": "Point",
       "coordinates":  [ 121.566663,25.038882 ]
    },
    "properties": {
    "行政區":"信義區",
    "名稱":"新光三越台北信義新天地A8館",
    "地址":"臺北市信義區松高路12號",
    "所屬機關":"新光三越百貨股份有限公司台北信義新天地A8館"
    }
  },
  {
    "type": "Feature",
    "geometry": {
       "type": "Point",
       "coordinates":  [ 121.566663,25.038882 ]
    },
    "properties": {
    "行政區":"信義區",
    "名稱":"新光三越台北信義新天地A8館",
    "地址":"臺北市信義區松高路12號",
    "所屬機關":"新光三越百貨股份有限公司台北信義新天地A8館"
    }
  },
  {
    "type": "Feature",
    "geometry": {
       "type": "Point",
       "coordinates":  [ 121.566663,25.038882 ]
    },
    "properties": {
    "行政區":"信義區",
    "名稱":"新光三越台北信義新天地A8館",
    "地址":"臺北市信義區松高路12號",
    "所屬機關":"新光三越百貨股份有限公司台北信義新天地A8館"
    }
  },
  {
    "type": "Feature",
    "geometry": {
       "type": "Point",
       "coordinates":  [ 121.566663,25.038882 ]
    },
    "properties": {
    "行政區":"信義區",
    "名稱":"新光三越台北信義新天地A8館",
    "地址":"臺北市信義區松高路12號",
    "所屬機關":"新光三越百貨股份有限公司台北信義新天地A8館"
    }
  },
  {
    "type": "Feature",
    "geometry": {
       "type": "Point",
       "coordinates":  [ 121.566575,25.036018 ]
    },
    "properties": {
    "行政區":"信義區",
    "名稱":"新光三越台北信義新天地A9館",
    "地址":"臺北市信義區松壽路9號",
    "所屬機關":"新光三越百貨股份有限公司台北信義新天地A9館"
    }
  },
  {
    "type": "Feature",
    "geometry": {
       "type": "Point",
       "coordinates":  [ 121.566575,25.036018 ]
    },
    "properties": {
    "行政區":"信義區",
    "名稱":"新光三越台北信義新天地A9館",
    "地址":"臺北市信義區松壽路9號",
    "所屬機關":"新光三越百貨股份有限公司台北信義新天地A9館"
    }
  },
  {
    "type": "Feature",
    "geometry": {
       "type": "Point",
       "coordinates":  [ 121.566575,25.036018 ]
    },
    "properties": {
    "行政區":"信義區",
    "名稱":"新光三越台北信義新天地A9館",
    "地址":"臺北市信義區松壽路9號",
    "所屬機關":"新光三越百貨股份有限公司台北信義新天地A9館"
    }
  },
  {
    "type": "Feature",
    "geometry": {
       "type": "Point",
       "coordinates":  [ 121.566575,25.036018 ]
    },
    "properties": {
    "行政區":"信義區",
    "名稱":"新光三越台北信義新天地A9館",
    "地址":"臺北市信義區松壽路9號",
    "所屬機關":"新光三越百貨股份有限公司台北信義新天地A9館"
    }
  },
  {
    "type": "Feature",
    "geometry": {
       "type": "Point",
       "coordinates":  [ 121.564101,25.033493 ]
    },
    "properties": {
    "行政區":"信義區",
    "名稱":"台北101購物中心",
    "地址":"臺北市信義區市府路45號",
    "所屬機關":"台北101購物中心"
    }
  },
  {
    "type": "Feature",
    "geometry": {
       "type": "Point",
       "coordinates":  [ 121.533924,25.11795 ]
    },
    "properties": {
    "行政區":"士林區",
    "名稱":"新光三越台北天母店",
    "地址":"臺北市士林區天母東路68號",
    "所屬機關":"新光三越百貨股份有限公司臺北天母店"
    }
  },
  {
    "type": "Feature",
    "geometry": {
       "type": "Point",
       "coordinates":  [ 121.533924,25.11795 ]
    },
    "properties": {
    "行政區":"士林區",
    "名稱":"新光三越台北天母店",
    "地址":"臺北市士林區天母東路68號",
    "所屬機關":"新光三越百貨股份有限公司臺北天母店"
    }
  },
  {
    "type": "Feature",
    "geometry": {
       "type": "Point",
       "coordinates":  [ 121.517177,25.046753 ]
    },
    "properties": {
    "行政區":"中正區",
    "名稱":"東森地下街K區",
    "地址":"臺北市中正區忠孝西路一段47號B1",
    "所屬機關":"東森得易購股份有限公司 K區東森廣場營業所"
    }
  },
  {
    "type": "Feature",
    "geometry": {
       "type": "Point",
       "coordinates":  [ 121.520569,25.092177 ]
    },
    "properties": {
    "行政區":"士林區",
    "名稱":"特力和樂士林店",
    "地址":"臺北市士林區基河路258號地下一樓",
    "所屬機關":"特力屋股份有限公司"
    }
  },
  {
    "type": "Feature",
    "geometry": {
       "type": "Point",
       "coordinates":  [ 121.576436,25.062212 ]
    },
    "properties": {
    "行政區":"內湖區",
    "名稱":"悅家居百貨",
    "地址":"臺北市內湖區舊宗路一段150巷25號",
    "所屬機關":"悅家居百貨"
    }
  },
  {
    "type": "Feature",
    "geometry": {
       "type": "Point",
       "coordinates":  [ 121.567968,25.036732 ]
    },
    "properties": {
    "行政區":"信義區",
    "名稱":"遠百信義A13",
    "地址":"臺北市信義區松仁路58號",
    "所屬機關":"遠東百貨股份有限公司"
    }
  },
  {
    "type": "Feature",
    "geometry": {
       "type": "Point",
       "coordinates":  [ 121.567968,25.036732 ]
    },
    "properties": {
    "行政區":"信義區",
    "名稱":"遠百信義A13",
    "地址":"臺北市信義區松仁路58號",
    "所屬機關":"遠東百貨股份有限公司"
    }
  },
  {
    "type": "Feature",
    "geometry": {
       "type": "Point",
       "coordinates":  [ 121.567968,25.036732 ]
    },
    "properties": {
    "行政區":"信義區",
    "名稱":"遠百信義A13",
    "地址":"臺北市信義區松仁路58號",
    "所屬機關":"遠東百貨股份有限公司"
    }
  },
  {
    "type": "Feature",
    "geometry": {
       "type": "Point",
       "coordinates":  [ 121.567968,25.036732 ]
    },
    "properties": {
    "行政區":"信義區",
    "名稱":"遠百信義A13",
    "地址":"臺北市信義區松仁路58號",
    "所屬機關":"遠東百貨股份有限公司"
    }
  },
  {
    "type": "Feature",
    "geometry": {
       "type": "Point",
       "coordinates":  [ 121.557293,25.082837 ]
    },
    "properties": {
    "行政區":"中山區",
    "名稱":"美麗華百樂園",
    "地址":"臺北市中山區敬業三路20號",
    "所屬機關":"美麗華城市發展股份有限公司"
    }
  },
  {
    "type": "Feature",
    "geometry": {
       "type": "Point",
       "coordinates":  [ 121.470067,25.127562 ]
    },
    "properties": {
    "行政區":"北投區",
    "名稱":"好市多北投店",
    "地址":"臺北市北投區立德路117號",
    "所屬機關":"好市多購物中心北投店"
    }
  },
  {
    "type": "Feature",
    "geometry": {
       "type": "Point",
       "coordinates":  [ 121.61539,25.059165 ]
    },
    "properties": {
    "行政區":"南港區",
    "名稱":"中國信託金融園區",
    "地址":"臺北市南港區經貿二路168-188號",
    "所屬機關":"中國信託金融園區"
    }
  },
  {
    "type": "Feature",
    "geometry": {
       "type": "Point",
       "coordinates":  [ 121.516825,25.049345 ]
    },
    "properties": {
    "行政區":"大同區",
    "名稱":"京站時尚廣場",
    "地址":"臺北市大同區承德路一段1號",
    "所屬機關":"京站時尚廣場"
    }
  },
  {
    "type": "Feature",
    "geometry": {
       "type": "Point",
       "coordinates":  [ 121.516825,25.049345 ]
    },
    "properties": {
    "行政區":"大同區",
    "名稱":"京站時尚廣場",
    "地址":"臺北市大同區承德路一段1號",
    "所屬機關":"京站時尚廣場"
    }
  },
  {
    "type": "Feature",
    "geometry": {
       "type": "Point",
       "coordinates":  [ 121.516825,25.049345 ]
    },
    "properties": {
    "行政區":"大同區",
    "名稱":"京站時尚廣場",
    "地址":"臺北市大同區承德路一段1號",
    "所屬機關":"京站時尚廣場"
    }
  },
  {
    "type": "Feature",
    "geometry": {
       "type": "Point",
       "coordinates":  [ 121.568291,25.03928 ]
    },
    "properties": {
    "行政區":"信義區",
    "名稱":"BELLAVITA百貨",
    "地址":"臺北市信義區松仁路28號",
    "所屬機關":"BELLAVITA寶麗廣場"
    }
  },
  {
    "type": "Feature",
    "geometry": {
       "type": "Point",
       "coordinates":  [ 121.517823,25.047989 ]
    },
    "properties": {
    "行政區":"中正區",
    "名稱":"微風臺北車站(署)",
    "地址":"臺北市中正區北平西路3號2F",
    "所屬機關":"微風台北車站"
    }
  },
  {
    "type": "Feature",
    "geometry": {
       "type": "Point",
       "coordinates":  [ 121.5462,25.0418 ]
    },
    "properties": {
    "行政區":"大安區",
    "名稱":"東區地下街",
    "地址":"臺北市大安區大安路一段77號地下街(位於忠孝復興站至忠孝敦化站之間)",
    "所屬機關":"臺北大眾捷運股份有限公司"
    }
  },
  {
    "type": "Feature",
    "geometry": {
       "type": "Point",
       "coordinates":  [ 121.5462,25.0418 ]
    },
    "properties": {
    "行政區":"大安區",
    "名稱":"東區地下街",
    "地址":"臺北市大安區大安路一段77號地下街(位於忠孝復興站至忠孝敦化站之間)",
    "所屬機關":"臺北大眾捷運股份有限公司"
    }
  },
  {
    "type": "Feature",
    "geometry": {
       "type": "Point",
       "coordinates":  [ 121.5462,25.0418 ]
    },
    "properties": {
    "行政區":"大安區",
    "名稱":"東區地下街",
    "地址":"臺北市大安區大安路一段77號地下街(位於忠孝復興站至忠孝敦化站之間)",
    "所屬機關":"臺北大眾捷運股份有限公司"
    }
  },
  {
    "type": "Feature",
    "geometry": {
       "type": "Point",
       "coordinates":  [ 121.547882,25.053903 ]
    },
    "properties": {
    "行政區":"松山區",
    "名稱":"行天宮附設玄空圖書館敦化總館",
    "地址":"臺北市松山區敦化北路120巷9號",
    "所屬機關":"財團法人台北市行天宮附設玄空圖書館敦化總館"
    }
  },
  {
    "type": "Feature",
    "geometry": {
       "type": "Point",
       "coordinates":  [ 121.516179,25.072762 ]
    },
    "properties": {
    "行政區":"大同區",
    "名稱":"孔廟",
    "地址":"臺北市大同區大龍街275號",
    "所屬機關":"臺北市孔廟管理委員會"
    }
  },
  {
    "type": "Feature",
    "geometry": {
       "type": "Point",
       "coordinates":  [ 121.51967,25.092808 ]
    },
    "properties": {
    "行政區":"士林區",
    "名稱":"士林區公所",
    "地址":"臺北市士林區中正路439號",
    "所屬機關":"臺北市士林區公所"
    }
  },
  {
    "type": "Feature",
    "geometry": {
       "type": "Point",
       "coordinates":  [ 121.513555,25.074304 ]
    },
    "properties": {
    "行政區":"大同區",
    "名稱":"臺北市立圖書館大同分館",
    "地址":"臺北市大同區重慶北路三段318號",
    "所屬機關":"臺北市立圖書館大同分館"
    }
  },
  {
    "type": "Feature",
    "geometry": {
       "type": "Point",
       "coordinates":  [ 121.51967,25.092808 ]
    },
    "properties": {
    "行政區":"士林區",
    "名稱":"士林地政事務所",
    "地址":"臺北市士林區中正路439號5樓",
    "所屬機關":"臺北市士林地政事務所"
    }
  },
  {
    "type": "Feature",
    "geometry": {
       "type": "Point",
       "coordinates":  [ 121.51967,25.092808 ]
    },
    "properties": {
    "行政區":"士林區",
    "名稱":"士林區戶政事務所",
    "地址":"臺北市士林區中正路439號3樓",
    "所屬機關":"臺北市士林區戶政事務所"
    }
  },
  {
    "type": "Feature",
    "geometry": {
       "type": "Point",
       "coordinates":  [ 121.56589,25.028577 ]
    },
    "properties": {
    "行政區":"信義區",
    "名稱":"松山地政事務所",
    "地址":"臺北市信義區莊敬路391巷11號",
    "所屬機關":"臺北市松山地政事務所"
    }
  },
  {
    "type": "Feature",
    "geometry": {
       "type": "Point",
       "coordinates":  [ 121.577229,25.049822 ]
    },
    "properties": {
    "行政區":"松山區",
    "名稱":"松山區戶政事務所",
    "地址":"臺北市松山區八德路四段692號4樓",
    "所屬機關":"臺北市松山區戶政事務所"
    }
  },
  {
    "type": "Feature",
    "geometry": {
       "type": "Point",
       "coordinates":  [ 121.577229,25.049822 ]
    },
    "properties": {
    "行政區":"松山區",
    "名稱":"松山區健康服務中心",
    "地址":"臺北市松山區八德路四段692號2樓",
    "所屬機關":"臺北市松山區健康服務中心"
    }
  },
  {
    "type": "Feature",
    "geometry": {
       "type": "Point",
       "coordinates":  [ 121.523342,25.046631 ]
    },
    "properties": {
    "行政區":"中正區",
    "名稱":"臺北市稅捐稽徵總處",
    "地址":"臺北市中正區北平東路7之2號",
    "所屬機關":"臺北市稅捐稽徵處總處"
    }
  },
  {
    "type": "Feature",
    "geometry": {
       "type": "Point",
       "coordinates":  [ 121.510036,25.043204 ]
    },
    "properties": {
    "行政區":"中正區",
    "名稱":"中山堂",
    "地址":"臺北市中正區延平南路98號",
    "所屬機關":"臺北市中山堂管理所"
    }
  },
  {
    "type": "Feature",
    "geometry": {
       "type": "Point",
       "coordinates":  [ 121.61261,25.067415 ]
    },
    "properties": {
    "行政區":"內湖區",
    "名稱":"臺北市立圖書館東湖分館",
    "地址":"臺北市內湖區五分街6號",
    "所屬機關":"臺北市立圖書館東湖分館"
    }
  },
  {
    "type": "Feature",
    "geometry": {
       "type": "Point",
       "coordinates":  [ 121.551672,25.001719 ]
    },
    "properties": {
    "行政區":"文山區",
    "名稱":"臺北市立圖書館文山分館",
    "地址":"臺北市文山區興隆路二段160號7樓",
    "所屬機關":"臺北市立圖書館文山分館"
    }
  },
  {
    "type": "Feature",
    "geometry": {
       "type": "Point",
       "coordinates":  [ 121.569962,24.989558 ]
    },
    "properties": {
    "行政區":"文山區",
    "名稱":"文山區戶政事務所(所本部)",
    "地址":"臺北市文山區木柵路三段220號2樓",
    "所屬機關":"臺北市文山區戶政事務所所本部"
    }
  },
  {
    "type": "Feature",
    "geometry": {
       "type": "Point",
       "coordinates":  [ 121.489538,25.140952 ]
    },
    "properties": {
    "行政區":"北投區",
    "名稱":"臺北市立圖書館稻香分館",
    "地址":"臺北市北投區稻香路81號7樓",
    "所屬機關":"臺北市立圖書館稻香分館"
    }
  },
  {
    "type": "Feature",
    "geometry": {
       "type": "Point",
       "coordinates":  [ 121.55113,25.057122 ]
    },
    "properties": {
    "行政區":"松山區",
    "名稱":"臺北市立圖書館民生分館",
    "地址":"臺北市松山區敦化北路199巷5號4樓",
    "所屬機關":"臺北市立圖書館民生分館"
    }
  },
  {
    "type": "Feature",
    "geometry": {
       "type": "Point",
       "coordinates":  [ 121.561168,25.029062 ]
    },
    "properties": {
    "行政區":"信義區",
    "名稱":"臺北市立圖書館三興分館",
    "地址":"臺北市信義區吳興街156巷6號4樓廁所",
    "所屬機關":"臺北市立圖書館三興分館"
    }
  },
  {
    "type": "Feature",
    "geometry": {
       "type": "Point",
       "coordinates":  [ 121.581973,25.037725 ]
    },
    "properties": {
    "行政區":"信義區",
    "名稱":"信義區公所",
    "地址":"臺北市信義區福德街86號9樓",
    "所屬機關":"臺北市信義區公所"
    }
  },
  {
    "type": "Feature",
    "geometry": {
       "type": "Point",
       "coordinates":  [ 121.581973,25.037725 ]
    },
    "properties": {
    "行政區":"信義區",
    "名稱":"信義區公所",
    "地址":"臺北市信義區福德街86號9樓",
    "所屬機關":"臺北市信義區公所"
    }
  },
  {
    "type": "Feature",
    "geometry": {
       "type": "Point",
       "coordinates":  [ 121.563782,25.037525 ]
    },
    "properties": {
    "行政區":"信義區",
    "名稱":"市政大樓",
    "地址":"臺北市信義區市府路1號",
    "所屬機關":"臺北市政府"
    }
  },
  {
    "type": "Feature",
    "geometry": {
       "type": "Point",
       "coordinates":  [ 121.563782,25.037525 ]
    },
    "properties": {
    "行政區":"信義區",
    "名稱":"市政大樓",
    "地址":"臺北市信義區市府路1號",
    "所屬機關":"臺北市政府"
    }
  },
  {
    "type": "Feature",
    "geometry": {
       "type": "Point",
       "coordinates":  [ 121.563782,25.037525 ]
    },
    "properties": {
    "行政區":"信義區",
    "名稱":"市政大樓",
    "地址":"臺北市信義區市府路1號",
    "所屬機關":"臺北市政府"
    }
  },
  {
    "type": "Feature",
    "geometry": {
       "type": "Point",
       "coordinates":  [ 121.563782,25.037525 ]
    },
    "properties": {
    "行政區":"信義區",
    "名稱":"市政大樓",
    "地址":"臺北市信義區市府路1號",
    "所屬機關":"臺北市政府"
    }
  },
  {
    "type": "Feature",
    "geometry": {
       "type": "Point",
       "coordinates":  [ 121.607951,25.053795 ]
    },
    "properties": {
    "行政區":"南港區",
    "名稱":"臺北市立圖書館南港分館",
    "地址":"臺北市南港區南港路一段350號",
    "所屬機關":"臺北市立圖書館南港分館"
    }
  },
  {
    "type": "Feature",
    "geometry": {
       "type": "Point",
       "coordinates":  [ 121.499932,25.030197 ]
    },
    "properties": {
    "行政區":"萬華區",
    "名稱":"國稅局萬華稽徵所",
    "地址":"臺北市萬華區萬大路90巷1號",
    "所屬機關":"財政部臺北國稅局萬華稽徵所"
    }
  },
  {
    "type": "Feature",
    "geometry": {
       "type": "Point",
       "coordinates":  [ 121.50173,25.032201 ]
    },
    "properties": {
    "行政區":"萬華區",
    "名稱":"臺北市立圖書館西園分館",
    "地址":"臺北市萬華區興寧街6號",
    "所屬機關":"臺北市立圖書館西園分館"
    }
  },
  {
    "type": "Feature",
    "geometry": {
       "type": "Point",
       "coordinates":  [ 121.555021,25.036117 ]
    },
    "properties": {
    "行政區":"大安區",
    "名稱":"臺北市立圖書館延吉閱覽室",
    "地址":"臺北市大安區延吉街236巷17號3-4樓",
    "所屬機關":"臺北市立圖書館延吉民眾閱覽室"
    }
  },
  {
    "type": "Feature",
    "geometry": {
       "type": "Point",
       "coordinates":  [ 121.515458,25.066028 ]
    },
    "properties": {
    "行政區":"大同區",
    "名稱":"臺北市立圖書館蘭州民眾閱覽室",
    "地址":"臺北市大同區昌吉街57號4樓",
    "所屬機關":"臺北市立圖書館蘭州民眾閱覽室"
    }
  },
  {
    "type": "Feature",
    "geometry": {
       "type": "Point",
       "coordinates":  [ 121.562184,25.031783 ]
    },
    "properties": {
    "行政區":"信義區",
    "名稱":"信義公民會館",
    "地址":"臺北市信義區松勤街50號",
    "所屬機關":"信義區公所民政課"
    }
  },
  {
    "type": "Feature",
    "geometry": {
       "type": "Point",
       "coordinates":  [ 121.562981,25.058996 ]
    },
    "properties": {
    "行政區":"松山區",
    "名稱":"民生社區中心",
    "地址":"臺北市松山區民生東路五段163之1號",
    "所屬機關":"民生社區中心"
    }
  },
  {
    "type": "Feature",
    "geometry": {
       "type": "Point",
       "coordinates":  [ 121.562981,25.058996 ]
    },
    "properties": {
    "行政區":"松山區",
    "名稱":"民生社區中心",
    "地址":"臺北市松山區民生東路五段163之1號",
    "所屬機關":"民生社區中心"
    }
  },
  {
    "type": "Feature",
    "geometry": {
       "type": "Point",
       "coordinates":  [ 121.581973,25.037725 ]
    },
    "properties": {
    "行政區":"信義區",
    "名稱":"臺北市立圖書館廣慈分館",
    "地址":"臺北市信義區大仁里福德街86號4樓",
    "所屬機關":"臺北市立圖書館廣慈分館"
    }
  },
  {
    "type": "Feature",
    "geometry": {
       "type": "Point",
       "coordinates":  [ 121.542032,24.990152 ]
    },
    "properties": {
    "行政區":"文山區",
    "名稱":"臺北市立圖書館景新分館",
    "地址":"臺北市文山區景後街151號7樓",
    "所屬機關":"臺北市立圖書館景新分館"
    }
  },
  {
    "type": "Feature",
    "geometry": {
       "type": "Point",
       "coordinates":  [ 121.511122,25.036794 ]
    },
    "properties": {
    "行政區":"中正區",
    "名稱":"臺灣臺北地方法院",
    "地址":"臺北市中正區博愛路131號",
    "所屬機關":"司法新廈管理委員會臺灣臺北地方法院"
    }
  },
  {
    "type": "Feature",
    "geometry": {
       "type": "Point",
       "coordinates":  [ 121.511122,25.036794 ]
    },
    "properties": {
    "行政區":"中正區",
    "名稱":"臺灣臺北地方法院",
    "地址":"臺北市中正區博愛路131號",
    "所屬機關":"司法新廈管理委員會臺灣臺北地方法院"
    }
  },
  {
    "type": "Feature",
    "geometry": {
       "type": "Point",
       "coordinates":  [ 121.533394,25.05766 ]
    },
    "properties": {
    "行政區":"中山區",
    "名稱":"國稅局中北稽徵所",
    "地址":"臺北市中山區松江路219號",
    "所屬機關":"財政部臺北國稅局中北稽徵所"
    }
  },
  {
    "type": "Feature",
    "geometry": {
       "type": "Point",
       "coordinates":  [ 121.545224,25.037512 ]
    },
    "properties": {
    "行政區":"大安區",
    "名稱":"聯合醫院仁愛院區　　　　　",
    "地址":"臺北市大安區仁愛路四段10號",
    "所屬機關":"臺北市立聯合醫院仁愛院區"
    }
  },
  {
    "type": "Feature",
    "geometry": {
       "type": "Point",
       "coordinates":  [ 121.517181,25.041417 ]
    },
    "properties": {
    "行政區":"中正區",
    "名稱":"臺大醫院　　　",
    "地址":"臺北市中正區常德街1號",
    "所屬機關":"國立臺灣大學醫學院附設醫院"
    }
  },
  {
    "type": "Feature",
    "geometry": {
       "type": "Point",
       "coordinates":  [ 121.517181,25.041417 ]
    },
    "properties": {
    "行政區":"中正區",
    "名稱":"臺大醫院　　　",
    "地址":"臺北市中正區常德街1號",
    "所屬機關":"國立臺灣大學醫學院附設醫院"
    }
  },
  {
    "type": "Feature",
    "geometry": {
       "type": "Point",
       "coordinates":  [ 121.517181,25.041417 ]
    },
    "properties": {
    "行政區":"中正區",
    "名稱":"臺大醫院　　　",
    "地址":"臺北市中正區常德街1號",
    "所屬機關":"國立臺灣大學醫學院附設醫院"
    }
  },
  {
    "type": "Feature",
    "geometry": {
       "type": "Point",
       "coordinates":  [ 121.517181,25.041417 ]
    },
    "properties": {
    "行政區":"中正區",
    "名稱":"臺大醫院　　　",
    "地址":"臺北市中正區常德街1號",
    "所屬機關":"國立臺灣大學醫學院附設醫院"
    }
  },
  {
    "type": "Feature",
    "geometry": {
       "type": "Point",
       "coordinates":  [ 121.517181,25.041417 ]
    },
    "properties": {
    "行政區":"中正區",
    "名稱":"臺大醫院　　　",
    "地址":"臺北市中正區常德街1號",
    "所屬機關":"國立臺灣大學醫學院附設醫院"
    }
  },
  {
    "type": "Feature",
    "geometry": {
       "type": "Point",
       "coordinates":  [ 121.517181,25.041417 ]
    },
    "properties": {
    "行政區":"中正區",
    "名稱":"臺大醫院　　　",
    "地址":"臺北市中正區常德街1號",
    "所屬機關":"國立臺灣大學醫學院附設醫院"
    }
  },
  {
    "type": "Feature",
    "geometry": {
       "type": "Point",
       "coordinates":  [ 121.517181,25.041417 ]
    },
    "properties": {
    "行政區":"中正區",
    "名稱":"臺大醫院　　　",
    "地址":"臺北市中正區常德街1號",
    "所屬機關":"國立臺灣大學醫學院附設醫院"
    }
  },
  {
    "type": "Feature",
    "geometry": {
       "type": "Point",
       "coordinates":  [ 121.517181,25.041417 ]
    },
    "properties": {
    "行政區":"中正區",
    "名稱":"臺大醫院　　　",
    "地址":"臺北市中正區常德街1號",
    "所屬機關":"國立臺灣大學醫學院附設醫院"
    }
  },
  {
    "type": "Feature",
    "geometry": {
       "type": "Point",
       "coordinates":  [ 121.529829,25.016476 ]
    },
    "properties": {
    "行政區":"中正區",
    "名稱":"三軍總醫院汀州院區　　",
    "地址":"臺北市中正區汀州路三段40號",
    "所屬機關":"三軍總醫院汀州院區"
    }
  },
  {
    "type": "Feature",
    "geometry": {
       "type": "Point",
       "coordinates":  [ 121.497547,25.02315 ]
    },
    "properties": {
    "行政區":"萬華區",
    "名稱":"聯合醫院萬華門診部　　",
    "地址":"臺北市萬華區東園街152號",
    "所屬機關":"臺北市立聯合醫院萬華門診部"
    }
  },
  {
    "type": "Feature",
    "geometry": {
       "type": "Point",
       "coordinates":  [ 121.506879,25.035528 ]
    },
    "properties": {
    "行政區":"中正區",
    "名稱":"聯合醫院和平婦幼院區(和平)",
    "地址":"臺北市中正區廣州街14號",
    "所屬機關":"臺北市立聯合醫院和平婦幼院區(和平)"
    }
  },
  {
    "type": "Feature",
    "geometry": {
       "type": "Point",
       "coordinates":  [ 121.506879,25.035528 ]
    },
    "properties": {
    "行政區":"中正區",
    "名稱":"聯合醫院和平婦幼院區(和平)",
    "地址":"臺北市中正區廣州街14號",
    "所屬機關":"臺北市立聯合醫院和平婦幼院區(和平)"
    }
  },
  {
    "type": "Feature",
    "geometry": {
       "type": "Point",
       "coordinates":  [ 121.506879,25.035528 ]
    },
    "properties": {
    "行政區":"中正區",
    "名稱":"聯合醫院和平婦幼院區(和平)",
    "地址":"臺北市中正區廣州街14號",
    "所屬機關":"臺北市立聯合醫院和平婦幼院區(和平)"
    }
  },
  {
    "type": "Feature",
    "geometry": {
       "type": "Point",
       "coordinates":  [ 121.520082,25.119349 ]
    },
    "properties": {
    "行政區":"北投區",
    "名稱":"臺北榮民總醫院　　　　　",
    "地址":"臺北市北投區石牌路二段201號",
    "所屬機關":"臺北榮民總醫院"
    }
  },
  {
    "type": "Feature",
    "geometry": {
       "type": "Point",
       "coordinates":  [ 121.520082,25.119349 ]
    },
    "properties": {
    "行政區":"北投區",
    "名稱":"臺北榮民總醫院　　　　　",
    "地址":"臺北市北投區石牌路二段201號",
    "所屬機關":"臺北榮民總醫院"
    }
  },
  {
    "type": "Feature",
    "geometry": {
       "type": "Point",
       "coordinates":  [ 121.520082,25.119349 ]
    },
    "properties": {
    "行政區":"北投區",
    "名稱":"臺北榮民總醫院　　　　　",
    "地址":"臺北市北投區石牌路二段201號",
    "所屬機關":"臺北榮民總醫院"
    }
  },
  {
    "type": "Feature",
    "geometry": {
       "type": "Point",
       "coordinates":  [ 121.520082,25.119349 ]
    },
    "properties": {
    "行政區":"北投區",
    "名稱":"臺北榮民總醫院　　　　　",
    "地址":"臺北市北投區石牌路二段201號",
    "所屬機關":"臺北榮民總醫院"
    }
  },
  {
    "type": "Feature",
    "geometry": {
       "type": "Point",
       "coordinates":  [ 121.520082,25.119349 ]
    },
    "properties": {
    "行政區":"北投區",
    "名稱":"臺北榮民總醫院　　　　　",
    "地址":"臺北市北投區石牌路二段201號",
    "所屬機關":"臺北榮民總醫院"
    }
  },
  {
    "type": "Feature",
    "geometry": {
       "type": "Point",
       "coordinates":  [ 121.520082,25.119349 ]
    },
    "properties": {
    "行政區":"北投區",
    "名稱":"臺北榮民總醫院　　　　　",
    "地址":"臺北市北投區石牌路二段201號",
    "所屬機關":"臺北榮民總醫院"
    }
  },
  {
    "type": "Feature",
    "geometry": {
       "type": "Point",
       "coordinates":  [ 121.520082,25.119349 ]
    },
    "properties": {
    "行政區":"北投區",
    "名稱":"臺北榮民總醫院　　　　　",
    "地址":"臺北市北投區石牌路二段201號",
    "所屬機關":"臺北榮民總醫院"
    }
  },
  {
    "type": "Feature",
    "geometry": {
       "type": "Point",
       "coordinates":  [ 121.520082,25.119349 ]
    },
    "properties": {
    "行政區":"北投區",
    "名稱":"臺北榮民總醫院　　　　　",
    "地址":"臺北市北投區石牌路二段201號",
    "所屬機關":"臺北榮民總醫院"
    }
  },
  {
    "type": "Feature",
    "geometry": {
       "type": "Point",
       "coordinates":  [ 121.520082,25.119349 ]
    },
    "properties": {
    "行政區":"北投區",
    "名稱":"臺北榮民總醫院　　　　　",
    "地址":"臺北市北投區石牌路二段201號",
    "所屬機關":"臺北榮民總醫院"
    }
  },
  {
    "type": "Feature",
    "geometry": {
       "type": "Point",
       "coordinates":  [ 121.520082,25.119349 ]
    },
    "properties": {
    "行政區":"北投區",
    "名稱":"臺北榮民總醫院　　　　　",
    "地址":"臺北市北投區石牌路二段201號",
    "所屬機關":"臺北榮民總醫院"
    }
  },
  {
    "type": "Feature",
    "geometry": {
       "type": "Point",
       "coordinates":  [ 121.520082,25.119349 ]
    },
    "properties": {
    "行政區":"北投區",
    "名稱":"臺北榮民總醫院　　　　　",
    "地址":"臺北市北投區石牌路二段201號",
    "所屬機關":"臺北榮民總醫院"
    }
  },
  {
    "type": "Feature",
    "geometry": {
       "type": "Point",
       "coordinates":  [ 121.520082,25.119349 ]
    },
    "properties": {
    "行政區":"北投區",
    "名稱":"臺北榮民總醫院　　　　　",
    "地址":"臺北市北投區石牌路二段201號",
    "所屬機關":"臺北榮民總醫院"
    }
  },
  {
    "type": "Feature",
    "geometry": {
       "type": "Point",
       "coordinates":  [ 121.520082,25.119349 ]
    },
    "properties": {
    "行政區":"北投區",
    "名稱":"臺北榮民總醫院　　　　　",
    "地址":"臺北市北投區石牌路二段201號",
    "所屬機關":"臺北榮民總醫院"
    }
  },
  {
    "type": "Feature",
    "geometry": {
       "type": "Point",
       "coordinates":  [ 121.520082,25.119349 ]
    },
    "properties": {
    "行政區":"北投區",
    "名稱":"臺北榮民總醫院　　　　　",
    "地址":"臺北市北投區石牌路二段201號",
    "所屬機關":"臺北榮民總醫院"
    }
  },
  {
    "type": "Feature",
    "geometry": {
       "type": "Point",
       "coordinates":  [ 121.520082,25.119349 ]
    },
    "properties": {
    "行政區":"北投區",
    "名稱":"臺北榮民總醫院　　　　　",
    "地址":"臺北市北投區石牌路二段201號",
    "所屬機關":"臺北榮民總醫院"
    }
  },
  {
    "type": "Feature",
    "geometry": {
       "type": "Point",
       "coordinates":  [ 121.520082,25.119349 ]
    },
    "properties": {
    "行政區":"北投區",
    "名稱":"臺北榮民總醫院　　　　　",
    "地址":"臺北市北投區石牌路二段201號",
    "所屬機關":"臺北榮民總醫院"
    }
  },
  {
    "type": "Feature",
    "geometry": {
       "type": "Point",
       "coordinates":  [ 121.520082,25.119349 ]
    },
    "properties": {
    "行政區":"北投區",
    "名稱":"臺北榮民總醫院　　　　　",
    "地址":"臺北市北投區石牌路二段201號",
    "所屬機關":"臺北榮民總醫院"
    }
  },
  {
    "type": "Feature",
    "geometry": {
       "type": "Point",
       "coordinates":  [ 121.520082,25.119349 ]
    },
    "properties": {
    "行政區":"北投區",
    "名稱":"臺北榮民總醫院　　　　　",
    "地址":"臺北市北投區石牌路二段201號",
    "所屬機關":"臺北榮民總醫院"
    }
  },
  {
    "type": "Feature",
    "geometry": {
       "type": "Point",
       "coordinates":  [ 121.520082,25.119349 ]
    },
    "properties": {
    "行政區":"北投區",
    "名稱":"臺北榮民總醫院　　　　　",
    "地址":"臺北市北投區石牌路二段201號",
    "所屬機關":"臺北榮民總醫院"
    }
  },
  {
    "type": "Feature",
    "geometry": {
       "type": "Point",
       "coordinates":  [ 121.520082,25.119349 ]
    },
    "properties": {
    "行政區":"北投區",
    "名稱":"臺北榮民總醫院　　　　　",
    "地址":"臺北市北投區石牌路二段201號",
    "所屬機關":"臺北榮民總醫院"
    }
  },
  {
    "type": "Feature",
    "geometry": {
       "type": "Point",
       "coordinates":  [ 121.520082,25.119349 ]
    },
    "properties": {
    "行政區":"北投區",
    "名稱":"臺北榮民總醫院　　　　　",
    "地址":"臺北市北投區石牌路二段201號",
    "所屬機關":"臺北榮民總醫院"
    }
  },
  {
    "type": "Feature",
    "geometry": {
       "type": "Point",
       "coordinates":  [ 121.520082,25.119349 ]
    },
    "properties": {
    "行政區":"北投區",
    "名稱":"臺北榮民總醫院　　　　　",
    "地址":"臺北市北投區石牌路二段201號",
    "所屬機關":"臺北榮民總醫院"
    }
  },
  {
    "type": "Feature",
    "geometry": {
       "type": "Point",
       "coordinates":  [ 121.547413,25.048094 ]
    },
    "properties": {
    "行政區":"松山區",
    "名稱":"臺安醫院",
    "地址":"臺北市松山區八德路二段424號",
    "所屬機關":"財團法人基督復臨安息日會臺安醫院"
    }
  },
  {
    "type": "Feature",
    "geometry": {
       "type": "Point",
       "coordinates":  [ 121.586098,25.046249 ]
    },
    "properties": {
    "行政區":"南港區",
    "名稱":"聯合醫院忠孝院區　　　　",
    "地址":"臺北市南港區同德路87號",
    "所屬機關":"臺北市立聯合醫院忠孝院區"
    }
  },
  {
    "type": "Feature",
    "geometry": {
       "type": "Point",
       "coordinates":  [ 121.503322,25.041618 ]
    },
    "properties": {
    "行政區":"萬華區",
    "名稱":"國立臺灣大學醫學院附設醫院北護分院",
    "地址":"臺北市萬華區內江街87號",
    "所屬機關":"國立臺灣大學醫學院附設醫院北護分院"
    }
  },
  {
    "type": "Feature",
    "geometry": {
       "type": "Point",
       "coordinates":  [ 121.558387,24.999963 ]
    },
    "properties": {
    "行政區":"文山區",
    "名稱":"臺北市立萬芳醫院　　　　",
    "地址":"臺北市文山區興隆路三段111號",
    "所屬機關":"臺北市立萬芳醫院"
    }
  },
  {
    "type": "Feature",
    "geometry": {
       "type": "Point",
       "coordinates":  [ 121.472414,25.128283 ]
    },
    "properties": {
    "行政區":"北投區",
    "名稱":"和信治癌中心醫院",
    "地址":"臺北市北投區立德路125號",
    "所屬機關":"醫療財團法人辜公亮基金會和信治癌中心醫院"
    }
  },
  {
    "type": "Feature",
    "geometry": {
       "type": "Point",
       "coordinates":  [ 121.592407,25.071435 ]
    },
    "properties": {
    "行政區":"內湖區",
    "名稱":"三軍總醫院內湖院區",
    "地址":"臺北市內湖區成功路二段325號",
    "所屬機關":"三軍總醫院內湖院區"
    }
  },
  {
    "type": "Feature",
    "geometry": {
       "type": "Point",
       "coordinates":  [ 121.592407,25.071435 ]
    },
    "properties": {
    "行政區":"內湖區",
    "名稱":"三軍總醫院內湖院區",
    "地址":"臺北市內湖區成功路二段325號",
    "所屬機關":"三軍總醫院內湖院區"
    }
  },
  {
    "type": "Feature",
    "geometry": {
       "type": "Point",
       "coordinates":  [ 121.592407,25.071435 ]
    },
    "properties": {
    "行政區":"內湖區",
    "名稱":"三軍總醫院內湖院區",
    "地址":"臺北市內湖區成功路二段325號",
    "所屬機關":"三軍總醫院內湖院區"
    }
  }
]
}